FID,MAP,REFNAME,PARKNAME,LOCATION,OBSERVER,FIELDDATE,APPROVDATE,MANAGER,CS,PS,PS_HIGH,PS_LOW,CU,CU_ACTUAL,PU,PU_HIGH,PU_LOW,TH_RANK_CS,TH_RANK_PS,PROB_FLAG,TRL_ENTPT,TRL_SIGN,PARKING,PKG_AUTO,PKG_BUS,PKG_HORSE,PKG_HANDIC,PKG_TYPE,PKG_SUBSTR,RESTROOM,RSTRM_TYPE,RANGER_STA,INFO_KIOSK,WAY_EXH,WATER,PHONE,GARBAGE,RECYC_BINS,MUTTMITT,SCEN_OVRLK,PICNIC,CAMP_REG,CAMP_GRP,CAMP_BCK,COMMENTS,COASTALZN,LVMCOG_TH,lat,lng,SMMTC_TH,DOGS,COUNTY,JURISDN
0,60,"Point Dume State Preserve, Admin Rd",Point Dume State Preserve,Cliffside Drive,Jessica/Jill,3/13/2003,mb12/30/03 entered by NK  09/10/,CDPR,OP,OP,OP,OP,HO,HO,HO,,,Tertiary,Tertiary,YES,Yes,Yes,Yes,9,0,0,2,pullout,paved,No,NA,No,No,No,No,No,Yes,No,No,Official,No,No,No,No,,In,0,34.00308525,-118.8072057,0,N,LOS ANGELES,Malibu
1,60,Pt Dume St Beach/Pt Dume Tr,Point Dume Nat'l Preserve,Cliffside Dr & Birdview Av,Jessica/Jill,9/15/2004,mb12/30/03 entered by NK  09/10/,CDPR,UP,UP,UP,UP,UN,UN,UN,,,Unauthorized,Unauthorized,NO,Yes,No,No,0,0,0,0,NA,NA,No,NA,No,No,No,No,No,Yes,No,No,No,No,No,No,No,"Fire gate, decorative trash cans.  mb-is this really an access point? Yes, nieghborhood access, limited.  No parking or very limited",in,0,34.00328654,-118.8077586,0,,LOS ANGELES,Malibu
2,60,"Pt Dume, Lower Trailhead from Beach",Point Dume State Preserve,End of Parking Area,LJ,9/15/2004,mb12/30/03 entered by NK  09/10/,CDPR,OP,OP,OP,OP,UN,HO,UN,,,Tertiary,Tertiary,NO,Yes,Yes,Yes,100,1,0,1,parking lot,paved,Yes,flush,No,Yes,No,Yes,Yes,Yes,No,No,No,No,No,No,No,"Pop machines.  Lifeguard/first aid.  Pay parking.  No dogs.  (mb:  beach entrance point, not trail)
Can bea added to with additional signage.  Not accessible, trail steep with steps.",In,0,34.00331667,-118.8094981,0,N,LOS ANGELES,Malibu
3,60,Point Dume State Preserve Main Entry,Point Dume State Preserve,Cliffside Drive,MB,9/15/2004,mb12/30/03 entered by NK  09/10/,CDPR,OP,OP,OP,OP,HO,HO,HO,,,Secondary,Secondary,Yes,Yes,Yes,Yes,8,1,0,1,pullout,gravel,No,NA,No,No,No,No,No,Yes,No,Yes,No,No,No,No,No,"Mutt mitts.  No dogs allowed in preserve, but are on boardwalk.  Main user entry",In,2,34.00352458,-118.8066015,0,N,LOS ANGELES,Malibu
4,60,Pt Dume St Beach/Pt Dume Tr,Point Dume Nat'l Preserve,Cliffside Dr,Jessica/Jill,3/13/2003,mb12/30/03 entered by NK  09/10/,,DL,DL,DL,DL,,,,,,NA,NA,,No,No,No,0,0,0,0,NA,NA,No,NA,No,No,No,No,XX,XX,XX,XX,No,No,No,No,No,Delete  This was an entry and has been fenced off.  It now serves as a paved drainage way.,In,0,34.00429073,-118.8058224,0,,LOS ANGELES,Malibu
5,60,Pt Dume St Preserve/Pt Dume Tr,Point Dume Nat'l Preserve,Cliffside Dr,Jessica/Jill,9/15/2004,mb12/30/03 entered by NK  09/10/,CRPD,UP,UP,UP,UP,UN,UN,UN,,,Unauthorized,Unauthorized,YES,No,No,No,0,0,0,0,NA,NA,No,NA,No,No,No,No,No,Yes,No,No,No,No,No,No,No,Exisiting old neighborhood entry,In,0,34.00497581,-118.8050871,0,,LOS ANGELES,Malibu
6,98,"Point Dume / Zuma, Westward Beach Rd",Zuma County Beach,Westward Beach by Zuma Lagoon,Jessica/Jill,9/15/2004,mb12/30/03 entered by NK  09/10/,LA Co Beaches/Harbors,OP,OP,OP,OP,HO,HO,MU,,,Secondary,Secondary,No,Yes,Yes,Yes,100,0,0,4,on-street,paved,Yes,flush,No,Yes,Yes,Yes,Yes,Yes,No,No,No,No,No,No,No,"CCT TH.  Connection to inland trail network is via residential streets to reach Bonsall & Busch THds.
Next to NPS restoration site, soon to be shuttle stop w/ lots of signage",In,1,34.01378527,-118.819429,0,N,LOS ANGELES,Malibu
7,64,Winding Way Trail,Escondido Canyon,PCH ^ Winding Way,Jessica/Jill,3/13/2003,mb12/30/03 entered by NK  09/10/,MRCA,OP,OP,OP,OP,HE,HE,HE,,,Tertiary,Tertiary,,Yes,No,Yes,10,0,0,0,parking lot,paved,Yes,portable,No,No,No,No,XX,Yes,XX,XX,No,No,No,No,No,Equestrian & hiking.  Usually portable concession during the week.,In,1,34.02610016,-118.7799653,0,Y,LOS ANGELES,Malibu
8,63,Haunted House Trailhead,unnamed,Via Tapia,Melanie,,,Other,OP,OP,OP,OP,UN,,,,,Tertiary,Tertiary,,No,No,No,0,0,0,0,NA,NA,No,NA,No,No,No,No,XX,XX,XX,XX,No,No,No,No,No,mb07/2007 - Malibu Trails Advis Cmtee said this is official trailhead and should be added to LVMCOG map,In,3,34.02990129,-118.7587316,0,Y,LOS ANGELES,Malibu
9,0,Chumash Indian Trail - Javid,Zuma and Trancas Canyons,Javid Property Malibu,MB,,mb07/16/07,private,OP,OP,OP,OP,UN,,,,,Tertiary,Tertiary,Yes,Yes,No,No,0,0,0,0,NA,NA,No,NA,No,No,No,No,No,No,No,No,No,No,No,No,No,MB 07/16/07 - Added TH as UP because it is used and should be public when Javid OS comes to NPS; 07/29/08 - Changed to OP for TI Map because it is supposed to be public by now & other trail E side of Javid is.,Coastal,3,34.0309672,-118.8390357,0,Y,LOS ANGELES,Malibu
10,61,CST - Bonsall Trailhead,Zuma and Trancas Canyons,Bonsall Drive Terminus,Jim Anderson,3/22/2001,mb01/01/04,NPS,OP,OP,OP,OP,HE,HE,HE,,,Tertiary,Tertiary,,Yes,Yes,Yes,30,0,888,0,parking lot,dirt,Proposed,composting,No,Proposed,No,Yes,No,Yes,Yes,XX,No,No,No,No,No,Gate. Potable water for horses and water fountain. Hitching post in area. Recorded by JZ 1/14/03,In,1,34.03161185,-118.8121302,0,Y,LOS ANGELES,Malibu
11,62,Malibu Lagoon State Beach,Malibu Lagoon State Beach,Malibu Lagoon State Beach,MB,,mb01/01/04,CDPR,OP,OP,OP,OP,HO,HO,HO,,,Secondary,Secondary,,No,No,Yes,30,0,0,1,parking lot,paved,Yes,portable,No,Yes,Yes,Yes,XX,Yes,XX,XX,No,Yes,No,No,No,In-hse review from memory.  Need field ck.  Rated as secondary because most users are coming to beach; not to go hiking.,in,2,34.0339802,-118.6842163,0,N,LOS ANGELES,Malibu
12,62,"Malibu Bluffs, Michael Landon Center",Malibu Bluffs Park,PCH ^ Winter Mesa,Jessica/Jill,3/13/2003,mb09/08/05 entered by NK 09/03/0,Malibu,OP,OP,OP,OP,HO,HO,HO,,,Tertiary,Secondary,,Yes,No,Yes,68,999,0,4,parking lot,paved,Yes,flush,No,No,No,Yes,Yes,Yes,XX,XX,Potential,Yes,No,No,No,"Beach access, no trail access (mb: there IS trail access here).  2 baseball fields, 2 soccer fields, concession.  mb - proposed joint visitor center location elevates site to primary.  Upgraded to secondary because of possible future satellite visitor ce",In,2,34.03419242,-118.7034622,0,Y,LOS ANGELES,Malibu
13,63,Pt Dume/Via Tapia,,Via Tapia,Jessica/Jill,3/7/2003,mb12/30/03 entered by NK  09/10/,,DL,DL,DL,DL,,,,,,NA,NA,,No,No,No,0,0,0,0,NA,NA,No,NA,No,No,No,No,XX,XX,XX,XX,No,No,No,No,No,,In,0,34.03341833,-118.7584689,0,,LOS ANGELES,Malibu
14,14,Sara Wan Trailhead,Corral Canyon Park,Malibu Fish Market ^ PCH,MB,6/16/2000,mb01/01/04,MRCA,OP,OP,OP,OP,MU,HO,MU,,,Tertiary,Tertiary,,Yes,No,Yes,10,0,0,1,parking lot,paved,Yes,portable,No,No,No,No,XX,XX,XX,XX,No,No,No,No,No,In-hse review (altho I've been to site).  Facilities inventory & parking estimates need field check.,in,1,34.03377683,-118.7347062,0,Y,LOS ANGELES,Malibu
15,62,"PCH,  Adamson House",Malibu Lagoon State Beach,"Pacific Coast Hwy, Adamson House",Jessica/Jill,3/14/2003,mb01/01/04 entered by NK 09/03/0,CDPR,OP,OP,OP,OP,HO,HO,,,,Tertiary,Tertiary,,Yes,Yes,Yes,60,0,0,5,parking lot,paved,No,NA,No,No,No,No,XX,XX,XX,XX,No,No,No,No,No,"mb - need better inventory of facilities.  Consider as access point to California Coastal Trail.  Also, may be connection inland eventually to CST.",In,0,34.03512065,-118.6796507,0,N,LOS ANGELES,Malibu
16,64,DeButts Terrace,,De Butts Terrace north of Winding Way,MB,,mb12/30/03 entered by NK  09/10/,,DL,DL,DL,DL,,,,,,NA,NA,,No,No,No,0,0,0,0,NA,NA,No,NA,No,No,No,No,XX,XX,XX,XX,No,No,No,No,No,Fire road,In,0,34.03426213,-118.781145,0,,LOS ANGELES,Malibu
17,61,Busch Trailhead,Zuma and Trancas Canyons,Busch ^ Zuma Ridge Motorway,Jim Anderson,4/25/2001,mb01/01/04,NPS,OP,OP,OP,OP,MU,MU,MU,,,Tertiary,Tertiary,,Yes,Yes,Yes,15,0,0,0,parking lot,dirt,No,NA,No,Yes,No,No,No,Yes,Proposed,XX,No,No,No,No,No,Gate access to Zuma Ridge Trail. No gate to Zuma Access Trail.,in,1,34.03377994,-118.8180303,0,Y,LOS ANGELES,Malibu
18,63,Solstice Canyon - outer parking lot,Solstice Canyon,Solstice Cyn Gate ^ Corral Canyon Rd,MB,12/27/2001,mb01/01/04,NPS,OP,OP,OP,OP,MU,HO,MU,,,Tertiary,Tertiary,,Yes,Yes,Yes,7,0,0,0,parking lot,paved,No,NA,No,No,No,No,No,Yes,Yes,No,No,No,No,No,No,MB 12/02/09,in,0,34.0349482,-118.7445096,0,Y,LOS ANGELES,Malibu
19,61,Caltrans Pullout ^ Kanan Rd,,Caltrans Pullout ^ Kanan Rd,MB,,mb12/30/03,,UP,EC,EC,EC,UN,,NA,,,Unauthorized,NA,Yes,Yes,No,Yes,888,888,888,888,pullout,dirt,No,NA,No,No,No,No,XX,XX,XX,XX,No,No,No,No,No,Is this TH needed?,Outside,0,34.03438458,-118.7999618,0,,LOS ANGELES,Malibu
20,63,CST - Latigo Canyon Rd,,Latigo Canyon Rd ^ Coastal Slope Trail,Jessica/Jill,3/7/2003,mb12/30/03 entered by NK  09/10/,,UX,EM,EM,EM,UN,HE,,,,NA,Tertiary,,Yes,No,No,0,0,0,0,NA,NA,No,NA,No,No,No,No,XX,XX,XX,XX,No,No,No,No,No,Very unofficial.  Looks like blocked off fire road.  mb:  Propose as CST trailhead.  Would require agency purchase of property that was burned out and has slid in past.,In,0,34.03512717,-118.7625616,0,,LOS ANGELES,Malibu
21,87,Topanga SB -- Beach parking lot,Topanga State Beach,PCH ^ Sunset,MB - in office,6/3/2001,mb06/03/01,CDPR,DL,DL,DL,DL,,,,,,NA,NA,,No,No,No,0,0,0,0,NA,NA,No,NA,No,No,No,No,XX,XX,XX,XX,No,No,No,No,No,,Outside,0,34.03822019,-118.5552616,0,,LOS ANGELES,Los Angeles
22,14,Puerco Cyn Fire Rd,,Puerco Cyn Fire Rd,MB,,mb01/01/04 mb12/17/02,,UP,UP,UP,UP,,,,,,Unauthorized,Unauthorized,Yes,Yes,No,No,0,0,0,0,NA,NA,No,NA,No,No,No,No,XX,XX,XX,XX,No,No,No,No,No,"In-hse review.  Used to be parking at end of Puerco Cyn Rd.  May not be now, and trail may be blocked by guard station for Terminator producer's property (James Cameron).  Public would probably like to see this unofficial access via a fire rd, up to Mesa",Coastal,0,34.03668448,-118.7225902,0,,LOS ANGELES,Malibu
23,63,CST - LADWP Property,,LADWP Property ^ Corral Cyn Rd,MB/EE,6/16/2000,mb01/05/04,,PP,PP,PP,PP,NA,NA,EQ,,,NA,Tertiary,,No,No,Proposed,0,0,99,0,parking lot,dirt,No,NA,No,Proposed,No,Maybe,XX,Proposed,Proposed,XX,No,No,No,No,No,Possible equestrian parking site to supplement two spaces in Solstice inner lot.,in,0,34.03651019,-118.73784,0,,LOS ANGELES,Malibu
24,65,PCH/Budwood Motorway Trailhead,,PCH ^ Budwood,,,mb01/02/04,,DL,DL,DL,DL,,,,,,NA,NA,,No,No,No,0,0,0,0,NA,NA,No,NA,No,No,No,No,XX,XX,XX,XX,No,No,No,No,No,,Outside,0,34.03955255,-118.5998758,0,,LOS ANGELES,Malibu
25,27,CST - Lower Topanga Trailhead,Topanga State Park,Topanga Cyn Blvd ^ PCH,MB DS,,mb01/02/04,CDPR,OP,OP,OP,OP,HO,HO,,,,Tertiary,Tertiary,,No,No,Yes,30,0,0,1,parking lot,gravel,Yes,chemical,No,No,No,No,XX,XX,XX,XX,No,No,No,No,No,"New TH may be considered in Topanga Lagoon restoration.  TH would serve Coastal Slope Trail, Tuna Canyon complex, Topanga SP, California Coastal Trail.",Coastal,0,34.04010462,-118.5799421,0,,LOS ANGELES,Unincorp LA
26,63,Solstice Canyon Trailhead - inner lot,Solstice Canyon,Corral Canyon Rd ^ Solstice Canyon Rd - inner lot,MB/EE,6/16/2000,mb01/01/04,NPS,OP,OP,OP,OP,MU,HE,MU,,,Primary,Primary,,Yes,Yes,Yes,30,1,0,2,parking lot,paved,Yes,composting,No,Yes,No,Yes,No,Yes,Yes,Proposed,No,Yes,No,No,No,"MB 12/02/09:  Auto parking includes 27 paved and marked spots, plus approx. 3 in the DG unused horse pkg area.  2 handicapped spots.",in,1,34.03795839,-118.7470031,0,Y,LOS ANGELES,Malibu
27,65,Malibu/Big Rock Dr,,Big Rock ^ Inland,Jessica/Jill,3/14/2003,entered by NK 09/03/03,,DL,DL,DL,DL,,,,,,NA,NA,,No,No,No,0,0,0,0,NA,NA,No,NA,No,No,No,No,XX,XX,XX,XX,No,No,No,No,No,Residential roads - not trails,Outside,0,34.03981124,-118.6119974,0,,LOS ANGELES,Malibu
28,65,Budwood Motorway,,Budwood Motorway,,,mb01/02/04,,DL,DL,DL,DL,,,,,,NA,NA,,No,No,No,0,0,0,0,NA,NA,No,NA,No,No,No,No,XX,XX,XX,XX,No,No,No,No,No,,Outside,0,34.04043135,-118.6009464,0,,LOS ANGELES,Malibu
29,61,Edison Rd/Cyn View Trailhead,,Edison ^ Canyon View Trail,Jessica/Jill,3/13/2003,mb12/30/03 entered by NK  09/10/,,DL,DL,DL,DL,,,,,,NA,NA,,No,No,No,0,0,0,0,NA,NA,No,NA,No,No,No,No,XX,XX,XX,XX,No,No,No,No,No,,in,0,34.0386671,-118.8032728,0,,LOS ANGELES,Malibu
30,65,Jones Rd,,Jones Road,Jessica/Jill,3/14/2003,entered by NK 09/03/03,,DL,DL,DL,DL,,,,,,NA,NA,,No,No,No,0,0,0,0,NA,NA,No,NA,No,No,No,No,XX,XX,XX,XX,No,No,No,No,No,Residential roads - not trails.,Outside,0,34.04139682,-118.6124563,0,,LOS ANGELES,Malibu
31,62,Malibu/Harbor Vista Dr,,Harbor Vista Drive,MB,,mb12/17/02,,DL,DL,DL,DL,,,,,,NA,NA,,No,No,No,0,0,0,0,NA,NA,No,NA,No,No,No,No,XX,XX,XX,XX,No,No,No,No,No,,Outside,0,34.04135906,-118.6896125,0,,LOS ANGELES,Malibu
32,64,DeButts Terrace & Murphy Motorway,,De Butts Terrace & Murphy Motorway,Jessica/Jill,3/13/2003,entered by NK  09/10/03,,UX,UX,UX,UX,,,,,,NA,NA,,No,No,No,0,0,0,0,NA,NA,No,NA,No,No,No,No,XX,XX,XX,XX,No,No,No,No,No,Fire road access,In,0,34.04037114,-118.7876891,0,,LOS ANGELES,Unincorp LA
33,65,Malibu/Jones Rd,,Jones Road,Jessica/Jill,3/14/2003,entered by NK 09/03/03,,DL,DL,DL,DL,,,,,,NA,NA,,No,No,No,0,0,0,0,NA,NA,No,NA,No,No,No,No,XX,XX,XX,XX,No,No,No,No,No,Residential roads - not trails,Outside,0,34.0427626,-118.6172898,0,,LOS ANGELES,Malibu
34,59,PCH,,Pacific Coast Highway,MB/EE,6/8/2000,6/8/2000,,DL,DL,DL,DL,,,,,,NA,NA,,No,No,No,0,0,0,0,NA,NA,No,NA,No,No,No,No,XX,XX,XX,XX,No,No,No,No,No,,Outside,0,34.03934468,-118.8693316,0,,LOS ANGELES,Malibu
35,65,Malibu/Cool Oak Wy and Big Roc,,Big Rock ^ Cool oak,Jessica/Jill,3/14/2003,entered by NK 09/03/03,,DL,DL,DL,DL,,,,,,NA,NA,,No,No,No,0,0,0,0,NA,NA,No,NA,No,No,No,No,XX,XX,XX,XX,No,No,No,No,No,Residential roads - not trails,Outside,0,34.04330729,-118.6233409,0,,LOS ANGELES,Malibu
36,62,Malibu/Cross Creek Rd & Fines,,Cross Creek ^ Fines,MB,,mb12/17/02,,DL,DL,DL,DL,,,,,,NA,NA,,No,No,No,0,0,0,0,NA,NA,No,NA,No,No,No,No,XX,XX,XX,XX,No,No,No,No,No,,Outside,0,34.04268259,-118.6845056,0,,LOS ANGELES,Malibu
37,34,Malibu/Huntsinger Cir,,Huntsinger Circle,MB,,mb12/17/02,,DL,DL,DL,DL,,,,,,NA,NA,,No,No,No,0,0,0,0,NA,NA,No,NA,No,No,No,No,XX,XX,XX,XX,No,No,No,No,No,,Coastal,0,34.04238964,-118.7136863,0,,LOS ANGELES,Unincorp LA
38,62,Sweetwater Mesa Rd,,Serra Road,MB,,mb12/17/02,,DL,DL,DL,DL,,,,,,NA,NA,,No,No,No,0,0,0,0,NA,NA,No,NA,No,No,No,No,XX,XX,XX,XX,No,No,No,No,No,,Outside,0,34.043523,-118.6753038,0,,LOS ANGELES,Malibu
39,63,Sequit Dr ^ Dry Creek Trail,Solstice Canyon,Sequit Dr ^ Dry Creek Trail,MB/EE,6/16/2000,mb10/31/00,Private,UP,UP,UP,UP,,,,,,Unauthorized,Unauthorized,Yes,Yes,No,No,0,0,0,0,NA,NA,No,NA,No,No,No,No,No,XX,XX,XX,No,No,No,No,No,can not drive to access point; no trespassing posted 50 ft past ped. & equest. trail sign.  Neighborhood access.,In,0,34.04282062,-118.7402902,0,,LOS ANGELES,Unincorp LA
40,66,Lower Topanga Trailhead,Topanga State Park,Topanga Canyon Blvd ^ PCH,MB,99/99/99,mb12/22/11,CDPR,OP,OP,OP,OP,HO,HO,MU,,,Tertiary,Primary,,Yes,No,Yes,30,0,0,1,parking lot,gravel,Yes,chemical,No,No,No,No,XX,XX,XX,No,No,Yes,No,No,No,mb notes info from dale skinner at state parks. 07/01/2010,In,0,34.03980361,-118.5823988,0,,LOS ANGELES,Unincorp LA
41,65,Malibu/Whitecap Way,,Whitecap Way,Jessica/Jill,3/14/2003,entered by NK 09/03/03,,DL,DL,DL,DL,,,,,,NA,NA,,No,No,No,0,0,0,0,NA,NA,No,NA,No,No,No,No,XX,XX,XX,XX,No,No,No,No,No,Residential roads - not trails.,Outside,0,34.04456446,-118.6182712,0,,LOS ANGELES,Malibu
42,97,Malibu/Sumac Ridge Dr,,Sumac Ridge Drive,Jessica/Jill,3/14/2003,entered by NK 09/03/03,,DL,DL,DL,DL,,,,,,NA,NA,,No,No,No,0,0,0,0,NA,NA,No,NA,No,No,No,No,XX,XX,XX,XX,No,No,No,No,No,,Outside,0,34.04450046,-118.6448296,0,,LOS ANGELES,Malibu
43,66,Tuna Cyn Rd,,Tuna Canyon Road,Jessica/Jill,4/7/2003,mb01/02/04 entered by NK 09/03/0,,UP,EM,EM,EM,,,,,,Unauthorized,Tertiary,,Yes,No,No,0,0,0,0,NA,NA,No,NA,No,No,No,No,XX,XX,XX,XX,No,No,No,No,No,mb edits - may be xing point for CST over Tuna Cyn Rd.,Outside,0,34.04547127,-118.589728,0,,LOS ANGELES,Malibu
44,9,DeButts Terrace,,DeButts Terrace,MB,,mb12/30/03,,DL,DL,DL,DL,,,,,,NA,NA,,No,No,No,0,0,0,0,NA,NA,No,NA,No,No,No,No,XX,XX,XX,XX,No,No,No,No,No,,In,0,34.04278487,-118.7895948,0,,LOS ANGELES,Unincorp LA
45,26,Big Rock Dr,,Big Rock Road,Jessica/Jill,3/14/2003,entered by NK 09/03/03,,UP,UP,UP,UP,,,,,,Unauthorized,Unauthorized,Yes,Yes,No,No,0,0,0,0,NA,NA,No,NA,No,No,No,No,XX,XX,XX,XX,No,No,No,No,No,"Gated access to Big Rock Motorway.  LA Co Fire Dept posted No Trespassing signs ""Forestry Research Area"".  mb - Probably being used by neighborhood.  ignore, close, SUP?",Coastal,0,34.04600167,-118.6253585,0,,LOS ANGELES,Unincorp LA
46,87,Topanga SP -- Los Liones Dr,Topanga State Park,Los Liones Drive,MB/EE,8/4/2000,mb01/02/04 mb10/31/00,CDPR,OP,OP,OP,OP,HO,HO,,,,Secondary,Secondary,,Yes,Yes,Yes,34,888,0,1,parking lot,paved,Yes,flush,No,Yes,Yes,Yes,No,Yes,XX,XX,No,Yes,No,No,No,Proposed eastern terminus of CST.  10/7/09 MB - 3 parking lots.  10 spaces by actual trailhead.  Drinking fountain.,Outside,2,34.04744373,-118.5600058,0,N,LOS ANGELES,Los Angeles
47,14,Coralglen Dr ^ Sequit Dr,Solstice Canyon,Coralglen Dr ^ Sequit Dr,MB/EE,6/16/2000,mb06/22/00,Private,DL,DL,DL,DL,NA,HE,,,,Tertiary,Tertiary,Yes,Yes,Yes,No,0,0,0,0,NA,NA,No,NA,No,No,No,No,No,No,No,No,No,No,No,No,No,"ped & eq trail posted on street sign. UP, but probably one of few Official non-parkland entrances, owing to signage on private property inviting use.  11/26/08 - Access to Solstice cut off.  10/15/09 MB - trail sign gone, El Nido Trail closed.",Coastal,0,34.04582617,-118.7418758,0,,LOS ANGELES,Unincorp LA
48,59,Encinal Cyn Rd,,Encinal Canyon Road,MB/EE,6/8/2000,6/8/2000,,DL,DL,DL,DL,,,,,,NA,NA,,No,No,No,0,0,0,0,NA,NA,No,NA,No,No,No,No,XX,XX,XX,XX,No,No,No,No,No,,Outside,0,34.04387108,-118.875861,0,,LOS ANGELES,Malibu
49,26,Budwood Motorway,,Budwood Motorway,,,,,DL,DL,DL,DL,,,,,,NA,NA,,No,No,No,0,0,0,0,NA,NA,No,NA,No,No,No,No,XX,XX,XX,XX,No,No,No,No,No,,Coastal,0,34.04779459,-118.6102362,0,,LOS ANGELES,Unincorp LA
50,58,Malibu Riding & Tennis Club Trails,Malibu Riding & Tennis Club,PCH ^ Nicholas Ridge Mtwy,MB/EE,6/8/2000,6/8/2000,MRT,UX,EM,EM,EM,,,,,,Tertiary,Secondary,,Yes,No,Yes,888,888,0,888,XX,XX,No,NA,No,No,No,No,XX,XX,XX,XX,No,No,No,No,No,"equestrian facility, parking uncertain, restrooms uncertain",Outside,0,34.04377702,-118.9089344,0,,LOS ANGELES,Malibu
51,14,Corral Canyon ^ Coastal Slope Trail,,Corral Canyon ^ Coastal Slope Trail,EE,6/14/2000,mb10/31/00,Private,UX,UX,UX,UX,,,,,,NA,NA,,Yes,No,Yes,2,0,0,0,pullout,dirt,No,NA,No,No,No,No,No,XX,XX,XX,No,No,No,No,No,"Proposed alignment for Coastal Slope Tr, on LACMTP & Missing Links",Coastal,0,34.04667645,-118.7390763,0,,LOS ANGELES,Unincorp LA
52,9,Malibu Vista/Escondido Dr,,Escondido Drive,Jessica/Jill,3/13/2003,mb12/30/03 entered by NK  09/10/,,DL,DL,DL,DL,,,,,,NA,NA,,No,No,No,0,0,0,0,NA,NA,No,NA,No,No,No,No,XX,XX,XX,XX,No,No,No,No,No,Private.  Did not see denoted trail.,Coastal,0,34.04666857,-118.7784395,0,,LOS ANGELES,Unincorp LA
53,27,Yes,,Tuna Canyon Road,,,mb01/02/04,,DL,DL,DL,DL,,,,,,NA,NA,,No,No,No,0,0,0,0,NA,NA,No,NA,No,No,No,No,XX,XX,XX,XX,No,No,No,No,No,,Coastal,0,34.04923014,-118.5959288,0,,LOS ANGELES,Unincorp LA
54,26,Big Rock Dr,,Big Rock Road,Jessica/Jill,3/14/2003,entered by NK 09/03/03,,DL,DL,DL,DL,,,,,,NA,NA,,No,No,No,0,0,0,0,NA,NA,No,NA,No,No,No,No,XX,XX,XX,XX,No,No,No,No,No,Residential roads - not trails.,Coastal,0,34.04897032,-118.6236815,0,,LOS ANGELES,Unincorp LA
55,58,PCH,,Pacific Coast Highway,MB/EE,6/8/2000,6/8/2000,Private,DL,DL,DL,DL,,,,,,NA,NA,,No,No,No,0,0,0,0,NA,NA,No,NA,No,No,No,No,XX,XX,XX,XX,No,No,No,No,No,private driveway,Outside,0,34.04508414,-118.9166401,0,,LOS ANGELES,Malibu
56,6,Zuma/Trancas Canyons -- Zuma Ridge Mtwy/Chumash Indian,Zuma/Trancas Canyons,Zuma Ridge ^ Chumash Indian Trail,MB,,mb12/30/03,,DL,DL,DL,DL,,,,,,NA,NA,,No,No,No,0,0,0,0,NA,NA,No,NA,No,No,No,No,XX,XX,XX,XX,No,No,No,No,No,,Coastal,0,34.04668601,-118.8286018,0,,LOS ANGELES,Unincorp LA
57,85,Topanga State Park/W Sunset Bl,Topanga State Park,West Sunset ^ Will Rogers SP,MB - in office,6/3/2001,mb06/03/01,CDPR,UP,UP,UP,UP,,,,,,Unauthorized,Unauthorized,,Yes,Maybe,No,0,0,0,0,NA,NA,No,NA,No,No,No,No,XX,XX,XX,XX,No,No,No,No,No,"Not field-checked, but I'm unaware of any facilities or parking along Sunset Bl. at this location.",Outside,0,34.05119604,-118.5110277,0,,LOS ANGELES,Los Angeles
58,87,Paseo Miramar,Topanga SP,Paseo Miramar,MB,10/26/2000,mb10/31/00,,UP,UP,UP,UP,,,,,,Unauthorized,Unauthorized,Yes,Yes,Yes,No,0,0,0,0,NA,NA,No,NA,No,No,No,No,No,XX,XX,XX,XX,No,No,No,XX,"very narrow & constrained street, understandably not available for parking.  May be a problem w/neighbors.",,0,34.0507897,-118.5571055,0,,LOS ANGELES,Los Angeles
59,85,"Topanga SP -- Rivas Cyn Rd, outside of NRA",Will Rogers SHP,Rivas Canyon Road,MB - in office,6/3/2001,mb06/03/01,CDPR,DL,DL,DL,DL,,,,,,NA,NA,,No,No,No,0,0,0,0,NA,NA,No,NA,No,No,No,No,XX,XX,XX,XX,No,No,No,No,No,Not distinct entrance.  Use pt. 191.,Outside,0,34.05156095,-118.5163607,0,,LOS ANGELES,Los Angeles
60,1,Nicholas Flat Trail Trailhead,Leo Carrillo State Park,PCH ^ Leo Carrillo SP,MB/EE,6/8/2000,mb12/31/03 6/8/00,CDPR,OP,OP,OP,OP,HO,HO,HO,,,Primary,Primary,,Yes,No,Yes,100,0,99,0,parking lot,paved,Yes,flush,Yes,Yes,No,Yes,Yes,Yes,XX,XX,No,Yes,Yes,No,No,"prkg $6, free park on PCH; flush toilets/water w/i camp; telephones",in,2,34.04614031,-118.9335595,0,N,LOS ANGELES,Unincorp LA
61,1,Leo Carrillo SP -- Yellow Hill Rd,Leo Carrillo State Park,Mulholland ^ Yellow Hill,MB/EE,6/8/2000,mb12/31/03 6/8/00,CDPR,OP,OP,OP,OP,MU,HE,,,,Tertiary,Tertiary,,No,No,Yes,1,0,0,0,pullout,dirt,No,NA,No,No,No,No,No,No,No,No,No,No,No,No,No,users probably park at campground,in,0,34.04613213,-118.9353693,0,N,LOS ANGELES,Unincorp LA
62,1,,Leo Carrillo State Park,Pacific Coast Highway,MB/EE,6/8/2000,6/8/2000,CDPR,DL,DL,DL,DL,,,,,,NA,NA,,No,No,No,0,0,0,0,NA,NA,No,NA,No,No,No,No,XX,XX,XX,XX,No,No,No,No,No,,Coastal,0,34.04611566,-118.9432759,0,,LOS ANGELES,Unincorp LA
63,19,CST - Malibu Canyon ^ Francisco Ranch,,Malibu Canyon ^ Francisco Ranch,MB,,mb01/01/04,,UP,EM,EM,EM,UN,NA,,,,Unauthorized,Tertiary,,No,No,No,0,0,0,0,NA,NA,No,NA,No,No,No,No,XX,XX,XX,XX,No,No,No,No,No,Would be CST crossing point over Malibu Cyn Rd.  No facilities; just public access.,Coastal,0,34.05000328,-118.6933255,0,,LOS ANGELES,Unincorp LA
64,35,CST - Las Flores Cyn,,Las Flores Cyn ^ Coastal Slope Trail,MB,,mb07/26/05,,PP,PP,PP,PP,NA,NA,MU,,,NA,Tertiary,,,No,No,0,0,0,0,NA,NA,Proposed,composting,No,Proposed,No,No,No,Proposed,Proposed,No,No,No,No,No,No,7/26/05 - MB used this DL point # (all previous info updated) to include in the TMP a proposed trailhead at Las Flores Cyn for future Coastal Slope Trail access.,Coastal,0,34.05076258,-118.639069,0,,LOS ANGELES,Unincorp LA
65,14,Barrymore Dr ^ Meteoros residence,Solstice Canyon,Barrymore Drive ^ Meteoros residence,MB/EE,6/16/2000,mb10/31/00,Private,UP,UP,UP,UP,,,,,,Unauthorized,Unauthorized,Yes,Yes,No,No,0,0,0,0,NA,NA,No,NA,No,No,No,No,No,XX,XX,XX,No,No,No,No,No,Little trail goes down to the south from the south side of residence.,Coastal,0,34.0494522,-118.746063,0,,LOS ANGELES,Unincorp LA
66,24,Budwood Mtwy,,Budwood Motorway,Jessica/Jill,4/3/2003,mb01/02/04,,DL,DL,DL,DL,,,,,,NA,NA,,No,No,No,0,0,0,0,NA,NA,No,NA,No,No,No,No,XX,XX,XX,XX,No,No,No,No,No,,Coastal,0,34.05145052,-118.6138981,0,,LOS ANGELES,Unincorp LA
67,6,Zuma/Trancas Canyons -- Zuma Ridge Mtwy pullout,Zuma/Trancas Canyons,Zuma Ridge Motorway,MB,,mb12/30/03,,DL,DL,DL,DL,,,,,,NA,NA,,No,No,No,0,0,0,0,NA,NA,No,NA,No,No,No,No,XX,XX,XX,XX,No,No,No,No,No,,Coastal,0,34.04848795,-118.8297644,0,,LOS ANGELES,Unincorp LA
68,85,Marinette Rd,Will Rogers SHP,Marinette Rd,MB - in office,5/28/2001,mb05/28/01,private,DL,DL,DL,DL,,,,,,NA,NA,,Yes,Maybe,Maybe,0,0,0,0,,,No,NA,No,No,No,No,XX,XX,XX,XX,No,No,No,No,No,"Not field-ckd, neighborhood entrance",in,0,34.05277591,-118.5167399,0,,LOS ANGELES,Los Angeles
69,59,Encinal Cyn Rd,Charmlee Regional Park,Encinal Canyon Road,MB/EE,6/8/2000,mb01/01/04 6/8/00,private,UP,UP,UP,UP,UN,,UN,,,Unauthorized,Unauthorized,,No,No,Yes,2,0,0,0,pullout,dirt,No,NA,No,No,No,No,XX,XX,XX,XX,No,No,No,No,No,"no trespassing posted, but people probably use it to go into Charmlee.  Is on proposed alignment of CST, though, so may possibly work on public access in future.",Outside,0,34.04808296,-118.8755083,0,,LOS ANGELES,Malibu
70,85,Will Rogers - Contact Station,Will Rogers SHP,Will Rogers SP Road,MB - in office,6/3/2001,mb06/03/01,CDPR,DL,DL,DL,DL,,,,,,NA,NA,,Yes,No,No,0,0,0,0,NA,NA,No,NA,No,No,No,No,XX,XX,XX,XX,No,No,No,No,No,NOTE:  This is contact station/entry point for points 188 & 189.  Parking & facilities are recorded under 188.,Outside,0,34.05313606,-118.514226,0,,LOS ANGELES,Los Angeles
71,24,Budwood Motorway,,Budwood Motorway,,,mb01/02/04,,DL,DL,DL,DL,,,,,,NA,NA,,No,No,No,0,0,0,0,NA,NA,No,NA,No,No,No,No,XX,XX,XX,XX,No,No,No,No,No,,Coastal,0,34.05190334,-118.6134063,0,,LOS ANGELES,Unincorp LA
72,24,Budwood Mtwy,,Budwood Motorway,,,mb01/02/04,,DL,DL,DL,DL,,,,,,NA,NA,,No,No,No,0,0,0,0,NA,NA,No,NA,No,No,No,No,XX,XX,XX,XX,No,No,No,No,No,,Coastal,0,34.05199491,-118.615874,0,,LOS ANGELES,Unincorp LA
73,6,Zuma/Trancas Canyons -- Zuma Ridge Mtwy,Zuma/Trancas Canyons,Zuma Ridge Motorway,MB,,mb12/30/03,,DL,DL,DL,DL,,,,,,NA,NA,,No,No,No,0,0,0,0,NA,NA,No,NA,No,No,No,No,XX,XX,XX,XX,No,No,No,No,No,,Coastal,0,34.04912194,-118.8291223,0,,LOS ANGELES,Unincorp LA
74,19,Malibu Lagoon St Beach/Malibu,,Malibu Canyon Road,MB,,mb12/17/02,,DL,DL,DL,DL,,,,,,NA,NA,,No,No,No,0,0,0,0,NA,NA,No,NA,No,No,No,No,XX,XX,XX,XX,No,No,No,No,No,,Coastal,0,34.0514304,-118.6942829,0,,LOS ANGELES,Unincorp LA
75,58,Charmlee - Water Tank Entrance,,Vis Del Preseas,Jessica/Jill,3/17/2003,mb01/01/04 entered by NK  09/10/,,UP,EC,EC,EC,UN,HO,NA,,,Unauthorized,NA,,Yes,No,No,0,0,0,0,NA,NA,No,NA,No,No,No,No,XX,XX,XX,XX,No,No,No,No,No,Steep trail from neighborhood up to Charmlee Park.  mb edits.,In,0,34.04861296,-118.8909507,0,,LOS ANGELES,Malibu
76,24,Budwood Mtwy,,Budwood Motorway,,,mb01/02/04,,DL,DL,DL,DL,,,,,,NA,NA,,No,No,No,0,0,0,0,NA,NA,No,NA,No,No,No,No,XX,XX,XX,XX,No,No,No,No,No,,Coastal,0,34.05257183,-118.6164036,0,,LOS ANGELES,Unincorp LA
77,14,Marby Dr / Baller Mtwy,Solstice Canyon,Marby Dr / Baller Mtwy,MB/EE,6/16/2000,mb10/31/00,Private,UX,UX,UX,UX,,HE,,,,Unauthorized,Unauthorized,,No,No,No,0,0,0,0,NA,NA,No,NA,No,No,No,No,No,XX,XX,XX,No,No,No,No,No,probably just used by neighbors,Coastal,0,34.05081683,-118.7460101,0,,LOS ANGELES,Unincorp LA
78,24,Budwood Mtwy,,Budwood Motorway,,,mb01/02/04,,DL,DL,DL,DL,,,,,,NA,NA,,No,No,No,0,0,0,0,NA,NA,No,NA,No,No,No,No,XX,XX,XX,XX,No,No,No,No,No,,Coastal,0,34.05268874,-118.6169421,0,,LOS ANGELES,Unincorp LA
79,59,Encinal Cyn Rd/Noranda Ln,,Encinal Canyon ^ Noranda,MB/EE,6/8/2000,6/8/2000,private,DL,DL,DL,DL,,,,,,NA,NA,,No,No,No,0,0,0,0,NA,NA,No,NA,No,No,No,No,XX,XX,XX,XX,No,No,No,No,No,,Outside,0,34.04923333,-118.8751677,0,,LOS ANGELES,Malibu
80,85,"Will Rogers SHP, NW end of parking lot",Topanga State Park,"Will Rogers SHP, NW end of parking lot",MB - in office,5/28/2001,mb05/28/01,CDPR,DL,DL,DL,DL,,,,,,NA,NA,,Yes,Yes,No,0,0,0,0,NA,NA,No,NA,No,No,No,No,XX,XX,XX,XX,No,No,No,No,No,Note:  all facilities are covered under pt. 188 to avoid duplication of labeling.,in,0,34.05450964,-118.509776,0,,LOS ANGELES,Los Angeles
81,85,BBT - Will Rogers SHP Main Entrance,Topanga State Park,Will Rogers SHP NE end of pkg lot,MB - in office,5/28/2001,mb05/28/01,CDPR,OP,OP,OP,OP,MU,MU,MU,,,Primary,Primary,,Yes,Yes,Yes,100,0,1,5,parking lot,paved,Yes,flush,Yes,Yes,No,Yes,Yes,Yes,Proposed,XX,No,Yes,No,No,No,"Visited site w/Eric last summer.  TMP Team:  Leave as is (mb added recycle bins, if they don't already have them)",in,2,34.05451847,-118.5119411,0,N,LOS ANGELES,Los Angeles
82,85,Temescal Gateway Park,Temescal Gateway Park,Temescal Cyn Bl N Terminus,MB - in office,6/3/2001,mb06/03/01,MRCA,OP,OP,OP,OP,HO,HO,HO,,,Primary,Primary,,Yes,Yes,Yes,40,0,0,0,parking lot,paved,Yes,flush,Yes,Yes,No,Yes,Yes,Yes,Proposed,XX,No,Yes,No,No,No,"Conference facilities, too.",Outside,2,34.05438957,-118.5286645,0,Y,LOS ANGELES,Los Angeles
83,19,Malibu Lagoon St Beach/Malibu,,Malibu Canyon Road,MB,,mb12/17/02,,DL,DL,DL,DL,,,,,,NA,NA,,No,No,No,0,0,0,0,NA,NA,No,NA,No,No,No,No,XX,XX,XX,XX,No,No,No,No,No,,Coastal,0,34.05255115,-118.6957298,0,,LOS ANGELES,Unincorp LA
84,53,PCH,,PCH,Jessica/Jill,3/17/2003,mb12/31/03 entered by NK  09/10/,,DL,DL,DL,DL,,,,,,NA,NA,,No,No,No,0,0,0,0,NA,NA,No,NA,No,No,No,No,XX,XX,XX,XX,No,No,No,No,No,Developed.  Fire road access.  mb edits.,Outside,0,34.04885695,-118.9503886,0,,VENTURA,Unincorp Ventura
85,24,Budwood Mtwy,,Budwood Motorway,,,mb01/02/04,,DL,DL,DL,DL,,,,,,NA,NA,,No,No,No,0,0,0,0,NA,NA,No,NA,No,No,No,No,XX,XX,XX,XX,No,No,No,No,No,,Coastal,0,34.05434822,-118.618636,0,,LOS ANGELES,Unincorp LA
86,88,El Medio Ave,Topanga State Park,El Medio Avenue,MB - in office,5/28/2001,mb05/28/01,State Parks,OP,OP,OP,OP,HO,HO,HO,,,Tertiary,Tertiary,,Yes,Maybe,Yes,2,0,0,0,on-street,paved,No,NA,No,No,No,No,No,No,No,No,No,No,No,No,No,"Not field-ckd, but familiar with site.  Major dog walking area, altho DPR parkland.  10/15/09 MB - Dale Skinner CDPR, confirmed State Pks manages TH, with street parking.",Outside,0,34.05557148,-118.533807,0,N,LOS ANGELES,Los Angeles
87,1,LEO CARRILLO STATE PARK,Leo Carrillo State Park,Leo Carrillo,MB/EE,6/8/2000,6/8/2000,,DL,DL,DL,DL,,,,,,NA,NA,,No,No,No,0,0,0,0,NA,NA,No,NA,No,No,No,No,XX,XX,XX,XX,No,No,No,No,No,,Coastal,0,34.0502135,-118.9335755,0,,LOS ANGELES,Unincorp LA
88,11,Sostomo Trail ^ Fox Indian Drive Terminus,,Sostomo Trail ^ Fox Indian Drive Terminus,MB,6/14/2000,mb12/30/03,NPS,UP,UP,UP,UP,UN,HE,UN,,,Tertiary,Tertiary,,Yes,Yes,No,0,0,0,0,NA,NA,No,NA,No,No,No,No,XX,XX,XX,XX,No,No,No,No,No,"Considered unofficial, but is made open for Lisa in thankfulness to Roberts family (SMMC agreement).  7/26/05 - Renamed Name & Location for public mapping purposes.",in,0,34.05331843,-118.7558113,0,,LOS ANGELES,Unincorp LA
89,59,CST - Encinal Cyn Rd,,Encinal Canyon Road,MB/EE,6/8/2000,mb01/01/04 6/8/00,private,PP,PP,PP,PP,NA,,HE,,,NA,Tertiary,,No,No,No,0,0,0,0,NA,NA,No,NA,No,No,No,No,XX,XX,XX,XX,No,No,No,No,No,"access for 46 home subdivision, Coastal Slope Tr easement exists",Outside,0,34.05180459,-118.8718216,0,,LOS ANGELES,Malibu
90,24,Big Rock Mtwy,,Big Rock Motorway,,,mb01/02/04,,DL,DL,DL,DL,,,,,,NA,NA,,No,No,No,0,0,0,0,NA,NA,No,NA,No,No,No,No,XX,XX,XX,XX,No,No,No,No,No,,Coastal,0,34.05599438,-118.6191142,0,,LOS ANGELES,Unincorp LA
91,9,Malibu Vista/Latigo Cyn Rd,,Latigo Canyon Rd ^ Baller,MB,3/13/2003,12/30/2003,,DL,DL,DL,DL,,,,,,NA,NA,,No,No,No,0,0,0,0,NA,NA,No,NA,No,No,No,No,XX,XX,XX,XX,No,No,No,No,No,,Coastal,0,34.05424047,-118.7740966,0,,LOS ANGELES,Unincorp LA
92,24,Big Rock Mtwy,,Big Rock Motorway,,,mb01/02/04,,DL,DL,DL,DL,,,,,,NA,NA,,No,No,No,0,0,0,0,NA,NA,No,NA,No,No,No,No,XX,XX,XX,XX,No,No,No,No,No,,Coastal,0,34.05692865,-118.6169871,0,,LOS ANGELES,Unincorp LA
93,24,Big Rock Mtwy,,Big Rock Motorway,,,mb01/02/04,,DL,DL,DL,DL,,,,,,NA,NA,,No,No,No,0,0,0,0,NA,NA,No,NA,No,No,No,No,XX,XX,XX,XX,No,No,No,No,No,,Coastal,0,34.0569429,-118.6181314,0,,LOS ANGELES,Unincorp LA
94,27,Topanga Cyn Blvd pullout,,Topanga Canyon Boulevard,,,mb01/02/04,,DL,DL,DL,DL,,,,,,NA,NA,,No,No,No,0,0,0,0,NA,NA,No,NA,No,No,No,No,XX,XX,XX,XX,No,No,No,No,No,,Coastal,0,34.05755535,-118.583751,0,,LOS ANGELES,Unincorp LA
95,24,Hearst Tank Motorway/Tuna Cyn,,Hearst Tank Motorway,,,,,DL,DL,DL,DL,,,,,,NA,NA,,No,No,No,0,0,0,0,NA,NA,No,NA,No,No,No,No,XX,XX,XX,XX,No,No,No,No,No,,Coastal,0,34.05763729,-118.6117808,0,,LOS ANGELES,Unincorp LA
96,24,Hearst Tank Motorway/Tuna Cyn,,Hearst Tank Motorway,,,,,DL,DL,DL,DL,,,,,,NA,NA,,No,No,No,0,0,0,0,NA,NA,No,NA,No,No,No,No,XX,XX,XX,XX,No,No,No,No,No,,Coastal,0,34.05773814,-118.6097628,0,,LOS ANGELES,Unincorp LA
97,24,Hearst Tank Mtwy/Big Rock Mtwy,,Hearst Tank ^ Big Rock,,,mb01/02/04,,DL,DL,DL,DL,,,,,,NA,NA,,No,No,No,0,0,0,0,NA,NA,No,NA,No,No,No,No,XX,XX,XX,XX,No,No,No,No,No,,Coastal,0,34.05783198,-118.6161819,0,,LOS ANGELES,Unincorp LA
98,24,Hearst Tank Mtwy,,Hearst Tank Motorway,,,mb01/02/04,,DL,DL,DL,DL,,,,,,NA,NA,,No,No,No,0,0,0,0,NA,NA,No,NA,No,No,No,No,XX,XX,XX,XX,No,No,No,No,No,,Coastal,0,34.05792079,-118.6140563,0,,LOS ANGELES,Unincorp LA
99,24,Hearst Tank Mtwy,,Hearst Tank Motorway,,,mb01/02/04,,DL,DL,DL,DL,,,,,,NA,NA,,No,No,No,0,0,0,0,NA,NA,No,NA,No,No,No,No,XX,XX,XX,XX,No,No,No,No,No,,Coastal,0,34.05874463,-118.6168964,0,,LOS ANGELES,Unincorp LA
100,7,Dume Cyn Mtwy,private land,East Side of Kanan Dume Rd ^ Dume Cyn Mtwy,MB/EE,6/16/2000,mb01/01/04 mb10/31/00,Private,UX,UX,UX,UX,MU,,MU,,,NA,NA,,Yes,Yes,No,0,0,0,0,NA,NA,No,NA,No,No,No,No,No,XX,XX,XX,No,No,No,No,XX,"Extensive, long paved road that is required to be opened to public by directive of Coastal Commission as part of violation resolution.  Can take road to other roads exiting to DeButts Terrace in Malibu.  Will always (?) be a trail network entrance, but n",in,0,34.05623036,-118.7982791,0,,LOS ANGELES,Unincorp LA
101,7,West Side of Kanan Dume Rd ^ Edison Rd,Zuma/Trancas Canyons,West Side of Kanan Dume Rd ^ Edison Rd,MB/EE,6/16/2000,mb01/01/04 mb10/31/00,NPS,UP,UP,UP,UP,UN,,UN,,,Unauthorized,Unauthorized,,Yes,No,No,0,0,0,0,NA,NA,No,NA,No,No,No,No,No,XX,XX,XX,No,No,No,No,No,"Unofficial, but probably mtn bikers come out here & ride back to Kanan TH?",Coastal,0,34.05647223,-118.7986359,0,,LOS ANGELES,Unincorp LA
102,6,Zuma & Trancas Cyns/Zuma Ridge,Zuma/Trancas Canyons,Zuma Ridge Motorway,MB,,mb12/30/03,,DL,DL,DL,DL,,,,,,NA,NA,,No,No,No,0,0,0,0,NA,NA,No,NA,No,No,No,No,XX,XX,XX,XX,No,No,No,No,No,,Coastal,0,34.05645665,-118.8338691,0,,LOS ANGELES,Unincorp LA
103,25,Carbon Cyn Rd,,Carbon Canyon Road,,,mb01/01/04,,DL,DL,DL,DL,,,,,,NA,NA,,No,No,No,0,0,0,0,NA,NA,No,NA,No,No,No,No,XX,XX,XX,XX,No,No,No,No,No,,Coastal,0,34.05898868,-118.6584672,0,,LOS ANGELES,Unincorp LA
104,53,Yerba Buena Rd,,PCH ^ Yerba Buena,Jessica/Jill,3/17/2003,mb12/31/03 entered by NK  09/10/,,DL,DL,DL,DL,,,,,,NA,NA,,Yes,No,No,0,0,0,0,NA,NA,No,NA,No,No,No,No,XX,XX,XX,XX,No,No,No,No,No,"""Camp Hess Kramer"" private access.  Fire road.  mb edits.",Outside,0,34.05448861,-118.9645157,0,,VENTURA,Unincorp Ventura
105,24,Tuna Cyn Rd,Tuna Canyon Park,Tuna Canyon ^ Hearst Tank,,,mb01/02/04,MRCA,OP,OP,OP,OP,MU,,,,,Tertiary,Tertiary,,Yes,No,Yes,888,888,0,888,on-street,dirt,No,NA,No,No,No,No,XX,XX,XX,XX,No,No,No,No,No,"mb: proposed access of Tuna Cyn Rd for CST.  Actual future TH may be further up trail, depending on complete acq of optioned part of Tuna Cyn.  May be a good site to develop both CST and loop trail opportunity.",Coastal,2,34.05961966,-118.616531,0,Y,LOS ANGELES,Unincorp LA
106,0,Casale Rd. (end),Topanga State Park,Casale Rd ^ Sullivan Fire Rd,MB/EE,8/4/2000,mb10/31/00,private,OP,OP,UP,UP,MU,,MU,,,Tertiary,Tertiary,Yes,Yes,No,No,0,0,0,0,NA,NA,No,NA,No,No,No,No,No,No,No,No,XX,No,No,No,XX,no parking anytime signs,out,0,34.06107215,-118.5054178,0,N,LOS ANGELES,Los Angeles
107,7,Zuma/Trancas Canyons -- Edison Rd,Zuma/Trancas Canyons,Zuma Ridge Motorway,MB/EE,6/16/2000,mb10/31/00,,DL,DL,DL,DL,,,,,,NA,NA,,No,No,No,0,0,0,0,NA,NA,No,NA,No,No,No,No,XX,XX,XX,XX,No,No,No,No,No,,Coastal,0,34.05713824,-118.8123744,0,,LOS ANGELES,Unincorp LA
108,3,Encinal Cyn Rd,,Encinal Canyon Road,MB/EE,6/8/2000,6/8/2000,private,DL,DL,DL,DL,,,,,,NA,NA,,No,No,No,0,0,0,0,NA,NA,No,NA,No,No,No,No,XX,XX,XX,XX,No,No,No,No,No,no trespassing posted,Coastal,0,34.05663765,-118.8696071,0,,LOS ANGELES,Unincorp LA
109,24,Tuna Cyn Rd,,Tuna Canyon Road,,,mb01/02/04,LACNTY,DL,DL,DL,DL,,,,,,NA,NA,,No,No,No,0,0,0,0,NA,NA,No,NA,No,No,No,No,XX,XX,XX,XX,No,No,No,No,No,,Coastal,0,34.06052701,-118.6138735,0,,LOS ANGELES,Unincorp LA
110,24,Tuna Cyn Rd,,Tuna Canyon Road,,,mb01/02/04,LACNTY,DL,DL,DL,DL,,,,,,NA,NA,,No,No,No,0,0,0,0,NA,NA,No,NA,No,No,No,No,XX,XX,XX,XX,No,No,No,No,No,,Coastal,0,34.06074351,-118.6109461,0,,LOS ANGELES,Unincorp LA
111,24,Tuna Cyn Rd,,Tuna Canyon Road,,,mb01/02/04,,DL,DL,DL,DL,,,,,,NA,NA,,No,No,No,0,0,0,0,NA,NA,No,NA,No,No,No,No,XX,XX,XX,XX,No,No,No,No,No,,Coastal,0,34.06089078,-118.6098583,0,,LOS ANGELES,Unincorp LA
112,88,Leacock Trail Trailhead,Topanga State Park,Bienveneda Ave ^ Leacock Trail,MB - in office,5/28/2001,mb05/28/01,private HOA,OP,OP,OP,OP,HO,HO,HO,,,Tertiary,Tertiary,,Yes,Yes,Yes,1,0,0,0,on-street,paved,No,NA,No,No,No,No,No,Maybe,Maybe,Maybe,No,No,No,No,No,mb01/02/04 - DPR Ranger Tony Hoffman said dogs are allowed along this trail.  10/15/09 - Dale Skinner at CDPR confirmed on-street parking & HOA mgmt.,in,2,34.06210615,-118.5428807,0,N,LOS ANGELES,Los Angeles
113,25,Camp 8/Rambla Pacifico,Camp 8,Rambla Pacifico at Las Flores Canyon Rd,Jessica/Jill,3/14/2003,entered by NK 09/03/03,,DL,DL,DL,DL,,,,,,NA,NA,,No,No,No,0,0,0,0,NA,NA,No,NA,No,No,No,No,XX,XX,XX,XX,No,No,No,No,No,Private driveway.,Coastal,0,34.06139789,-118.6489715,0,,LOS ANGELES,Unincorp LA
114,7,Zuma/Trancas Canyons -- Edison Road pullout,Zuma/Trancas Canyons,Zuma Ridge Motorway,MB/EE,6/16/2000,mb10/31/00,,DL,DL,DL,DL,,,,,,NA,NA,,No,No,No,0,0,0,0,NA,NA,No,NA,No,No,No,No,XX,XX,XX,XX,No,No,No,No,No,,Coastal,0,34.05969568,-118.8152073,0,,LOS ANGELES,Unincorp LA
115,3,Charmlee Regional Park/Charmlee Natural Area,Charmlee Regional Park,Encinal Canyon Road,"MB/EE
MB/EE",6/8/2000,6/8/2000,Malibu,OP,OP,OP,OP,MU,HO,HO,,,Primary,Primary,,Yes,Yes,Yes,30,0,0,0,parking lot,dirt,Yes,flush,Yes,Yes,No,Yes,No,Yes,Proposed,Proposed,No,Yes,No,No,No,Main entrance to park.  Has visitor center.  Run almost exclusively by volunteers for City of Malibu.  Several interpretive walks at park.,Coastal,1,34.05922031,-118.8793466,0,Y,LOS ANGELES,Unincorp LA
116,24,Tuna Cyn Rd,,Tuna Canyon Road,,,mb01/02/04,,DL,DL,DL,DL,,,,,,NA,NA,,No,No,No,0,0,0,0,NA,NA,No,NA,No,No,No,No,XX,XX,XX,XX,No,No,No,No,No,,Coastal,0,34.06367322,-118.6166863,0,,LOS ANGELES,Unincorp LA
117,24,Everding Motorway,,Everding Motorway,Jessica/Jill,4/3/2003,mb12/07/03 entered by NK 09/03/0,,DL,DL,DL,DL,,,,,,NA,NA,,No,No,No,0,0,0,0,NA,NA,No,NA,No,No,No,No,XX,XX,XX,XX,No,No,No,No,No,Gated,Coastal,0,34.06418108,-118.5983723,0,,LOS ANGELES,Unincorp LA
118,116,Edison Rd N ^ Kanan-Dume Rd,Zuma/Trancas Canyons,Edison Rd N ^ Kanan-Dume Rd,MB,3/13/2003,mb12/30/03,,UP,UP,UP,UP,,,,,,Unauthorized,Unauthorized,,Yes,No,No,0,0,0,0,NA,NA,No,NA,No,No,No,No,XX,XX,XX,XX,No,No,No,No,No,"Unofficial, but probably mtn bike riders come out here on occasion to ride back to Kanan TH?",in,0,34.06135653,-118.8038033,0,,LOS ANGELES,Unincorp LA
119,3,Encinal Cyn Rd,,Encinal Canyon Road,MB/EE,6/8/2000,6/8/2000,,DL,DL,DL,DL,,,,,,NA,NA,,No,No,No,0,0,0,0,NA,NA,No,NA,No,No,No,No,XX,XX,XX,XX,No,No,No,No,No,Leads to homeless-looking sites,Coastal,0,34.06064634,-118.8747522,0,,LOS ANGELES,Unincorp LA
120,12,Puerco Motorway,,Puerco Canyon Motorway,MB,,mb12/17/02,,DL,DL,DL,DL,,,,,,NA,NA,,No,No,No,0,0,0,0,NA,NA,No,NA,No,No,No,No,XX,XX,XX,XX,No,No,No,No,No,,Coastal,0,34.06300889,-118.7191103,0,,LOS ANGELES,Unincorp LA
121,11,Corral Cyn Rd,,Corral Canyon Road,MB/EE,6/16/2000,mb10/31/00,,DL,DL,DL,DL,,,,,,NA,NA,,No,No,No,0,0,0,0,NA,NA,No,NA,No,No,No,No,XX,XX,XX,XX,No,No,No,No,No,,Coastal,0,34.0633413,-118.7479608,0,,LOS ANGELES,Unincorp LA
122,3,Encinal Cyn Rd,,Encinal Canyon ^ Lulu Carr,"MB/EE
MB/EE",6/8/2000,6/8/2000,,DL,DL,DL,DL,,,,,,NA,NA,,No,No,No,0,0,0,0,NA,NA,No,NA,No,No,No,No,XX,XX,XX,XX,No,No,No,No,No,,Coastal,0,34.06248422,-118.8769267,0,,LOS ANGELES,Unincorp LA
123,16,Piuma Rd,,Piuma ^ Donmar Ranch,Jessica/Jill,3/7/2003,entered by NK 09/03/03,,DL,DL,DL,DL,,,,,,NA,NA,,No,No,No,0,0,0,0,NA,NA,No,NA,No,No,No,No,XX,XX,XX,XX,No,No,No,No,No,Private drive,Coastal,0,34.06534986,-118.6792639,0,,LOS ANGELES,Unincorp LA
124,24,Hawks Nest Terrace,,Hawks Nest Terrace,Jessica/Jill,4/3/2003,mb01/02/04 entered by NK 09/03/0,,DL,DL,DL,DL,,,,,,NA,NA,,Yes,No,No,0,0,0,0,NA,NA,No,NA,No,No,No,No,XX,XX,XX,XX,No,No,No,No,No,mb edits.,Coastal,0,34.06646907,-118.6065135,0,,LOS ANGELES,Unincorp LA
125,3,Encinal Cyn Rd,,Encinal Canyon Road,MB,,mb01/01/04,private,DL,DL,DL,DL,,,,,,NA,NA,,No,No,XX,888,888,888,888,XX,dirt,No,NA,No,No,No,No,XX,XX,XX,XX,No,No,No,No,No,"overgrown road bed, possibly leads to west ridge of Trancas Cyn - Has 3-park Trl potential  01/01/04mb - has changed to driveway to residence.  Not good for trailhead probably, anymore.",Coastal,0,34.06296641,-118.8704322,0,,LOS ANGELES,Unincorp LA
126,3,Encinal Cyn Rd,,Encinal Canyon Road,"MB/EE
MB/EE",6/8/2000,6/8/2000,,DL,DL,DL,DL,,,,,,NA,NA,,No,No,No,0,0,0,0,NA,NA,No,NA,No,No,No,No,XX,XX,XX,XX,No,No,No,No,No,,Coastal,0,34.0631685,-118.8762552,0,,LOS ANGELES,Unincorp LA
127,86,Split Rock Access,N/A,"Monte Hermoso, PPal Highlands",MB,10/26/2000,mb10/31/00,private,UX,UX,UX,UX,,,,,,NA,NA,No,No,No,Yes,888,888,888,888,on-street,paved,No,NA,XX,XX,XX,Yes,XX,XX,XX,XX,XX,XX,XX,XX,XX,"Split Rock access Trail begins ~500 ft down paved LACF Dept Rd.  Leads up to rocky outcrop, then to barren knoll--party spot.",,0,34.067711,-118.5519485,0,,LOS ANGELES,Los Angeles
128,24,Everding Motorway,,Everding Motorway,Jessica/Jill,4/3/2003,mb12/07/03 entered by NK 09/03/0,,DL,DL,DL,DL,,,,,,NA,NA,,Yes,No,No,0,0,0,0,NA,NA,No,NA,No,No,No,No,XX,XX,XX,XX,No,No,No,No,No,Gated.  mb edits,Coastal,0,34.06777909,-118.6018916,0,,LOS ANGELES,Unincorp LA
129,16,Piuma Rd,,Piuma Road,Jessica/Jill,3/7/2003,entered by NK 09/03/03,,DL,DL,DL,DL,,,,,,NA,NA,,No,No,No,0,0,0,0,NA,NA,No,NA,No,No,No,No,XX,XX,XX,XX,No,No,No,No,No,Private drive,Coastal,0,34.06700994,-118.683813,0,,LOS ANGELES,Unincorp LA
130,11,Corral Cyn Rd/Baller Mtwy Trail,,Corral Canyon ^ Baller,MB/EE,6/16/2000,mb10/31/00,,DL,DL,DL,DL,,,,,,NA,NA,,No,No,No,0,0,0,0,NA,NA,No,NA,No,No,No,No,XX,XX,XX,XX,No,No,No,No,No,,Coastal,0,34.0662071,-118.7540952,0,,LOS ANGELES,Unincorp LA
131,0,Santa Ynez Cyn Park Trailhead,Santa Ynez Canyon Park and TSP,"Santa Ynez Cyn Park, off Palisades Dr.",MB,10/26/2000,mb10/31/00,?,OP,OP,OP,OP,HO,,,,,Tertiary,Tertiary,No,Yes,Yes,Yes,888,0,0,0,on-street,paved,No,NA,No,No,No,No,No,XX,XX,XX,No,No,No,No,No,"dogs on leash, paved trail, till get to reservoir gate.  Security guard says social trail to west leads up to fire rd.  People have come down into off-limits reservoir area--this is a problem.",,0,34.06895222,-118.5604209,0,N,LOS ANGELES,Los Angeles
132,52,Deer Creek Rd,,Deer Creek Road,Jessica/Jill,3/17/2003,mb12/31/03 entered by NK 09/10/0,,DL,DL,DL,DL,,,,,,NA,NA,,No,No,No,0,0,0,0,NA,NA,No,NA,No,No,No,No,XX,XX,XX,XX,No,No,No,No,No,,In,0,34.06289987,-118.9845451,0,,VENTURA,Unincorp Ventura
133,7,Zuma/Trancas Canyons -- Kanan-Dume Rd,Zuma/Trancas Canyons,Kanan Dume Road,MB/EE,6/16/2000,mb01/01/04 mb10/31/00,,UP,EC,EC,EC,UN,,NA,,,Unauthorized,NA,,No,No,Yes,10,0,0,0,pullout,dirt,No,NA,No,No,No,No,No,XX,XX,XX,No,No,No,No,No,"old road bed goes nowhere, but does provide a short unofficial access into parkland.  Should be closed.",Coastal,0,34.06620545,-118.8085734,0,,LOS ANGELES,Unincorp LA
134,3,Encinal Cyn Rd,,Encinal Canyon Road,MB/EE,6/8/2000,6/8/2000,,DL,DL,DL,DL,,,,,,NA,NA,,No,No,No,0,0,0,0,NA,NA,No,NA,No,No,No,No,XX,XX,XX,XX,No,No,No,No,No,,Coastal,0,34.06543357,-118.8725897,0,,LOS ANGELES,Unincorp LA
135,16,Piuma Rd,,Piuma Road,Jessica/Jill,3/7/2003,entered by NK 09/03/03,,DL,DL,DL,DL,,,,,,NA,NA,,No,No,No,0,0,0,0,NA,NA,No,NA,No,No,No,No,XX,XX,XX,XX,No,No,No,No,No,private drive,Coastal,0,34.06813752,-118.6880561,0,,LOS ANGELES,Unincorp LA
136,3,Encinal Cyn Rd,,Encinal Canyon Road,"MB/EE
MB/EE",6/8/2000,6/8/2000,,DL,DL,DL,DL,,,,,,NA,NA,,No,No,No,0,0,0,0,NA,NA,No,NA,No,No,No,No,XX,XX,XX,XX,No,No,No,No,No,,Coastal,0,34.06574441,-118.8761559,0,,LOS ANGELES,Unincorp LA
137,52,Deer Creek Rd,,Deer Creek Road,MB,3/17/2003,mb12/31/03 entered by NK  09/10/,,DL,DL,DL,DL,,,,,,NA,NA,,No,No,No,0,0,0,0,pullout,,No,NA,No,No,No,No,XX,XX,XX,XX,No,No,No,No,No,mb edits.  In-hse review.,In,0,34.06408962,-118.9848545,0,,VENTURA,Unincorp Ventura
138,16,Pimua Ridge/Piuma Rd,,Piuma Road,Jessica/Jill,3/7/2003,entered by NK 09/03/03,,DL,DL,DL,DL,,,,,,NA,NA,,No,No,No,0,0,0,0,NA,NA,No,NA,No,No,No,No,XX,XX,XX,XX,No,No,No,No,No,private drive,Coastal,0,34.06856163,-118.6898388,0,,LOS ANGELES,Unincorp LA
139,3,Encinal Cyn Rd pullout,,Encinal Canyon Road,"MB/EE
MB/EE",6/8/2000,6/8/2000,,DL,DL,DL,DL,,,,,,NA,NA,,No,No,No,0,0,0,0,NA,NA,No,NA,No,No,No,No,XX,XX,XX,XX,No,No,No,No,No,,Coastal,0,34.06588381,-118.8754408,0,,LOS ANGELES,Unincorp LA
140,16,Piuma Rd,,Piuma Road,Jessica/Jill,3/7/2003,entered by NK 09/03/03,,DL,DL,DL,DL,,,,,,NA,NA,,No,No,No,0,0,0,0,NA,NA,No,NA,No,No,No,No,XX,XX,XX,XX,No,No,No,No,No,private drive,Coastal,0,34.06869269,-118.6850562,0,,LOS ANGELES,Unincorp LA
141,3,Encinal Cyn Rd pullout,,Encinal Canyon Road,"MB/EE
MB/EE",6/8/2000,6/8/2000,,DL,DL,DL,DL,,,,,,NA,NA,,No,No,No,0,0,0,0,NA,NA,No,NA,No,No,No,No,XX,XX,XX,XX,No,No,No,No,No,,Coastal,0,34.06661265,-118.8753946,0,,LOS ANGELES,Unincorp LA
142,11,Corral Cyn Rd/Baller Mtwy Trail,NA,Corral Canyon ^ Baller Mtwy,EE,6/14/2000,mb10/31/00,Private,UX,UP,UP,UP,,HE,,,,NA,Unauthorized,Yes,Yes,No,Yes,2,0,0,0,pullout,dirt,No,NA,No,No,No,No,No,XX,XX,XX,No,No,No,No,No,"2 closed gates; South gate to Baller posted with keep out sign, North gate to private road has none.  Coldwell Banker for sale sign  mb01/01/04:  Propose UP because hope NPS has acquired property within next few years.",Coastal,0,34.0685784,-118.7539558,0,,LOS ANGELES,Unincorp LA
143,16,Piuma Rd,,Piuma ^ Rotunde Mesa,,,mb01/01/04,,DL,DL,DL,DL,,,,,,NA,NA,,No,No,No,0,0,0,0,NA,NA,No,NA,No,No,No,No,XX,XX,XX,XX,No,No,No,No,No,,Coastal,0,34.06987148,-118.6692179,0,,LOS ANGELES,Unincorp LA
144,16,Piuma Rd & W Saddle Peak Rd,,Piuma ^ Costa Del Sol,,,mb01/01/04,,DL,DL,DL,DL,,,,,,NA,NA,,No,No,No,0,0,0,0,NA,NA,No,NA,No,No,No,No,XX,XX,XX,XX,No,No,No,No,No,,Coastal,0,34.07027105,-118.666188,0,,LOS ANGELES,Unincorp LA
145,29,Medley Lane,,Tuna Canyon ^ Medley Lane,Jessica/Jill,4/3/2003,mb12/07/03 entered by NK 09/03/0,,DL,DL,DL,DL,,,,,,NA,NA,,No,No,No,0,0,0,0,NA,NA,No,NA,No,No,No,No,XX,XX,XX,XX,No,No,No,No,No,,Coastal,0,34.07178706,-118.6049692,0,,LOS ANGELES,Unincorp LA
146,18,Swenson Dr,,Swenson Drive,Jessica/Jill,4/3/2003,mb01/02/04 entered by NK 09/03/0,,DL,DL,DL,DL,,,,,,NA,NA,,No,No,No,0,0,0,0,NA,NA,No,NA,No,No,No,No,XX,XX,XX,XX,No,No,No,No,No,,Coastal,0,34.07153294,-118.6287355,0,,LOS ANGELES,Unincorp LA
147,18,Rockview Terrace,,Rockview Terrace,Jessica/Jill,4/3/2003,mb12/07/03 entered by NK 09/03/0,,DL,DL,DL,DL,,,,,,NA,NA,,No,No,No,0,0,0,0,NA,NA,No,NA,No,No,No,No,XX,XX,XX,XX,No,No,No,No,No,,Coastal,0,34.0717011,-118.6204501,0,,LOS ANGELES,Unincorp LA
148,90,end of Queensferry Rd,TSP & Sullivan Cyn,Queensferry Road,MB/EE,8/4/2000,mb10/31/00 mb12/22/11 CDPR,LA Co Flood Cntrl Dist,OP,OP,OP,OP,,,,,,Tertiary,Tertiary,Yes,Yes,Yes,No,0,0,0,0,on-street,paved,No,NA,No,No,No,No,No,XX,XX,XX,No,No,No,No,No,"Signage: no parking 7-7 daily on Queenferry and Bayliss, reg signs about dog waste;",Outside,0,34.07387467,-118.5069124,0,,LOS ANGELES,Los Angeles
149,18,Swenson Dr,,Swenson Drive,Jessica/Jill,4/3/2003,mb12/07/03 entered by NK 09/03/0,,DL,DL,DL,DL,,,,,,NA,NA,,No,No,No,0,0,0,0,NA,NA,No,NA,No,No,No,No,XX,XX,XX,XX,No,No,No,No,No,,Coastal,0,34.07292696,-118.6223688,0,,LOS ANGELES,Unincorp LA
150,29,Medley Lane & Crowden Lane int,,Medley ^ Croydon,Jessica/Jill,4/3/2003,entered by NK 09/03/03,,DL,DL,DL,DL,,,,,,NA,NA,,No,No,No,0,0,0,0,NA,NA,No,NA,No,No,No,No,XX,XX,XX,XX,No,No,No,No,No,,Coastal,0,34.07323628,-118.6044781,0,,LOS ANGELES,Unincorp LA
151,7,Kanan-Dume Rd,Zuma and Trancas Canyons,Kanan Dume Rd - view site,EE,6/14/2000,mb10/31/00,NPS,OP,OP,OP,OP,NA,NA,NA,,,Overlook Only,NA,,No,No,Yes,10,0,0,0,parking lot,paved,No,NA,No,No,No,No,No,XX,XX,XX,Official,No,No,No,No,brown trash bins,Coastal,99,34.07079088,-118.8117773,0,,LOS ANGELES,Unincorp LA
152,18,Saddle Peak Rd,,Saddle Peak Road,Jessica/Jill,4/3/2003,mb12/07/03 entered by NK 09/03/0,,DL,DL,DL,DL,,,,,,NA,NA,,No,No,No,0,0,0,0,NA,NA,No,NA,No,No,No,No,XX,XX,XX,XX,No,No,No,No,No,,Coastal,0,34.07375571,-118.62158,0,,LOS ANGELES,Unincorp LA
153,31,Nicholas Flat Trailhead,Leo Carrillo State Park,Nicholas Ridge ^ Decker School Road,Ralf,,mb12/31/03 entered by NK  09/10/,CDPR,OP,OP,OP,OP,HO,HO,HO,,,Tertiary,Tertiary,,Yes,Yes,Yes,2,0,0,0,pullout,paved,No,NA,No,Yes,No,No,No,XX,XX,XX,No,No,No,No,No,Beat up one sided interp board.  Bullet holes in signage - needs to be replaced.,In,2,34.07049468,-118.9063126,0,N,LOS ANGELES,Unincorp LA
154,3,Encinal Cyn Rd pullout,,Encinal Canyon Road,"MB/EE
MB/EE",6/8/2000,6/8/2000,,DL,DL,DL,DL,,,,,,NA,NA,,No,No,No,0,0,0,0,NA,NA,No,NA,No,No,No,No,XX,XX,XX,XX,No,No,No,No,No,,Coastal,0,34.07150317,-118.8750338,0,,LOS ANGELES,Unincorp LA
155,18,Saddle Peak Rd,,Saddle Peak Road,Jessica/Jill,4/3/2003,mb12/07/03 entered by NK 09/03/0,,DL,DL,DL,DL,,,,,,NA,NA,,Maybe,No,No,0,0,0,0,NA,NA,No,NA,No,No,No,No,XX,XX,XX,XX,No,No,No,No,No,,Coastal,0,34.07520968,-118.6263636,0,,LOS ANGELES,Unincorp LA
156,86,Temescal Ridge Trailhead,Topanga State Park,"Via Las Palmas, PPal Highlands",MB,10/26/2000,mb10/31/00,LA City,OP,OP,OP,OP,MU,,MU,,,Tertiary,Tertiary,,Yes,Yes,Yes,11,0,0,1,parking lot,paved,Yes,flush,No,No,No,Yes,No,Yes,XX,XX,No,No,No,No,No,"Fenced-in parking lot, may close & lock at night.  Odd because there is a house number on post. Well-signed direcs to TH thru neighborhood.",Outside,2,34.07629302,-118.5462116,0,N,LOS ANGELES,Los Angeles
157,18,Saddle Peak Rd,,Saddle Peak Road,Jessica/Jill,4/3/2003,mb01/02/04 entered by NK 09/03/0,,DL,DL,DL,DL,,,,,,NA,NA,,No,No,No,0,0,0,0,NA,NA,No,NA,No,No,No,No,XX,XX,XX,XX,No,No,No,No,No,Fire gate,Coastal,0,34.07575065,-118.6279023,0,,LOS ANGELES,Unincorp LA
158,15,BBT - Piuma Rd Hairpin Trailhead,Malibu Creek State Park,Piuma Rd ^ hairpin corner,MB,,mb12/10/03 mb11/05/02 mb12/22/11,CDPR,OP,OP,OP,OP,HE,HE,,,,Tertiary,Tertiary,,Yes,Maybe,Yes,2,0,0,0,pullout,dirt,No,NA,No,No,No,No,XX,XX,XX,XX,No,No,No,No,No,In-house review from memory. TMP Team:  Really no room for any other expansion.  Leave as-is.,Coastal,2,34.07618453,-118.6860689,0,N,LOS ANGELES,Unincorp LA
159,3,Encinal Cyn Rd pullout,,Encinal Canyon Road,"MB/EE
MB/EE",6/8/2000,6/8/2000,,DL,DL,DL,DL,,,,,,NA,NA,,No,No,No,0,0,0,0,NA,NA,No,NA,No,No,No,No,XX,XX,XX,XX,No,No,No,No,No,,Coastal,0,34.07344593,-118.8753577,0,,LOS ANGELES,Unincorp LA
160,52,Deer Creek Rd,,Deer Creek Road,Jessica/Jill,3/17/2003,mb12/31/03 entered by NK  09/10/,,DL,DL,DL,DL,,,,,,NA,NA,,Yes,No,No,0,0,0,0,NA,NA,No,NA,No,No,No,No,XX,XX,XX,XX,Potential,No,No,No,No,Hooks up to a fire road,Outside,0,34.07168317,-118.9920193,0,,VENTURA,Unincorp Ventura
161,51,Sycamore Canyon Campground,Point Mugu State Park,PCH at Big Sycamore Canyon,Jessica/Jill,3/17/2003,mb12/31/03 entered by NK  09/10/,CDPR,OP,OP,OP,OP,MU,MU,,,,Primary,Primary,,Yes,Yes,Yes,45,0,99,4,parking lot,paved,Yes,flush,No,No,No,Yes,Yes,Yes,Yes,XX,No,Yes,Yes,No,No,Beach access via underpass.  No horses.  Outdoor shower.  Recycling bins.,In,2,34.07159097,-119.0141556,0,N,VENTURA,Unincorp Ventura
162,86,Santa Ynez Cyn Trailhead,Topanga State Park,Vereda De La Montura ^ Santa Ynez Canyon Trail,MB,10/26/2000,mb10/31/00,CDPR,OP,OP,OP,OP,HO,HO,HO,,,Tertiary,Tertiary,Yes,Yes,Yes,Yes,888,888,0,888,on-street,paved,No,NA,No,No,No,No,No,Yes,Yes,XX,No,No,No,No,No,"Trash/recycling bins.  No dogs, no bikes, no fires, no alcoholic bevs, on-street pkg prohibited 8am-6pm in vicinity of trailhead",Outside,2,34.07844589,-118.5672972,0,N,LOS ANGELES,Los Angeles
163,18,Saddle Peak Rd,,Saddle Peak Road,Jessica/Jill,4/3/2003,mb01/02/04 entered by NK 09/03/0,,DL,DL,DL,DL,,,,,,NA,NA,,No,No,No,0,0,0,0,NA,NA,No,NA,No,No,No,No,XX,XX,XX,XX,No,No,No,No,No,mb edits.,Coastal,0,34.0779723,-118.632408,0,,LOS ANGELES,Unincorp LA
164,86,Trailer Cyn Fire Rd,Topanga State Park,Michael Lane,MB,10/26/2000,mb10/31/00,LA County,OP,OP,OP,OP,MU,MU,MU,,,Tertiary,Tertiary,,Yes,Yes,Yes,5,0,0,0,on-street,paved,No,NA,No,No,No,No,No,No,No,No,No,No,No,No,No,"Only sign:  ""Entering CA SP property.  You are responsible?   Could be unpopular entry general public entrance.  10/15/09 MB - Dale Skinner at DPR said Flood Ctrl or LACFD may manage TH.  DPR does signs.",,2,34.07898046,-118.5596461,0,N,LOS ANGELES,Los Angeles
165,20,BBT - Piuma Rd Quaker-Ross,State Parkland,Piuma Rd ^ Cold Cyn Rd,MB,,mb12/10/03 mb11/05/02 mb6/8/05,private,DL,DL,DL,DL,NA,NA,NA,,,NA,NA,,Maybe,No,Proposed,0,0,0,0,parking lot,paved,Proposed,flush,No,Proposed,No,Maybe,XX,Proposed,Proposed,XX,No,No,No,No,No,Proposed BBT trailhead at graded development site.  MB has met on site w/Melinda Becker & other concerned citizens who would like to see trailhead at site.  TMP Team:  Site is contingent on DPR accepting the long-running OTD.  Perhaps use LVMWD water.  P,Coastal,0,34.07752605,-118.6925012,0,,LOS ANGELES,Unincorp LA
166,5,BBT - Kanan Trailhead,Zuma and Trancas Canyons,Kanan Dume Rd ^ Newton Cyn Rd,EE,6/14/2000,mb12/09/03 mb10/31/00,NPS,OP,OP,OP,OP,MU,MU,MU,,,Secondary,Secondary,,Yes,Yes,Yes,22,0,0,1,parking lot,paved,Proposed,composting,No,Yes,Yes,No,No,Yes,Yes,XX,No,No,No,No,No,brown trash bin,Coastal,2,34.07601481,-118.8154544,0,Y,LOS ANGELES,Unincorp LA
167,89,Kenter Ave (North end),Hilton Open Space,Kenter Avenue,MB/EE,8/4/2000,mb10/31/00,private / DWP,UP,UP,UP,UP,UN,MU,UN,,,Unauthorized,Unauthorized,Yes,Yes,No,Yes,888,888,888,888,on-street,paved,No,NA,No,No,No,No,No,XX,XX,XX,No,No,No,No,No,"narrow street, neighbors perturbed about public use",Outside,0,34.08197156,-118.4947045,0,,LOS ANGELES,Los Angeles
168,8,BBT - Latigo Cyn Rd,Castro Crest - Adjacent,Latigo Canyon Road ^ BBT,MB,11/5/2002,mb12/09/03 mb11/05/02,NPS,OP,OP,OP,OP,MU,MU,MU,,,Tertiary,Tertiary,,Yes,Yes,Yes,5,0,0,0,parking lot,dirt,No,NA,No,Proposed,No,No,XX,XX,XX,XX,No,No,No,No,No,"In-office review based on memory.  TMP Team:  Keep as-is, except add info bulletin board.",Coastal,2,34.07805297,-118.7937182,0,Y,LOS ANGELES,Unincorp LA
169,99,Yerba Buena Rd,,Yerba Buena Road,Jessica/Jill,3/17/2003,entered by NK  09/10/03,,DL,DL,DL,DL,,,,,,NA,NA,,No,No,No,0,0,0,0,NA,NA,No,NA,No,No,No,No,XX,XX,XX,XX,No,No,No,No,No,,Outside,0,34.07585698,-118.9535926,0,,VENTURA,Unincorp Ventura
170,10,Corral Cyn ^ Mesa Peak Mtwy,Malibu Creek State Park,Corral Cyn Rd N Terminus,EE,6/14/2000,mb10/31/00,CDPR,OP,OP,OP,OP,MU,MU,,,,Tertiary,Tertiary,,Yes,No,Yes,2,0,0,0,pullout,dirt,No,NA,No,No,No,No,No,XX,XX,XX,No,No,No,No,XX,"Mesa Peak Mtwy is gated.  Official, but not primary entr.  Main trailhead is to north.",in,0,34.07907751,-118.7554786,0,N,LOS ANGELES,Unincorp LA
171,30,BBT - Piuma Trailhead,Malibu Creek State Park,Malibu Canyon ^ Mesa Peak Motorway,MB  JZ/JK,11/5/2002,mb12/09/03 mb11/05/02,CDPR,OP,OP,OP,OP,MU,MU,MU,,,Tertiary,Tertiary,,Yes,Yes,Yes,25,0,0,0,parking lot,paved,Yes,chemical,No,Proposed,No,No,No,Yes,Proposed,XX,No,No,No,No,No,,Coastal,2,34.07984576,-118.7036368,0,N,LOS ANGELES,Unincorp LA
172,5,BBT - Kanan Dume Rd N - overflow,Zuma and Trancas Canyons,Kanan Dume Road N of Newton Cyn,EE,6/14/2000,mb01/01/04 mb10/31/00,NPS,OP,OP,OP,OP,MU,MU,EQ,,,Tertiary,Tertiary,,Yes,Yes,Yes,10,999,1,0,pullout,dirt,No,NA,No,Proposed,No,No,No,Proposed,Proposed,XX,Potential,No,No,No,No,SMMNRA and No Motor Vehicles signs posted.  TMP Team:  No toilet here - use toilet at other Kanan BBT lot.  Use as equestrian parking area?,Coastal,2,34.07867961,-118.8179875,0,Y,LOS ANGELES,Unincorp LA
173,18,BBT - Lois Ewen Overlook,Topanga State Park/Cold Creek Preserve,Saddle Peak Road ^ Piuma & Schueren Rds,MB,,mb12/10/03 mb11/05/02 mb09/18/08,MRCA,OP,OP,OP,OP,HE,HO,,,,Tertiary,Tertiary,,Yes,No,Yes,10,0,0,0,parking lot,paved,No,NA,No,No,Yes,No,No,Yes,XX,No,Official,No,No,No,No,11/2002 - Planning for overlook was underway  MB - 9/2008 - Lois Ewen Overlook now constructed.  Need to field check facilities.,Coastal,2,34.08129611,-118.6454166,0,Y,LOS ANGELES,Unincorp LA
174,17,Monte Nido/Maynard Dr,,Maynard Dr at Stunt High Trail,Jessica/Jill,4/3/2003,mb01/01/04 entered by NK 09/03/0,,DL,DL,DL,DL,,,,,,NA,NA,,No,No,No,0,0,0,0,NA,NA,No,NA,No,No,No,No,XX,XX,XX,XX,No,No,No,No,No,mb edits.  JZ/JK proposed as new trailhead.,Coastal,0,34.08189267,-118.6831961,0,,LOS ANGELES,Unincorp LA
175,10,BBT - Corral Canyon Trailhead,Malibu Creek State Park,End of Corral Cyn Rd,EE,6/14/2000,mb12/09/03 mb10/31/00,CDPR,OP,OP,OP,OP,MU,MU,MU,,,Tertiary,Tertiary,,Yes,Yes,Yes,50,0,0,0,parking lot,gravel,No,NA,No,No,No,No,No,Yes,Proposed,XX,No,No,No,No,No,"Signage:  no motorbikes, or camping;  dogs on leash OK (mb:  only to west, not to east);  Castro gated North of backbone trailhead.  TMP Team:  No facilities here owing to isolation, vandalism, crime potential.",Coastal,2,34.08191748,-118.7583635,0,Y,LOS ANGELES,Unincorp LA
176,18,Saddle Peak Rd ^ Hondo Cyn Trail,Topanga State Park,Saddle Peak Rd ^ Hondo Cyn Trail,M Beck,5/5/2008,mb 05/05/08,CDPR,OP,OP,OP,OP,HE,HO,HE,,,Tertiary,Tertiary,,Yes,Yes,Yes,1,0,0,0,on-street,dirt,No,NA,No,No,No,No,No,No,No,No,No,No,No,No,No,05/05/08 - Melanie added per field work to site BBT signage,Coastal,0,34.08371291,-118.6359916,0,N,LOS ANGELES,Unincorp LA
177,90,Westridge Dr (top of),Westridge-Canyon Back Wilderness Park,Westridge ^ West Mandeville Fire Rd,MB/EE,8/4/2000,mb10/31/00,private,UP,UP,UP,UP,UN,MU,UN,,,Unauthorized,Unauthorized,Yes,Yes,No,Yes,888,888,888,888,on-street,paved,No,NA,No,No,No,No,No,XX,XX,XX,No,No,No,No,No,"no parking 7am to 3pm Sat. & Sun. only.  Street is broad, no constraints on safe parking.",Outside,0,34.08548496,-118.5088835,0,,LOS ANGELES,Los Angeles
178,17,Monte Nido/Cold Cyn Rd,,Cold Canyon at Stunt High Trail,Jessica/Jill,4/3/2003,entered by NK 09/03/03,,UP,UP,UP,UP,,HE,,,,Unauthorized,Unauthorized,,Yes,No,No,0,0,0,0,NA,NA,No,NA,No,No,No,No,XX,XX,XX,XX,No,No,No,No,No,mb edits.  JZ/JK proposed as new trailhead.,Coastal,0,34.08328098,-118.6845389,0,,LOS ANGELES,Unincorp LA
179,13,Malibu Ck St Pk/Tapia Park,Malibu Creek State Park,Tapia Park ^ Malibu Cyn Rd,MB,,mb01/01/04 mb01/08/03,CDPR,OP,OP,OP,OP,MU,MU,MU,,,Secondary,Secondary,,Yes,Maybe,Yes,112,0,0,2,parking lot,paved,Yes,flush,No,No,No,Yes,XX,Yes,XX,XX,No,Yes,No,No,No,In-hse edits.  Needs field check.  10/9/09 MB BingMaps pkg space count - Shuttle lot only:  112+2handic,Coastal,2,34.08290858,-118.7055356,0,N,LOS ANGELES,Unincorp LA
180,5,Kanan Dume Rd ^ Dume Canyon Rd,,Zuma & Trancas Cyns/Kanan Dume,EE,6/14/2000,mb10/31/00,Private,DL,DL,DL,DL,,,,,,NA,NA,,No,No,No,0,0,0,0,NA,NA,No,NA,No,No,No,No,XX,XX,XX,XX,No,No,No,No,No,,Coastal,0,34.08248711,-118.8185962,0,,LOS ANGELES,Unincorp LA
181,20,Stunt Rd pullout,,Stunt Road,MB,,mb12/17/02,,DL,DL,DL,DL,,,,,,NA,NA,,No,No,No,0,0,0,0,NA,NA,No,NA,No,No,No,No,XX,XX,XX,XX,No,No,No,No,No,,Coastal,0,34.08512786,-118.6554755,0,,LOS ANGELES,Unincorp LA
182,20,Stunt Rd pullout,,Stunt Road,MB,,mb12/17/02,,DL,DL,DL,DL,,,,,,NA,NA,,No,No,No,0,0,0,0,NA,NA,No,NA,No,No,No,No,XX,XX,XX,XX,No,No,No,No,No,,Coastal,0,34.08511411,-118.6564953,0,,LOS ANGELES,Unincorp LA
183,30,Tapia Park ^ Mott Road,Tapia Park,Tapia Park ^ Mott Road,MB,1/29/2003,mb01/29/03,CDPR,DL,DL,DL,DL,,,,,,NA,NA,,Yes,Maybe,No,0,0,0,0,NA,NA,No,NA,No,No,No,No,XX,XX,XX,XX,No,No,No,No,No,Input from MCSP staff.,Coastal,0,34.08436035,-118.7114854,0,,LOS ANGELES,Unincorp LA
184,20,Stunt Rd pullout,,Stunt Road,MB,,mb12/17/02,,DL,DL,DL,DL,,,,,,NA,NA,,No,No,No,0,0,0,0,NA,NA,No,NA,No,No,No,No,XX,XX,XX,XX,No,No,No,No,No,,Coastal,0,34.08536725,-118.6542721,0,,LOS ANGELES,Unincorp LA
185,89,Mt St Marys Fire Rd,,Mount Saint Marys Fire Road,MB/EE,8/4/2000,mb10/31/00,Private,UX,UX,UX,UX,,,,,,NA,NA,,No,No,Yes,888,888,888,888,parking lot,paved,No,NA,No,No,No,No,No,XX,XX,XX,No,No,No,No,No,used primarily by students,Outside,0,34.08786987,-118.4836532,0,,LOS ANGELES,Los Angeles
186,5,Kanan-Dume Rd pullout,,Kanan Dume Road,EE,6/14/2000,mb10/31/00,Private,DL,DL,DL,DL,,,,,,NA,NA,,No,No,No,0,0,0,0,NA,NA,No,NA,No,No,No,No,XX,XX,XX,XX,No,No,No,No,No,,Coastal,0,34.08358407,-118.8163106,0,,LOS ANGELES,Unincorp LA
187,20,BBT - Stunt Rd,Malibu Creek State Park,Stunt Road,MB,,mb12/10/03 mb12/17/02,CDPR,OP,OP,OP,OP,HO,HO,,,,Tertiary,Tertiary,,Yes,Maybe,Yes,888,0,0,0,pullout,dirt,No,NA,No,No,No,No,No,No,No,XX,No,No,No,No,No,"In-hse review.  TMP Team:  did not review this entrance.  Probably should remain as a low-key entrance, similar to what will be at Yerba Buena/Etz-Meloy xing.",Coastal,0,34.08582291,-118.6602675,0,N,LOS ANGELES,Unincorp LA
188,20,Stunt Rd pullout,,Stunt Road,MB,,mb12/17/02,,DL,DL,DL,DL,,,,,,NA,NA,,No,No,No,0,0,0,0,NA,NA,No,NA,No,No,No,No,XX,XX,XX,XX,No,No,No,No,No,,Coastal,0,34.08623778,-118.6575912,0,,LOS ANGELES,Unincorp LA
189,20,Stunt Rd/Stunt High Trailhead,Cold Creek Preserve,Stunt ^ Stunt High Trail,MB,,mb01/01/04 mb12/17/02,MRT,OP,OP,OP,OP,HO,HO,,,,Tertiary,Tertiary,,Yes,Maybe,Yes,888,0,0,0,pullout,dirt,No,NA,No,No,No,No,XX,XX,XX,XX,No,No,No,No,No,In-hse review,Coastal,2,34.08622185,-118.6587719,0,N,LOS ANGELES,Unincorp LA
190,89,Casiano Road,Sepulveda Pass Open Space,N terminus of Casiano Road,MB - in office,,,MRCA,OP,OP,OP,OP,MU,,,,,Tertiary,Tertiary,,Yes,,Yes,1,0,0,0,on-street,paved,No,NA,No,No,No,No,No,,,,No,No,No,No,No,MB - 07/27/08 - Added as OP because illus'd on MRCA map.  Need to field check facils.,Outside,2,34.08881623,-118.4724169,0,Y,LOS ANGELES,Los Angeles
191,17,Cold Cyn Rd,,Cold Canyon ^ Calabasas/Cold Creek Trail,Jessica/Jill,4/3/2003,mb01/01/04 entered by NK 09/03/0,,DL,DL,DL,DL,,,,,,NA,NA,,,No,No,0,0,0,0,NA,NA,No,NA,No,No,No,No,XX,XX,XX,XX,No,No,No,No,No,mb edits,Coastal,0,34.0862948,-118.681431,0,,LOS ANGELES,Unincorp LA
192,36,Powderhorn Ranch Rd,,Powderhorn Ranch Road  Montevista Road,Andrew Paden,,2/24/2000,Private,DL,DL,DL,DL,,,,,,NA,NA,,No,No,No,0,0,0,0,NA,NA,No,NA,No,No,No,No,XX,XX,XX,XX,No,No,No,No,No,Not sure if trail is present. Access is difficult.  Many no tres. Signs.,Coastal,0,34.08738819,-118.6177988,0,,LOS ANGELES,Unincorp LA
193,20,Stunt Rd,,Stunt Road,MB,,mb12/17/02,,DL,DL,DL,DL,,,,,,NA,NA,,No,No,No,0,0,0,0,NA,NA,No,NA,No,No,No,No,XX,XX,XX,XX,No,No,No,No,No,,Coastal,0,34.08682814,-118.6652804,0,,LOS ANGELES,Unincorp LA
194,2,Malibu Springs/Mulholland Hwy,Leo Carrillo State Park - Adjacent,Mulholland ^ Malibu Springs South Trailhead,MB/EE,6/8/2000,mb12/31/03 6/8/00,NPS,OP,OP,OP,OP,HO,HO,HO,,,Tertiary,Tertiary,,Yes,No,Yes,3,0,0,0,pullout,dirt,No,NA,No,No,No,No,XX,XX,XX,XX,No,No,No,No,No,"signage: no dogs, no bikes",Coastal,2,34.08376373,-118.9181646,0,N,LOS ANGELES,Unincorp LA
195,23,Monte Vista Dr,,Monte Vista Drive  --  Montevista Road,Andrew Paden,,mb02/24/00,Private,DL,DL,DL,DL,,,,,,NA,NA,,No,No,No,0,0,0,0,NA,NA,No,NA,No,No,No,No,XX,XX,XX,XX,No,No,No,No,No,This is a private community with all entrances marked as no tres.  Trails don't connect.,Coastal,0,34.08846262,-118.6118646,0,,LOS ANGELES,Unincorp LA
196,4,BBT - Encinal Cyn Rd,Zuma and Trancas Canyons,Encinal Canyon Clarke Ranch Road,MB/EE,6/8/2000,mb01/01/04  6/8/00,NPS,OP,OP,OP,OP,MU,,MU,,,Tertiary,Tertiary,,Yes,Yes,Yes,0,0,0,0,pullout,dirt,Proposed,composting,No,Proposed,No,No,XX,Proposed,Proposed,XX,No,No,No,No,No,proposed BBT trailhead,in,2,34.08535594,-118.8622592,0,Y,LOS ANGELES,Unincorp LA
197,51,Thornehill Broome Beach Campground,Point Mugu State Park,"Pacific Coast Highway, Thornehill Broome Beach C.G.",Jessica/Jill,3/17/2003,mb12/31/03 entered by NK  09/10/,CDPR,OP,OP,OP,OP,HO,HO,,,,Tertiary,Tertiary,,Yes,No,Yes,888,0,0,0,,XX,Yes,portable,No,No,No,Yes,Yes,Yes,XX,XX,No,No,Yes,Yes,No,"Campground host.    No shower.  mb - doesn't access inland trail network, but would serve California Coastal Trail.",In,0,34.08301848,-119.0355408,0,N,VENTURA,Unincorp Ventura
198,23,Topanga Cyn Blvd/Old Topanga C,,Topanga Canyon ^ Old Topanga Canyon,MB,11/1/2000,mb11/01/00,,DL,DL,DL,DL,,,,,,NA,NA,,No,No,No,0,0,0,0,NA,NA,No,NA,No,No,No,No,XX,XX,XX,XX,No,No,No,No,No,,Coastal,0,34.08958196,-118.6047152,0,,LOS ANGELES,Unincorp LA
199,4,Zuma/Trancas Edison Rd Access Rd.,Zuma/Trancas Canyons,Encinal Canyon ^ Edison,MB/EE,6/8/2000,mb12/09/03 6/8/00,NPS,UP,UP,UP,UP,UN,HE,UN,,,Unauthorized,NA,,Yes,No,No,0,0,0,0,NA,NA,No,NA,No,No,No,No,XX,XX,XX,XX,No,No,No,No,No,"Edison access road. Public can park somewhere along Encinal & walk up this road to reach BBT, but no plans to make it official.",Coastal,0,34.08621833,-118.8461907,0,,LOS ANGELES,Unincorp LA
200,4,Encinal Cyn Rd ^ Malibu Country Club,Trancas Canyon,Encinal Cyn Rd ^ Malibu Country Club,MB/EE,6/8/2000,mb01/01/04 6/8/00,NPS,UP,UP,UP,UP,NA,HO,NA,,,Unauthorized,NA,,Yes,No,Yes,10,0,0,0,pullout,dirt,No,NA,No,No,No,No,No,XX,XX,XX,No,No,No,No,No,Only serves a Camp 13 unauthorized trail.  Trail should be rehab'd & access should be at BBT/Encinal proposed TH.,Outside,0,34.08747488,-118.8550305,0,,LOS ANGELES,Unincorp LA
201,17,Cold Cyn Rd,,Cold Canyon Road,Jessica/Jill,4/3/2003,mb01/01/04 entered by NK 09/03/0,,DL,DL,DL,DL,,,,,,NA,NA,,Yes,No,No,0,0,0,0,NA,NA,No,NA,No,No,No,No,XX,XX,XX,XX,No,No,No,No,No,mb edits,Coastal,0,34.09028143,-118.6807044,0,,LOS ANGELES,Unincorp LA
202,20,Stunt Ranch/Stunt Rd,Cold Creek Preserve,Stunt ^ Stunt High Trail,,,mb01/01/04,MRCA,OP,OP,OP,OP,HO,HO,HO,,,Tertiary,Tertiary,,Yes,No,No,0,0,0,0,NA,NA,No,NA,No,No,No,No,XX,XX,XX,XX,No,No,No,No,No,In-hse review.  No facilities besides trail signage.,Coastal,0,34.09073382,-118.6571956,0,N,LOS ANGELES,Unincorp LA
203,23,Topanga State Park/Entrada Rd,Topanga State Park,Entrada Road,Andrew,2/23/2000,mb11/01/00,CDPR,DL,DL,DL,DL,,,,,,NA,NA,,No,No,No,0,0,0,0,NA,NA,No,NA,No,No,No,No,XX,XX,XX,XX,No,No,No,No,No,,Coastal,0,34.0915985,-118.5931972,0,,LOS ANGELES,Unincorp LA
204,20,Upper Stunt High Trail Trailhead,Stunt Ranch,Stunt High Trail ^ Stunt Ranch Entrance,,,mb01/01/04,Cold Creek Preserve,OP,OP,OP,OP,HO,HO,,,,Tertiary,Tertiary,,Yes,Maybe,Yes,888,0,0,0,on-street,dirt,No,NA,No,No,No,No,No,No,No,No,No,No,No,No,No,"In-hse review.  10/15/09 MB - Spoke w Nancy Helsley.  School busses pick children up from this point, not down in the ranch, itself.  People can park along road.",Coastal,2,34.0907765,-118.6557018,0,N,LOS ANGELES,Unincorp LA
205,2,Mulholland Hwy,,Mulholland Highway,MB/EE,6/8/2000,6/8/2000,Private,DL,DL,DL,DL,,,,,,NA,NA,,No,No,No,0,0,0,0,NA,NA,No,NA,No,No,No,No,XX,XX,XX,XX,No,No,No,No,No,private driveway,Coastal,0,34.08744815,-118.8980621,0,,LOS ANGELES,Unincorp LA
206,117,Topanga State Park/Colina Dr.,Topanga State Park,Colina Dr. at Trippet Lateral Gate,MB - in office,5/28/2001,mb05/28/01,CDPR,UP,UP,UP,UP,,,,,,Unauthorized,Unauthorized,Yes,Yes,Maybe,Maybe,0,0,0,0,,,No,NA,No,No,No,No,XX,XX,XX,XX,No,No,No,No,No,Not field-checked.  Walk-in from terminus of Colina.  Could be informal parking & signage.  Move pt to gate outside TSP (done).  May be private neighborhood entrance?,Outside,0,34.09198103,-118.5888329,0,,LOS ANGELES,Unincorp LA
207,20,Stunt Ranch/Stunt Rd,,Stunt ^ Cold Creek Tributary,,,mb01/01/04,,UP,UP,UP,UP,,,,,,Unauthorized,Unauthorized,,No,No,No,0,0,0,0,NA,NA,No,NA,No,No,No,No,XX,XX,XX,XX,No,No,No,No,No,"In-hse review, but know there isn't official public access here & probably won't be for the foreseeable future?",Coastal,0,34.09107035,-118.6586518,0,,LOS ANGELES,Unincorp LA
208,2,Malibu Springs/Mulholland Hwy,Malibu Springs,Mulholland ^ Malibu Springs North,MB/EE,6/8/2000,6/8/2000,NPS,DL,DL,DL,DL,,,,,,NA,NA,,No,No,Yes,888,888,888,888,pullout,dirt,No,NA,No,No,No,No,XX,XX,XX,XX,No,No,No,No,No,closed trailhead with white boards nailed on bridge,Coastal,0,34.0874753,-118.912309,0,,LOS ANGELES,Unincorp LA
209,51,La Jolla Canyon Group Campground,Point Mugu SP,La Jolla Canyon Group Campground,JA,4/1/2001,,DPR,DL,DL,DL,DL,HO,,,,,Secondary,Secondary,,Yes,Maybe,Yes,888,888,0,888,XX,XX,Yes,XX,Yes,XX,XX,XX,XX,XX,XX,XX,XX,XX,XX,Yes,XX,Incomplete entry.  Need to ask Jim if he recorded all the TH info on a sheet when he was doing the fieldwork.  Point has been entered in parkentr3.shp.    Mb 12/27/01  mb12/31/03 DL - not a TH; only campground.  Use Ray Miller TH.,in,0,34.08560824,-119.035316,0,,VENTURA,Unincorp Ventura
210,23,92 Trail ^ Entrada Rd,Topanga State Park,92 Trail ^ Entrada Rd,Andrew Paden,2/23/2000,mb01/02/04 mb2/23/00,CDPR,OP,OP,OP,OP,HE,HE,HE,,,Tertiary,Tertiary,,Yes,No,Yes,3,0,0,0,on-street,dirt-pullou,No,NA,No,No,No,No,XX,XX,XX,XX,No,No,No,No,No,,in,0,34.09215523,-118.5923354,0,N,LOS ANGELES,Unincorp LA
211,2,Mulholland Hwy,,Mulholland Highway,MB/EE,6/8/2000,6/8/2000,Private,DL,DL,DL,DL,,,,,,NA,NA,,No,No,No,0,0,0,0,NA,NA,No,NA,No,No,No,No,XX,XX,XX,XX,No,No,No,No,No,private driveway,Coastal,0,34.08785962,-118.8963783,0,,LOS ANGELES,Unincorp LA
212,51,BBT - Ray Miller Trailhead / La Jolla Canyon,Point Mugu State Park,La Jolla Canyon,Jim Anderson,5/9/2001,mb12/31/03 mb11/04/02,CDPR,OP,OP,OP,OP,HE,,,,,Primary,Primary,,Yes,Yes,Yes,30,0,1,99,parking lot,paved,Yes,flush,No,Yes,No,Yes,No,Yes,XX,No,No,Yes,No,No,No,11/04/02 - In-office review based on memory.   0/14/03 updated by JZ. Phone at Campground Host. Walk-in Camp 2.1 mi from trail head. Group Camp 2.4 mi from trailhead. Info Kiosk is old and worn.,in,2,34.08580634,-119.0368896,0,N,VENTURA,Unincorp Ventura
213,23,Dead Horse Trail area,Topanga State Park,Dead Horse Trail area,AP,2/23/2000,mb11/01/00,CDPR,UP,UP,UP,UP,,,,,,Unauthorized,Unauthorized,,Yes,Yes,Yes,5,0,0,0,pullout,dirt,No,NA,No,No,No,No,No,XX,XX,XX,No,No,No,No,XX,Parking is next to a big coast live oak.,out,0,34.09239228,-118.5991581,0,,LOS ANGELES,Unincorp LA
214,17,Cold Cyn Rd,Cold Canyon Nature Preserve,Cold Canyon Road,Jessica/Jill,4/3/2003,mb12/11/03 entered by NK 09/03/0,,UP,UP,UP,UP,,HE,,,,Unauthorized,Unauthorized,,Yes,No,No,0,0,0,0,NA,NA,No,NA,No,No,No,No,No,No,No,XX,No,No,No,No,No,Fire road access.  mb:  not a fire rd; access to Great American Trail.,Coastal,0,34.09172389,-118.6797395,0,,LOS ANGELES,Unincorp LA
215,23,Topanga State Park/Entrada Rd,Topanga State Park,Entrada Road -- Lower Dead Horse Trail,Andrew,2/23/2000,mb01/02/04 mb11/01/00,CDPR,UP,UP,UP,UP,,,,,,Unauthorized,Unauthorized,,Yes,No,Yes,15,0,0,0,parking lot,Gravel,No,NA,No,No,No,No,XX,XX,XX,XX,No,No,No,No,No,"2 trails and informal gravel parking lot next to utility shed.  State Parks sign.  Treat as official, or ignore, close, or SUP?",Coastal,0,34.09303745,-118.5976603,0,,LOS ANGELES,Unincorp LA
216,2,Arroyo Sequit,Arroyo Sequit,Mulholland Hwy ^ Mason Rd,MB/EE,6/8/2000,mb01/01/04 6/8/00,NPS,OP,OP,OP,OP,HO,HO,HO,,,Tertiary,Tertiary,,Yes,No,Yes,8,0,0,0,parking lot,gravel,No,NA,No,Yes,No,No,XX,Yes,XX,XX,No,No,No,No,No,brown trash bin; restrooms up trail; water?,Coastal,2,34.08890143,-118.8906493,0,Y,LOS ANGELES,Unincorp LA
217,117,Topanga State Park/Entrada Rd,Topanga State Park,Entrada Road,MB - in office,5/28/2001,mb05/28/01,CDPR,DL,DL,DL,DL,,,,,,NA,NA,,No,No,No,0,0,0,0,NA,NA,No,NA,No,No,No,No,XX,XX,XX,XX,No,No,No,No,No,Already w/in park.,Outside,0,34.09321152,-118.5864897,0,,LOS ANGELES,Los Angeles
218,23,Topanga State Park -- Trippet Ranch overlook and trail,Topanga State Park,Topanga State Park/Entrada Rd,Andrew Paden,,mb12/10/03 mb11/01/00,CDPR,DL,DL,DL,DL,,,,,,NA,NA,,Yes,No,Yes,3,0,0,0,parking lot,paved,Yes,,No,No,No,No,XX,XX,XX,XX,No,No,No,No,No,This is a duplicate of #145.  #70 is the guard gate and parking lot for Trippett Ranch.  Close to potable water and restrooms.,Coastal,0,34.09320799,-118.5887196,0,,LOS ANGELES,Unincorp LA
219,23,Topanga State Park/Entrada Rd,Topanga State Park,Entrada Road -- Lower Dead Horse Trail,Andrew Paden,2/23/2000,mb01/02/04 mb02/23/00,CDPR,UP,UP,UP,UP,,,,,,Unauthorized,Unauthorized,,Yes,No,Yes,5,0,0,0,pullout,dirt,No,NA,No,No,No,No,XX,XX,XX,XX,No,No,No,No,No,"Neighborhood entrance.  ignore, close, SUP?",Coastal,0,34.09309816,-118.5994048,0,,LOS ANGELES,Unincorp LA
220,23,BBT - Hondo Canyon,Topanga State Park,Old Topanga Canyon Road ^ BBT,Andrew Paden,2/24/2000,mb12/10/03 mb02/23/00,CDPR,OP,OP,OP,OP,HE,HE,HE,,,Tertiary,Tertiary,,Yes,Maybe,Yes,4,0,0,0,pullout,dirt,No,NA,No,No,No,No,No,No,No,XX,No,No,No,No,No,Trail crosses road.  On-street parking is 20m from trailhead.  Poor signage/no signage.  TMP Team:  TH needs better signage.  Do not put toilet here - no room.  Improve crossing (LADPW has since installed rumble strips & xing warning signs).,Coastal,2,34.09303594,-118.6092834,0,N,LOS ANGELES,Unincorp LA
221,2,Mulholland Hwy,,Mulholland ^ Bardman,MB/EE,6/8/2000,6/8/2000,Private,DL,DL,DL,DL,,,,,,NA,NA,,No,No,No,0,0,0,0,NA,NA,No,NA,No,No,No,No,XX,XX,XX,XX,No,No,No,No,No,private driveway,Coastal,0,34.0890137,-118.8941917,0,,LOS ANGELES,Unincorp LA
222,23,BBT - Topanga State Park Main Entrance,Topanga State Park,Entrada Road -- Trippet Ranch Ranger Station,Andrew Paden,,mb12/10/03 mb2/23/00,CDPR,OP,OP,OP,OP,MU,MU,MU,,,Primary,Primary,,Yes,Yes,Yes,100,0,1,1,parking lot,paved,Yes,flush,Yes,Yes,No,Yes,No,Yes,Proposed,XX,No,Yes,No,No,No,"Nature center, trails, exhibits, horses.  TMP Team:  Leave as-is. (mb added recycle bins)",Coastal,1,34.09347831,-118.5879675,0,N,LOS ANGELES,Unincorp LA
223,36,Old Topanga Cyn Neighborhood 1 ^ BBT,Topanga State Park,Old Topanga Cyn Neighborhood 1 ^ BBT - Hondo Cyn,M Beck,,mb05/05/08,CDPR,UP,,,,NA,,NA,,,NA,NA,,Yes,No,No,0,0,0,0,NA,NA,No,NA,No,No,No,No,No,No,No,No,No,No,No,No,No,05/05/08 - Melanie added for TSP Park Entrance map,Coastal,0,34.09353874,-118.6152096,0,,LOS ANGELES,Unincorp LA
224,20,Stunt Ranch/Stunt Rd pullout,Stunt Ranch,Stunt Road,,,mb01/01/04,,DL,DL,DL,DL,,,,,,NA,NA,,No,No,No,0,0,0,0,NA,NA,No,NA,No,No,No,No,XX,XX,XX,XX,No,No,No,No,No,,Coastal,0,34.09323388,-118.6506669,0,,LOS ANGELES,Unincorp LA
225,23,Topanga State Park/Entrada Rd,Topanga State Park,Entrada ^ Dead Horse Trail,Andrew Paden,2/23/2000,mb01/02/04 mb2/23/00,CDPR,UP,EC,EC,EC,,,,,,Unauthorized,NA,Yes,Yes,Yes,Yes,5,0,0,0,pullout,dirt,No,NA,No,No,No,No,XX,XX,XX,XX,No,No,No,No,No,Locked cattle gate with small state park sign and restriction signage.  mb:  propose to close & obliterate rd/trail.,Coastal,0,34.09392264,-118.6006645,0,,LOS ANGELES,Unincorp LA
226,20,Stunt Ranch/Stunt Rd pullout,Cold Creek Preserve,Stunt Road,,,mb01/01/04,Cold Creek Preserve,OP,OP,OP,OP,HO,HO,HO,,,Tertiary,Tertiary,,No,No,No,0,0,0,0,NA,NA,No,NA,No,No,No,No,XX,XX,XX,XX,No,No,No,No,No,In-hse review.  Ck w/Nancy or Jo abt access & facilities (any trail signage?)  10/7/09 - Access by permit only.,Coastal,0,34.09335008,-118.6477903,0,N,LOS ANGELES,Unincorp LA
227,4,Zuma Ridge Mtwy ^ Encinal Cyn Rd,Zuma/Trancas Canyons,Zuma Ridge Mtwy ^ Encinal Cyn Rd,MB,,mb12/30/03,,UP,UP,UP,UP,,,,,,Unauthorized,Unauthorized,,Yes,Maybe,No,0,0,0,0,NA,NA,No,NA,No,No,No,No,XX,XX,XX,XX,No,No,No,No,No,,,0,34.09069305,-118.8386736,0,,LOS ANGELES,Unincorp LA
228,23,Topanga State Park/Entrada Rd/,Topanga State Park,north Entrada Road,MB,11/1/2000,mb11/01/00,,DL,DL,DL,DL,,,,,,NA,NA,,No,No,No,0,0,0,0,NA,NA,No,NA,No,No,No,No,XX,XX,XX,XX,No,No,No,No,No,,Coastal,0,34.0943321,-118.587351,0,,LOS ANGELES,Unincorp LA
229,2,Mulholland Hwy,,Mulholland Highway,MB/EE,6/8/2000,6/8/2000,,DL,DL,DL,DL,,,,,,NA,NA,,No,No,No,0,0,0,0,NA,NA,No,NA,No,No,No,No,XX,XX,XX,XX,No,No,No,No,No,"accesses 40 acre isolated NPS parcel; for sale sign: Rick Barrett, Coldwell Banker (310)456-1747",Coastal,0,34.09005598,-118.902459,0,,LOS ANGELES,Unincorp LA
230,50,POINT MUGU STATE PARK,Point Mugu State Park,MOVE POINT EAST/Pacific Coast Highway,Jessica/Jill,3/17/2003,mb12/31/03 entered by NK  09/10/,,DL,DL,DL,DL,,,,,,NA,NA,,Yes,No,Yes,20,0,0,0,parking lot,paved,No,NA,No,No,No,No,XX,XX,XX,XX,No,No,No,No,No,No overnight parking. mb: Must be parking for Mugu Rock.  Not a trailhead.,In,0,34.087597,-119.0624129,0,,VENTURA,Unincorp Ventura
231,23,BBT - Dead Horse Trail Trailhead,Topanga State Park,Dead Horse Trail Parking Lot,AP,2/23/2000,mb12/10/03 mb11/01/00,CDPR,OP,OP,OP,OP,HE,HE,HE,,,Secondary,Secondary,,Yes,Yes,Yes,13,0,0,2,parking lot,paved,Yes,flush,No,Proposed,No,Yes,No,Yes,Proposed,XX,XX,Yes,No,No,XX,"parking $3.00 (2000), gate locked at sunset.  TMP Team:  Keep as is (mb added recycle bins & info kiosk)",in,2,34.09460661,-118.6010471,0,N,LOS ANGELES,Unincorp LA
232,20,Stunt Ranch/Stunt Rd pullout,Stunt Ranch,Stunt Road,,,mb01/01/04,,DL,DL,DL,DL,,,,,,NA,NA,,No,No,No,0,0,0,0,NA,NA,No,NA,No,No,No,No,XX,XX,XX,XX,No,No,No,No,No,,Coastal,0,34.09398602,-118.6495535,0,,LOS ANGELES,Unincorp LA
233,4,BBT - Mulholland Hwy S,,Mulholland Hwy ^ SAMO 113-65,MB,,mb01/01/03 mb11/05/02,NPS,PP,PP,PP,PP,NA,NA,MU,,,NA,Tertiary,,Maybe,No,No,0,0,0,0,parking lot,dirt,Proposed,composting,No,Proposed,No,Yes,No,Proposed,Proposed,XX,No,No,No,No,No,"TMP Team:  Use municipal water source & electricity from old house hook-ups.  flush toilets or composting.  May decide whether a trailhead should be developed here or on Encinal, but probably not both locations.  Note:  currently, there is no public park",in,0,34.09094613,-118.8683772,0,,LOS ANGELES,Unincorp LA
234,0,Getty View Trailhead,Sepulveda Pass Open Space,Sepulveda Blvd ^ 405,MB,,,MRCA,OP,OP,OP,OP,MU,,MU,,,Tertiary,Tertiary,,Yes,Yes,Yes,6,0,0,1,parking lot,paved,Yes,,No,,Yes,Maybe,No,Maybe,Maybe,Maybe,No,Yes,No,No,No,MB 07/24/08 - Added parking info based on maps.live.com.  Need to field check other facilities.,out,2,34.0966677,-118.4762191,0,Y,LOS ANGELES,Los Angeles
235,50,POINT MUGU STATE PARK,Point Mugu State Park,Pacific Coast Highway,Jessica/Jill,3/17/2003,mb12/31/03 entered by NK  09/10/,CDPR,DL,DL,DL,DL,,,,,,NA,NA,,Yes,No,Yes,5,0,0,0,parking lot,gravel,Yes,portable,No,No,No,No,XX,XX,XX,XX,No,No,No,No,No,parking OK for bus or horse.  mb - doesn't access any trails.  Must be for Mugu Rock.  Keep until verify status w/DPR.,In,0,34.08824275,-119.06235,0,,VENTURA,Unincorp Ventura
236,0,Old Topanga Cyn Neighborhood 2 ^ BBT,Topanga State Park,Old Topanga Cyn Neighborhood 2 ^ BBT - Hondo Cyn,MB - in office,,mb05/05/08,CDPR,UP,,,,NA,,NA,,,NA,NA,,Yes,No,No,0,0,0,0,NA,NA,No,NA,No,No,No,No,No,No,No,No,No,No,No,No,No,05/05/08 - Melanie added for TSP Park Entrance map,Coastal,0,34.09499452,-118.6151213,0,,LOS ANGELES,Unincorp LA
237,54,BBT - Mulholland Hwy N,Circle X Ranch,33333 Mulholland Hwy,Melanie Beck,,mb12/08/03 mb11/05/02,private,DL,DL,DL,DL,,,,,,NA,NA,,No,No,Yes,888,888,888,888,,XX,Yes,flush,No,No,No,No,XX,XX,XX,XX,No,No,No,No,No,"Potential partnership with new owner.  Previous owner, Elysium Fields, was amenable to working w/NPS to create a public trailhead using their parking lot.   TMP Team:  Don't use, since opportunity exists to create park-managed trailhead ax street on Wuga",in,0,34.09172392,-118.8695261,0,,LOS ANGELES,Unincorp LA
238,20,Lower Stunt High Trail Trailhead,Stunt Ranch/Calabasas Peak Mtwy,Calabasas Mtwy ^ Stunt High Trail,MB,,mb12/17/02,MRCA,OP,OP,OP,OP,MU,,,,,Tertiary,Tertiary,,Yes,Yes,Yes,888,888,0,0,pullout,dirt,Yes,chemical,No,No,No,No,No,Yes,No,No,No,No,No,No,No,10/15/09 MB - Nancy Helsley described facilities.  Cold Creek Docents pay for Andy Gump - $80/month.  MRCA now empties trash cans.,Coastal,2,34.09517546,-118.6492818,0,Y,LOS ANGELES,Unincorp LA
239,15,Soka U/Mulholland Hwy,,Mulholland Highway,,,,Private,UX,UX,UX,UX,,,,,,NA,NA,,No,No,No,0,0,0,0,NA,NA,No,NA,No,No,No,No,XX,XX,XX,XX,No,No,No,No,No,"26052 Mullholland Highway.  3 private driveways, no evidence of trails at street.",Coastal,0,34.09465843,-118.6970071,0,,LOS ANGELES,Unincorp LA
240,15,Mulholland Highway east of Soka,,"Mulholland Highway, Calabasas",MB,,mb01/01/04,,UX,UX,UX,UX,,,,,,NA,NA,,No,No,No,0,0,0,0,NA,NA,No,NA,No,No,No,No,XX,XX,XX,XX,No,No,No,No,No,"Probably equestrian ride area & connect to official trails, but can't say for certain.",Coastal,0,34.09553978,-118.6978302,0,,LOS ANGELES,Unincorp LA
241,30,Las Virgenes Rd ^ Waycross Rd,,Las Virgenes Rd ^ Waycross Rd,MB,,mb12/17/02,CDPR,UP,UP,UP,UP,UN,HE,UN,,,Unauthorized,Unauthorized,,Yes,No,No,0,0,0,0,NA,NA,No,NA,No,No,No,No,XX,XX,XX,XX,No,No,No,No,No,In-hse review,Coastal,0,34.09603309,-118.7114233,0,,LOS ANGELES,Unincorp LA
242,15,Soka U/Mulholland Hwy pullout,,Mulholland Highway,,,mb01/02/04,,DL,DL,DL,DL,,,,,,NA,NA,,No,No,No,0,0,0,0,NA,NA,No,NA,No,No,No,No,XX,XX,XX,XX,No,No,No,No,No,,Coastal,0,34.09703634,-118.6962223,0,,LOS ANGELES,Unincorp LA
243,13,Malibu Creek State Park,Malibu Creek State Park,MCSP Main Entrance,MB,,mb12/17/02,CDPR,OP,OP,OP,OP,MU,MU,MU,,,Primary,Primary,,Yes,Yes,Yes,316,5,1,11,parking lot,paved,Yes,flush,Yes,No,No,Yes,XX,Yes,XX,No,No,Yes,Yes,Yes,No,In-house review.  10/9/09 MB BingMaps pkg space count - Admin Lots 1-2 have 77+4handic; THd Lots 1-2 316+5bus+11handic,Coastal,1,34.09696248,-118.7164092,0,N,LOS ANGELES,Unincorp LA
244,50,Pt Mugu St Pk/Chumash Trail,Point Mugu State Park,PCH ^ Chumash Trail,Jessica/Jill,3/17/2003,mb12/31/03 entered by NK  09/10/,CDPR,OP,OP,OP,OP,HO,HO,HO,,,Tertiary,Tertiary,,Yes,Yes,Yes,10,0,0,0,parking lot,gravel,Yes,chemical,No,No,No,No,XX,XX,XX,No,No,No,No,No,No,Across from Seebee's rifle range.  More signage needed to indicate where & length of trail.  Trash.  Not ADA.  mb - 11/2003 - portable restroom gone.,In,2,34.09183504,-119.0654869,0,N,VENTURA,Unincorp Ventura
245,15,Mulholland Highway,,Mulholland Highway,,,mb01/01/04,,DL,DL,DL,DL,,,,,,NA,NA,,No,No,No,0,0,0,0,NA,NA,No,NA,No,No,No,No,XX,XX,XX,XX,No,No,No,No,No,,Coastal,0,34.09763037,-118.6951601,0,,LOS ANGELES,Unincorp LA
246,96,Mulholland ^ Lower Brewster,,Mulholland ^ Lower Brewster,,,mb01/01/04,,DL,DL,DL,DL,NA,,,,,NA,NA,,No,No,No,0,0,0,0,NA,NA,No,NA,No,No,No,No,XX,XX,XX,XX,No,No,No,No,No,,Outside,0,34.09634262,-118.806441,0,,LOS ANGELES,Unincorp LA
247,22,Topanga//Hillside Dr,Topanga State Park,End of Hillside Drive,Andrew Paden,02/00/00,mb2/23/00,CDPR,OP,OP,OP,OP,HE,HE,HE,,,Tertiary,Tertiary,,Yes,No,Yes,2,0,0,0,on-street,paved/dirt,No,NA,No,No,No,No,XX,XX,XX,XX,No,No,No,No,No,"Parking at dead end of Hillside Dr.  Unofficial entrance, but there is a park weather closure fold-down sign.",Coastal,0,34.09953812,-118.5866024,0,N,LOS ANGELES,Unincorp LA
248,20,Calabasas/Cold Cyn Rd,,,,,mb01/01/04,,DL,DL,DL,DL,,,,,,NA,NA,,No,No,No,0,0,0,0,NA,NA,No,NA,No,No,No,No,XX,XX,XX,XX,No,No,No,No,No,,Coastal,0,34.0988243,-118.6667238,0,,LOS ANGELES,Unincorp LA
249,96,Rocky Oaks,Rocky Oaks,Mulholland Highway,Jim Anderson,3/28/2001,mb01/01/04 entered by NK  09/10/,NPS,OP,OP,OP,OP,HE,HE,HE,,,Secondary,Secondary,,Yes,Yes,Yes,30,0,888,0,parking lot,dirt,Yes,composting,No,Yes,No,No,No,Yes,Yes,Proposed,No,Yes,No,No,No,"Trash & recycling present.  Potable water & picnic areas within easy reach of trailhead, but not at trailhead itself.  Amphitheater close to trailhead.  Gate on Kanan as possible other entrance is locked and doesn't appear to be being used despite trail",Outside,2,34.09690316,-118.8139753,0,Y,LOS ANGELES,Unincorp LA
250,20,Cold Creek/Red Rock Rd,,Red Rock Road,,,mb01/01/04,,DL,DL,DL,DL,,,,,,NA,NA,,No,No,No,0,0,0,0,NA,NA,No,NA,No,No,No,No,XX,XX,XX,XX,No,No,No,No,No,,Coastal,0,34.09924705,-118.6502736,0,,LOS ANGELES,Unincorp LA
251,20,Cold Creek/Stunt Rd,,Stunt Road,,,mb01/01/04,,DL,DL,DL,DL,,,,,,NA,NA,,No,No,No,0,0,0,0,NA,NA,No,NA,No,No,No,No,XX,XX,XX,XX,No,No,No,No,No,,Coastal,0,34.09938331,-118.6535518,0,,LOS ANGELES,Unincorp LA
252,15,Mulholland Highway,,Mulholland Highway,,,mb01/01/04,,DL,DL,DL,DL,,,,,,NA,NA,,No,No,No,0,0,0,0,NA,NA,No,NA,No,No,No,No,XX,XX,XX,XX,No,No,No,No,No,,Coastal,0,34.09926249,-118.6935281,0,,LOS ANGELES,Unincorp LA
253,0,Yucca Trailhead,Cold Creek Valley Preserve,Stunt Rd 4/10 mi E of Mulholland,,,,MRCA,OP,OP,OP,OP,HE,,,,,Tertiary,Tertiary,,Yes,Yes,Yes,888,0,0,0,on-street,dirt,No,NA,No,No,No,No,No,No,No,No,No,No,No,No,No,10/15/09 MB - Nancy Helsley described trailhead.,Outside,0,34.10011259,-118.6539675,0,,LOS ANGELES,Unincorp LA
254,20,Old Abercrombie Ranch Trail,,,,,mb01/02/04,,DL,DL,DL,DL,,,,,,NA,NA,,No,No,No,0,0,0,0,NA,NA,No,NA,No,No,No,No,XX,XX,XX,XX,No,No,No,No,No,,Coastal,0,34.10036582,-118.6684186,0,,LOS ANGELES,Unincorp LA
255,4,La Sierra Canyon Overlook,Upper La Sierra Canyon Area,Mulholland Hwy ^ La Sierra Overlook,MB/EE,6/8/2000,mb01/01/04,NPS,OP,OP,OP,OP,NA,NA,,,,Overlook Only,Overlook Only,,No,No,No,5,0,0,0,pullout,paved,No,NA,No,No,Yes,No,No,XX,XX,No,Official,No,No,No,No,Official Overlook - overrun by motorcycles on weekends.,Coastal,4,34.09880656,-118.8047778,0,N,LOS ANGELES,Unincorp LA
256,15,Las Virgenes Valley Overlook,King Gillette Ranch,26300 Mulholland Hwy,MB,,mb01/01/04 mb12/22/11,MRCA,OP,OP,OP,OP,NA,NA,NA,,,Overlook Only,Overlook Only,,No,No,Yes,888,0,0,888,pullout,paved,No,NA,No,No,Yes,No,XX,XX,XX,XX,Official,No,No,No,No,,Coastal,4,34.09834557,-118.6950108,0,N,LOS ANGELES,Unincorp LA
257,96,Adventures on Horseback Entrance,Rocky Oaks,West end of Rocky Oaks,JA/MB,4/1/2001,mb12/27/01,NPS,UP,UP,UP,UP,UN,EQ,UN,,,Unauthorized,Unauthorized,Yes,Yes,Maybe,No,0,0,0,0,NA,NA,No,NA,XX,XX,XX,XX,XX,XX,XX,XX,XX,XX,XX,XX,XX,Used only by eq's from Adventures on Horseback (since moved from this location after 2001).  May require SUP of any future equestrian operator.,,0,34.09886751,-118.8193761,0,,LOS ANGELES,Unincorp LA
258,92,Runyon Cyn Trailhead - N Fuller Ave,Runyon Canyon Park,end of N Fuller Avenue,MB/EE,6/21/2000,mb10/31/00,LA CITY,OP,OP,OP,OP,HO,HO,HO,,,Secondary,Secondary,Yes,Yes,Yes,Yes,888,0,0,0,on-street,paved,No,NA,No,No,No,No,No,XX,XX,XX,No,No,No,No,No,"Nearly impossible to find parking.  Major dog walking entrance.  Severe dog off-lease & waste problems.  Site needs better TH facilities, but env'tal constraints are limiting to create parking, etc.",Outside,0,34.10535657,-118.3489331,0,Y,LOS ANGELES,Los Angeles
259,92,Runyon Cyn Rd Trailhead South,Runyon Canyon Park,Runyon Cyn Rd ^ Vista St,MB/EE,6/21/2000,mb10/31/00,LA CITY,OP,OP,OP,OP,HO,HO,,,,Secondary,Secondary,Yes,Yes,Yes,No,0,0,0,0,NA,NA,No,NA,No,No,No,No,No,XX,XX,XX,No,No,No,No,No,"multiple no parking signs.  Major dog walking entrance.  Severe dog off-leash & waste problems.  Site needs better TH facilities, but very constrained.  May be tertiary in terms of facilities, but is a primary use entrance.",Outside,3,34.10539259,-118.3513624,0,Y,LOS ANGELES,Los Angeles
260,22,Topanga/Greenleaf Cyn Rd,,Greenleaf Canyon Road,Andrew,2/24/2000,mb11/01/00,,DL,DL,DL,DL,,,,,,NA,NA,,No,No,No,0,0,0,0,NA,NA,No,NA,No,No,No,No,XX,XX,XX,XX,No,No,No,No,No,,Coastal,0,34.10240068,-118.6052077,0,,LOS ANGELES,Unincorp LA
261,13,Malibu Ck St Pk/Lookout Rd,Malibu Creek State Park,Malibu Ck St Pk/Lookout Rd,MB,1/29/2003,mb01/29/03,CDPR,OP,OP,OP,OP,MU,MU,MU,,,Tertiary,Tertiary,,Yes,No,No,0,0,0,0,NA,NA,No,NA,No,No,No,No,No,XX,XX,XX,No,No,No,No,No,"Input from MCSP staff.  Serves mainly Malibou Lake community, but DPR considers OP.",Coastal,3,34.10041092,-118.7580539,0,N,LOS ANGELES,Unincorp LA
262,22,Topanga/Hillside Dr & Prier Rd,Topanga State Park,Hillside ^ Prier,Andrew,02/00/00,mb11/01/00,CDPR,OP,OP,OP,OP,MU,MU,MU,,,Tertiary,Tertiary,,Yes,No,Yes,2,0,0,0,on-street,paved,No,NA,No,No,No,No,No,No,No,No,No,No,No,No,No,"Public can access park here, but very limited.  Signage at park boundary.",Coastal,0,34.10276458,-118.5881376,0,N,LOS ANGELES,Unincorp LA
263,15,Soka U/Mulholland Hwy,,,,,mb01/01/04,,DL,DL,DL,DL,,,,,,NA,NA,,No,No,No,0,0,0,0,NA,NA,No,NA,No,No,No,No,XX,XX,XX,XX,No,No,No,No,No,,Coastal,0,34.10186608,-118.6925597,0,,LOS ANGELES,Unincorp LA
264,22,Topanga/Greenleaf Cyn Rd,,Greenleaf Canyon Road,Andrew,2/24/2000,mb11/01/00,,DL,DL,DL,DL,,,,,,NA,NA,,No,No,No,0,0,0,0,NA,NA,No,NA,No,No,No,No,XX,XX,XX,XX,No,No,No,No,No,,Coastal,0,34.10343029,-118.6050842,0,,LOS ANGELES,Unincorp LA
265,0,Canyonback Rd (South end),Hilton Open Space,Canyonback Rd^ Mountain Crest Ln,MB/EE,8/4/2000,mb10/31/00,private,UX,UX,UX,UX,UN,MU,UN,,,NA,NA,,Yes,No,Yes,888,888,888,888,on-street,paved,No,NA,No,No,No,No,No,XX,XX,XX,XX,No,No,No,XX,regular use by mtn. bikers,out,0,34.10501129,-118.4939183,0,,LOS ANGELES,Los Angeles
266,22,Musch Camp Access/Ranger Residence,Topanga State Park,Topanga/Hillside Dr,Andrew/MB,02/00/00,mb01/02/04 mb11/01/00,CDPR,AD,AD,AD,AD,,,,,,NA,NA,,Yes,No,Yes,3,0,0,0,on-street,paved,No,NA,No,No,No,No,XX,XX,XX,XX,No,No,No,No,No,"This is admin access for TSP ranger residence at Musch Ranch.  Used by public, though.  Mostly Hillside Dr. neighborhood.",Coastal,0,34.10406567,-118.5888113,0,,LOS ANGELES,Unincorp LA
267,0,Gillette Ranch,King Gillette Ranch,King Gillette Ranch,MB,,mb09/08/05,MRCA,OP,OP,OP,OP,HO,UN,MU,,,Secondary,Primary,,No,No,Yes,99,99,99,99,parking lot,paved,Yes,flush,Yes,Proposed,Proposed,Yes,Yes,Yes,Proposed,No,No,Yes,No,No,No,Future park headquarters and Visitor Center,In,1,34.10258391,-118.7037312,0,N,LOS ANGELES,Unincorp LA
268,15,Soka U/Mulholland Hwy,,"Mulholland, just east of Diamond X",Jim A,4/25/2001,entered by NK 09/03/03,Private,DL,DL,DL,DL,,,,,,NA,NA,,No,No,No,0,0,0,0,NA,NA,No,NA,No,No,No,No,XX,XX,XX,XX,No,No,No,No,No,Steep climb to top of hill.  Offroad vehicle use?  Appears to access lots of offroad trails.  Appears no linkage to public lands.,Coastal,0,34.1028793,-118.6952648,0,,LOS ANGELES,Unincorp LA
269,15,Soka U/Mulholland Hwy,,,Andrew Paden,,mb01/02/04 2/17/00,Private,UX,UX,UX,UX,,,,,,NA,NA,,No,No,Yes,888,888,888,888,on-street,XX,No,NA,No,No,No,No,XX,XX,XX,XX,No,No,No,No,No,Off-road vehicle trail.  Too steep for reasonable public access.,Coastal,0,34.10284742,-118.6975734,0,,LOS ANGELES,Unincorp LA
270,13,Malibu Ck St Pk/Crags Dr,Malibu Creek State Park,Crags (W) ^ MCSP Boundary,MB,1/29/2003,mb01/29/03,CDPR,OP,OP,OP,OP,MU,MU,MU,,,Tertiary,Tertiary,,No,No,No,0,0,0,0,NA,NA,No,NA,No,No,No,No,XX,XX,XX,XX,No,No,No,No,No,"Input from MCSP staff.  Mainly serves Malibou Lake community, but DPR treats as OP.",Coastal,3,34.10221246,-118.7544575,0,N,LOS ANGELES,Unincorp LA
271,21,Red Rock Cyn/Red Rock Rd,Red Rock,Red Rock Road,,,mb01/01/04,,DL,DL,DL,DL,,,,,,NA,NA,,No,No,No,0,0,0,0,NA,NA,No,NA,No,No,No,No,XX,XX,XX,XX,No,No,No,No,No,,Coastal,0,34.10399004,-118.6413704,0,,LOS ANGELES,Unincorp LA
272,94,Franklin Canyon Park -- Ranch,Franklin Canyon,End of Lake Dr.,Kerry,8/1/1999,mb06/03/01,MRCA,OP,OP,OP,OP,HO,HO,MU,,,Primary,Primary,,Yes,Yes,Yes,18,2,0,0,parking lot,paved,Yes,flush,No,Yes,No,Yes,Yes,Yes,Yes,Maybe,No,Yes,No,No,No,Need to recount parking spaces.,Outside,2,34.10681169,-118.4152025,0,Y,LOS ANGELES,Unincorp LA
273,0,Stratford Circle,Sepulveda Pass Open Space,S terminus of Stratford Circle,MB - in office,,,MRCA,UP,UP,UP,UP,,,,,,Tertiary,tertiary,,Yes,,,0,0,0,0,,,,,,,,,,,,,,,,,,MB - 07/27/08 - added as UP because high likelihood of use.  Need to field check.,Outside,0,34.10627411,-118.47534,0,,LOS ANGELES,Los Angeles
274,21,Red Rock Cyn/Red Rock Rd,Red Rock,Red Rock Road,,,mb01/01/04,,DL,DL,DL,DL,,,,,,NA,NA,,No,No,No,0,0,0,0,NA,NA,No,NA,No,No,No,No,XX,XX,XX,XX,No,No,No,No,No,,Coastal,0,34.10417591,-118.6424749,0,,LOS ANGELES,Unincorp LA
275,13,Malibu Ck St Pk/Mulholland,Malibu State Park,SW Corner Mulholland ^ LV Rd,MB,,mb12/17/02,CDPR,UP,EC,EM,EM,UN,MU,NA,,,Unauthorized,NA,Yes,Yes,Yes,Yes,888,888,888,888,pullout,dirt,No,NA,No,No,No,No,XX,XX,XX,XX,No,No,No,No,No,In-hse review.,Coastal,0,34.1032887,-118.7116216,0,,LOS ANGELES,Unincorp LA
276,22,Topanga/Summit Rd trails,,Summit Road,Andrew,2/24/2000,mb11/01/00,OTH-PRIVATE,DL,DL,DL,DL,,,,,,NA,NA,,No,No,No,0,0,0,0,NA,NA,No,NA,No,No,No,No,XX,XX,XX,XX,No,No,No,No,No,Poorly maintained or closed road.  Little non-residential traffic.,Coastal,0,34.1048636,-118.5961239,0,,LOS ANGELES,Unincorp LA
277,93,East boundary of Franklin Canyon ^ Hastain Trail,Fryman Canyon - lower,Lakecrest Ln ^ Hastain Trail,MB/EE,6/28/2000,mb6/20/00,Private,UP,UP,UP,UP,,,,,,Unauthorized,Unauthorized,Yes,Yes,No,No,0,0,0,0,NA,NA,No,NA,No,No,No,No,No,XX,XX,XX,No,No,No,No,No,"Entrance will be eliminated once Coldwater Cyn II project finishes - gated community.  ignore, close, SUP?",Outside,0,34.10776476,-118.4094535,0,,LOS ANGELES,Los Angeles
278,10,Hennesy Property,Malibu Creek State Park,Hennesy Gate ^ Mulholland,MB/EE,6/16/2000,mb12/30/03,NPS,UP,EM,EM,EM,NA,HO,HE,,,Unauthorized,Tertiary,,No,No,No,0,0,0,0,NA,NA,No,NA,No,No,No,No,XX,XX,XX,XX,No,No,No,No,No,"Propose to open to public, but there is no parking potential right by Mulholland.  Perhaps have interpretive programs in grassy area at center of property?  No plans for regional trail connectivity.",out,0,34.10279573,-118.7912814,0,,LOS ANGELES,Unincorp LA
279,22,Topanga/CanyonTrail,,Canyon Terrace,Andrew Paden,02/00/00,mb2/23/00,,DL,DL,DL,DL,,,,,,NA,NA,,No,No,No,0,0,0,0,NA,NA,No,NA,No,No,No,No,XX,XX,XX,XX,No,No,No,No,No,"This pt can be deleted.  No trail here, in spite of trail indicated on Tom Harrison map.",Coastal,0,34.10560705,-118.5890329,0,,LOS ANGELES,Unincorp LA
280,68,Las Virgenes View Trail Trailhead,Las Virgenes View Park,NE Corner Mulholland ^ LV Rd,MB,,mb12/17/02,Calabasas,OP,OP,OP,OP,MU,HE,NA,,,Tertiary,Tertiary,,Yes,Yes,Yes,888,0,888,0,pullout,dirt,No,NA,No,No,No,No,XX,XX,XX,XX,No,No,No,No,No,"In-hse review.  Facilities inventory may not be complete.  06/08/05 - Per TMP Team, recommended for closure owing to existing parking at MCSP, future parking at Gillette Ranch, and the need to keep the intersection clear for scenic reasons. mb.",Outside,1,34.10415155,-118.7112455,0,Y,LOS ANGELES,Calabasas
281,22,Topanga/Oldfield Ranch Rd,,Oldfield Ranch Road     Hillside Drive,Andrew/MB,,mb11/01/00,OTH-PRIVATE,DL,DL,DL,DL,,,,,,NA,NA,,No,No,No,0,0,0,0,NA,NA,No,NA,No,No,No,No,XX,XX,XX,XX,No,No,No,No,No,,Coastal,0,34.10619125,-118.5994302,0,,LOS ANGELES,Unincorp LA
282,0,Hillcrest Dr ^ Beverly Dr,Franklin Canyon,Hillcrest Dr ^ Beverly Dr,MB/EE,6/21/2000,mb10/31/00,MRCA,OP,OP,OP,OP,HO,HO,,,,Tertiary,Tertiary,,No,No,Yes,3,0,0,0,pullout,dirt,No,NA,No,No,No,No,No,XX,XX,XX,No,No,No,No,XX,"Note:  trail is ""paper map"" road access to Moradi property.",out,0,34.10866649,-118.417119,0,Y,LOS ANGELES,Unincorp LA
283,28,Red Rock Cyn Entrance,Red Rock Canyon,Red Rock Road Topanga,MB,,mb01/01/04,MRCA,OP,OP,OP,OP,MU,MU,MU,,,Tertiary,Tertiary,,No,No,Yes,888,0,0,0,parking lot,dirt,Yes,portable,Yes,No,No,No,XX,Yes,XX,XX,No,Yes,No,No,No,In-hse from memory.  Probably hasn't changed much.,Coastal,2,34.10613187,-118.6370387,0,Y,LOS ANGELES,Unincorp LA
284,13,Malibu Ck St Pk/Cistern Trail,Malibu Creek State Park,Mulholland ^ Cistern Trail,MB,,mb12/17/02,CDPR,OP,OP,OP,OP,HE,HE,HE,,,Tertiary,Tertiary,,Yes,Maybe,Yes,888,0,0,0,pullout,dirt,No,NA,No,No,No,No,No,No,No,No,No,No,No,No,No,In-house review,Coastal,0,34.10492144,-118.7313262,0,N,LOS ANGELES,Unincorp LA
285,22,Oldfield Ranch Rd,,Oldfield Ranch Road,Andrew,2/24/2000,mb11/01/00,,DL,DL,DL,DL,,,,,,NA,NA,,No,No,No,0,0,0,0,NA,NA,No,NA,No,No,No,No,XX,XX,XX,XX,No,No,No,No,No,,Coastal,0,34.10681588,-118.6077059,0,,LOS ANGELES,Unincorp LA
286,32,Mulholland access point to Etz-Meloy Mtwy,SMMNRA,Mulholland ^ Etz Meloy,MB/EE,6/8/2000,mb01/01/04 6/8/00,Private/NPS - BBT Corrid,UP,UP,UP,UP,UN,,UN,,,Unauthorized,Unauthorized,,No,No,Yes,1,0,0,0,pullout,dirt,No,NA,No,No,No,No,No,XX,XX,XX,No,No,No,No,No,"Not open to the public.  Not welcoming to users.  May develop more pressure for public access when BBT is finished, but no park plans to officialize entrance.",Coastal,0,34.10346205,-118.8618758,0,,LOS ANGELES,Unincorp LA
287,21,Calabasas/Dry Creek Cold Cyn R,,Dry Creek Cold Canyon Road,,,mb01/01/04,,DL,DL,DL,DL,,,,,,NA,NA,,No,No,No,0,0,0,0,NA,NA,No,NA,No,No,No,No,XX,XX,XX,XX,No,No,No,No,No,,Coastal,0,34.10657095,-118.6620156,0,,LOS ANGELES,Unincorp LA
288,22,Oldfield Ranch Rd,,Oldfield Ranch Road   Hillside Drive,Andrew,2/24/2000,mb11/01/00,Private    MRCA,DL,DL,DL,DL,,,,,,NA,NA,,No,No,No,0,0,0,0,NA,NA,No,NA,No,No,No,No,XX,XX,XX,XX,No,No,No,No,No,Access to some unspecified parkland.,Coastal,0,34.10773264,-118.6025898,0,,LOS ANGELES,Unincorp LA
289,67,Malibu Ck St Pk/Phantom Trail,Malibu Creek State Park,Mulholland ^ Phantom Trail,MB,,mb12/17/02,CDPR,OP,OP,OP,OP,HE,HE,HE,,,Tertiary,Tertiary,,Yes,Yes,Yes,888,0,0,0,pullout,dirt,No,NA,No,No,No,No,No,No,No,No,No,No,No,No,No,In-house review,Outside,2,34.1062106,-118.7319887,0,N,LOS ANGELES,Unincorp LA
290,22,Oldfield Ranch Rd,,Oldfield Ranch Road  Greenleaf Cyn. Road,Andrew Paden,2/24/2000,mb2/23/00,Private,DL,DL,DL,DL,,,,,,NA,NA,,No,No,No,0,0,0,0,NA,NA,No,NA,No,No,No,No,XX,XX,XX,XX,No,No,No,No,No,,Coastal,0,34.10817254,-118.6075703,0,,LOS ANGELES,Unincorp LA
291,67,Malibu Creek SP/Mulholland,Malibu Creek State Park,Mulholland Highway ^ social trail,MB,,mb12/17/02,CDPR,UP,EC,EC,EC,UN,,NA,,,Unauthorized,NA,,Yes,No,No,0,0,0,0,NA,NA,No,NA,No,No,No,No,XX,XX,XX,XX,No,No,No,No,No,In-house review.,Outside,0,34.10685161,-118.735447,0,,LOS ANGELES,Unincorp LA
292,22,Will Geer Rd/Mesa Dr South,,Will Greer Road (Mesa Drive)  Hillside Drive,Andrew Paden/MB,2/24/2000,mb11/01/00,OTH-PRIVATE,DL,DL,DL,DL,,,,,,NA,NA,,No,No,No,0,0,0,0,NA,NA,No,NA,No,No,No,No,XX,XX,XX,XX,No,No,No,No,No,,Coastal,0,34.10897681,-118.6000149,0,,LOS ANGELES,Unincorp LA
293,21,Calabasas Peak Mtwy,,Calabasas Peak Motorway,Jessica/Jill,4/4/2003,entered by NK 09/03/03,,DL,DL,DL,DL,,,,,,NA,NA,,No,No,No,0,0,0,0,NA,NA,No,NA,No,No,No,No,XX,XX,XX,XX,No,No,No,No,No,,Coastal,0,34.10838108,-118.6536731,0,,LOS ANGELES,Unincorp LA
294,22,1406 Topanga Canyon Blvd.,Topanga State Park,east Topanga Canyon Road/ Cheney Road,Andrew Paden,2/23/2000,mb2/23/00,OTH-PRIVATE,UP,UP,UP,UP,,,,,,Unauthorized,Unauthorized,,No,No,No,0,0,0,0,NA,NA,No,NA,No,No,No,No,XX,XX,XX,XX,No,No,No,No,No,Clearly marked with no trespassing.  1410 and 1406 Topanga Cyn. Bl.  Close?,Coastal,0,34.1093005,-118.5896698,0,,LOS ANGELES,Unincorp LA
295,94,Hastain Trailhead,Franklin Canyon,Lake ^ Hastain Trail,JA/NS,1/4/2002,mb08/19/03,MRCA,OP,OP,OP,OP,HB,MU,MU,,,Tertiary,Tertiary,,Yes,Yes,Yes,6,0,0,0,parking lot,dirt,No,NA,No,Yes,No,No,No,XX,XX,Yes,No,No,No,No,No,Mutt Mitt dispenser is present.,Outside,0,34.11148983,-118.415173,0,Y,LOS ANGELES,Unincorp LA
296,28,Skyline Easement Rd,,Skyline Easement Rd,Ralf,5/20/2003,mb12/07/03 entered by NK 09/03/0,,DL,DL,DL,DL,,,,,,NA,NA,,No,No,No,0,0,0,0,NA,NA,No,NA,No,No,No,No,XX,XX,XX,XX,No,No,No,No,No,Development Road,Coastal,0,34.10911075,-118.6209201,0,,LOS ANGELES,Unincorp LA
297,21,Mulholland Hwy/Stokes Ridge Tr,,Mulholland ^ Stokes Ridge Trail,,,mb01/01/04,,DL,DL,DL,DL,,,,,,NA,NA,,No,No,No,0,0,0,0,NA,NA,No,NA,No,No,No,No,XX,XX,XX,XX,No,No,No,No,No,,Coastal,0,34.10867944,-118.661466,0,,LOS ANGELES,Unincorp LA
298,67,Malibu Creek State Park/Mulhol,Malibu Creek State Park,Mulholland Highway,,,mb01/01/04,,DL,DL,DL,DL,,,,,,NA,NA,,No,No,No,0,0,0,0,NA,NA,No,NA,No,No,No,No,XX,XX,XX,XX,No,No,No,No,No,,Outside,0,34.10770408,-118.7366995,0,,LOS ANGELES,Unincorp LA
299,0,Canyonback Rd (N end of Mtn Gate development),Mission Cyn / Westridge-Canyonback,Canyonback Rd,MB/EE,8/4/2000,mb10/31/00,private,OP,OP,OP,OP,MU,MU,,,,Tertiary,Tertiary,,Yes,No,Yes,0,0,0,0,on-street,paved,Yes,portable,No,No,No,No,No,XX,XX,XX,XX,No,No,No,XX,"Street is broad, open, appear to be no problems with parking.  Prob TH in past.  Court ruled in favor of public access.",out,2,34.11103173,-118.4949272,0,Y,LOS ANGELES,Los Angeles
300,21,Dry Creek Cold Cyn Rd,,Dry Creek Cold Canyon Road,,,mb01/01/04,,DL,DL,DL,DL,,,,,,NA,NA,,No,No,No,0,0,0,0,NA,NA,No,NA,No,No,No,No,XX,XX,XX,XX,No,No,No,No,No,,Coastal,0,34.1091057,-118.6646162,0,,LOS ANGELES,Unincorp LA
301,22,Greenleaf Cyn Rd,,Greenleaf Canyon Road,Andrew/MB,2/24/2000,mb11/01/00,,DL,DL,DL,DL,,,,,,NA,NA,,No,No,No,0,0,0,0,NA,NA,No,NA,No,No,No,No,XX,XX,XX,XX,No,No,No,No,No,,Coastal,0,34.10987302,-118.6071733,0,,LOS ANGELES,Unincorp LA
302,67,Malibu Creek State Park/Mulhol,Malibu Creek State Park,Mulholland Highway,MB,,mb12/17/02,,DL,DL,DL,DL,,,,,,NA,NA,,No,No,No,0,0,0,0,NA,NA,No,NA,No,No,No,No,XX,XX,XX,XX,No,No,No,No,No,,Outside,0,34.10870403,-118.7386801,0,,LOS ANGELES,Unincorp LA
303,41,Topanga/Penny Rd,TSP,Penny Road,Jessica/Jill,4/4/2003,mb01/02/04 mb05/28/01,private,UP,UP,UP,UP,,,,,,Unauthorized,Unauthorized,Yes,Yes,No,No,0,0,0,0,NA,NA,No,NA,No,No,No,No,XX,XX,XX,XX,No,No,No,No,No,No field ck done at TSP boundary.  May be signage present.  Neighborhood entrance.,in,0,34.11098119,-118.5766152,0,,LOS ANGELES,Los Angeles
304,92,Bantam Pl ^ Nichols Canyon Rd,NA,Bantam Pl / Astral Dr ^ Nichols Cyn Rd,MB/EE,6/21/2000,mb10/31/00,Private,UP,UP,UP,UP,,,,,,Unauthorized,Unauthorized,,Yes,No,Yes,1,0,0,0,pullout,dirt,No,NA,No,No,No,No,No,XX,XX,XX,No,No,No,No,XX,,out,0,34.11359275,-118.3592996,0,,LOS ANGELES,Los Angeles
305,22,Luse Tank Rd,,Luse Tank Road,Jessica/Jill,4/4/2003,mb12/07/03 entered by NK 09/03/0,MRCA,UP,UP,UP,UP,,,,,,Unauthorized,Unauthorized,,No,No,No,0,0,0,0,NA,NA,No,NA,No,No,No,No,XX,XX,XX,XX,No,No,No,No,No,"This is where a dirt road intersects park boundary.  Not really a park entrance, but still labelled as UP.  mb",Coastal,0,34.11072667,-118.6034074,0,,LOS ANGELES,Unincorp LA
306,79,Skyline Easement Rd,,Skyline Easement Rd,Jessica/Jill,4/7/2003,mb12/07/03 entered by NK 09/03/0,OTH-PRIVATE,DL,DL,DL,DL,,,,,,NA,NA,,No,No,No,0,0,0,0,NA,NA,No,NA,No,No,No,No,XX,XX,XX,XX,No,No,No,No,No,,Outside,0,34.11061968,-118.6201788,0,,LOS ANGELES,Unincorp LA
307,83,Stokes Cyn Rd,,Stokes Canyon Road,Jessica/Jill,4/7/2003,entered by NK 09/03/03,,UX,UP,UP,UP,NA,EQ,HE,,,NA,Unauthorized,,Yes,No,No,0,0,0,0,NA,NA,No,NA,No,No,No,No,XX,XX,XX,XX,No,No,No,No,No,mb edits.  Assigned UP proposal because hope some agency acquires parkland in area.,Outside,0,34.10961198,-118.6977893,0,,LOS ANGELES,Unincorp LA
308,55,Yerba Buena Rd/Backbone Tr,,Yerba Buena Road,Jessica/Jill,3/17/2003,mb12/31/03 entered by NK  09/10/,,AD,AD,AD,AD,NA,NA,NA,,,NA,NA,,Maybe,No,No,0,0,0,0,,,No,NA,No,No,No,No,No,No,No,No,Potential,No,No,No,No,mb - will be used to maintain Triunfo Pass backcountry camp.,Outside,0,34.1066711,-118.9025234,0,,VENTURA,Unincorp Ventura
309,22,Topanga Community House,,Topanga Canyon Bl,Andrew,2/23/2000,mb11/01/00,OTH-PRIVATE,DL,DL,DL,DL,,,,,,NA,NA,,No,No,No,0,0,0,0,parking lot,paved,Yes,flush,No,No,No,No,XX,XX,XX,XX,No,No,No,No,No,This is Topanga Community House location.  May or may not be social trails leading into Topanga State Park.,Coastal,0,34.11126584,-118.5897066,0,,LOS ANGELES,Unincorp LA
310,22,Topanga/Topanga Cyn Rd,,Topanga Canyon ^ Keelson Will Geer Theatricum Botanicu,Andrew Paden,2/23/2000,mb01/02/04 mb2/23/00,OTH-PRIVATE,UX,UX,UX,UX,,,,,,NA,NA,,No,No,Yes,20,0,0,0,,,No,NA,No,No,No,No,XX,XX,XX,XX,No,No,No,No,No,Theatricum Botanicum.  May or may not access trail network.,Coastal,0,34.11142748,-118.5921954,0,,LOS ANGELES,Unincorp LA
311,108,BBT - Yerba Buena Rd,Circle X Ranch - Adjacent,Yerba Buena ^ Etz-Meloy Mtway,Jessica/Jill,3/17/2003,mb12/31/03 entered by NK  09/10/,NPS,OP,OP,OP,OP,MU,,,,,Tertiary,Tertiary,,Yes,Yes,Yes,2,0,0,0,pullout,dirt,No,NA,No,No,No,No,No,No,No,No,No,No,No,No,No,"mb - not to be recognized on any maps, but public can park & use trail.  mb09/02/07 - put on maps now, since BBT is nearly done.",Outside,2,34.10718974,-118.895793,0,Y,VENTURA,Unincorp Ventura
312,92,Runyon Cyn Astral Dr,Runyon Canyon Park,Astral Drive,Andrew,3/14/2000,mb06/09/00,,DL,DL,DL,DL,,,,,,NA,NA,,No,No,No,0,0,0,0,NA,NA,No,NA,No,No,No,No,XX,XX,XX,XX,No,No,No,No,No,nothing here,Outside,0,34.11463681,-118.3564142,0,,LOS ANGELES,Los Angeles
313,55,Yerba Buena Rd/AT&T Property,,Yerba Buena Rd/AT&T Property,Jessica/Jill,3/17/2003,mb12/31/03 entered by NK  09/10/,,UP,EC,EC,EC,,,,,,Unauthorized,NA,,Yes,No,No,0,0,0,0,NA,NA,No,NA,No,No,No,No,XX,XX,XX,XX,No,No,No,No,No,,Outside,0,34.10737568,-118.9092741,0,,VENTURA,Unincorp Ventura
314,67,Malibu Ck St Pk/Mulholland Hwy,Malibu State Park,Mulholland ^ April Rd,MB,1/29/2003,mb01/29/03,CDPR,AD,AD,AD,AD,,,,,,NA,NA,,No,No,No,0,0,0,0,NA,NA,No,NA,No,No,No,No,XX,XX,XX,XX,No,No,No,No,No,Input from MCSP staff.,Outside,0,34.11035798,-118.7401643,0,,LOS ANGELES,Unincorp LA
315,83,Stokes Cyn Rd,,Stokes Canyon Road,Jessica/Jill,4/7/2003,entered by NK 09/03/03,,UX,UX,UX,UX,,,,,,NA,NA,,Yes,No,No,0,0,0,0,NA,NA,No,NA,No,No,No,No,XX,XX,XX,XX,No,No,No,No,No,,Outside,0,34.11103882,-118.6930647,0,,LOS ANGELES,Unincorp LA
316,81,Will Geer Rd/Mesa Dr,,Will Greer Road (Mesa Drive),MB,,mb11/01/00,OTH-PRIVATE,DL,DL,DL,DL,,,,,,NA,NA,,No,No,No,0,0,0,0,NA,NA,No,NA,No,No,No,No,XX,XX,XX,XX,No,No,No,No,No,,Outside,0,34.11232875,-118.5998653,0,,LOS ANGELES,Unincorp LA
317,111,Malibu Ck St Pk/White Oak Farm,Malibu Creek State Park,Las Virgenes ^ White Oak Farm,MB,1/29/2003,mb01/29/03,CDPR,AD,AD,AD,AD,,,,,,NA,NA,,Yes,Maybe,No,0,0,0,0,NA,NA,No,NA,No,No,No,No,XX,XX,XX,XX,No,No,No,No,No,Input from MCSP staff.,Outside,0,34.1108756,-118.7113482,0,,LOS ANGELES,Unincorp LA
318,81,Will Geer Rd/Mesa Dr,,Will Greer Road (Mesa Drive),MB,,mb11/01/00,OTH-PRIVATE,DL,DL,DL,DL,,,,,,NA,NA,,No,No,No,0,0,0,0,NA,NA,No,NA,No,No,No,No,XX,XX,XX,XX,No,No,No,No,No,,Outside,0,34.11259086,-118.5994731,0,,LOS ANGELES,Unincorp LA
319,92,Runyon Cyn Solar Dr,Runyon Canyon Park,Solar Drive,AP/MB/EE,6/21/2000,mb11/01/00,CTY-LA,UP,UP,UP,UP,,,,,,Unauthorized,Unauthorized,,Yes,No,Yes,1,0,0,0,on-street,paved,No,NA,No,No,No,No,XX,XX,XX,XX,No,No,No,No,No,"connects, eventually into private close to Wattles Garden Park, but not in parkland technically.  No trail map available.  Not posted as no trespassing.",Outside,0,34.11574745,-118.3536261,0,,LOS ANGELES,Los Angeles
320,81,Luse Tank Rd,,Luse Tank Road,Jessica/Jill,4/4/2003,mb12/07/03 entered by NK 09/03/0,OTH-PRIVATE,DL,DL,DL,DL,,,,,,NA,NA,,No,No,No,0,0,0,0,NA,NA,No,NA,No,No,No,No,XX,XX,XX,XX,No,No,No,No,No,,Outside,0,34.11287565,-118.6032202,0,,LOS ANGELES,Unincorp LA
321,81,Henry Ridge Mtwy,,Henry Ridge Motorway,Jessica/Jill,4/21/2003,mb12/07/03 entered by NK 09/03/0,OTH-PRIVATE,DL,DL,DL,DL,,,,,,NA,NA,,No,No,No,0,0,0,0,NA,NA,No,NA,No,No,No,No,XX,XX,XX,XX,No,No,No,No,No,,Outside,0,34.11286554,-118.612775,0,,LOS ANGELES,Unincorp LA
322,79,Chamera Lane,,Chamera Lane,Jessica/Jill,4/7/2003,mb12/07/03 entered by NK 09/03/0,OTH-PRIVATE,DL,DL,DL,DL,,,,,,NA,NA,,No,No,No,0,0,0,0,NA,NA,No,NA,No,No,No,No,XX,XX,XX,XX,No,No,No,No,No,,Outside,0,34.11284906,-118.6208769,0,,LOS ANGELES,Unincorp LA
323,92,Hollywood Bowl Overlook,Mulholland Scenic Parkway,7036 Mulholland Drive,Andrew/MB,3/15/2000,mb06/09/00,MRCA,OP,OP,OP,OP,HO,HO,,,,Overlook Only,Overlook Only,,No,No,Yes,10,0,0,0,parking lot,paved,No,NA,No,No,Yes,Yes,XX,XX,XX,XX,Official,No,No,No,No,,Outside,0,34.11636753,-118.3423213,0,N,LOS ANGELES,Los Angeles
324,67,Mulholland ^ Medea Creek,Malibu Creek State Park,Mulholland ^ Medea Creek,MB,,mb01/01/04 mb12/17/02,NPS,UP,UP,UP,UP,UN,HE,UN,,,Unauthorized,Unauthorized,,Yes,No,No,0,0,0,0,NA,NA,No,NA,No,No,No,No,XX,XX,XX,XX,No,No,No,No,No,In-house review.  Major unauthorized entrance for Malibou Lake community.  close or require SUP?,Outside,0,34.11130523,-118.7556445,0,,LOS ANGELES,Unincorp LA
325,83,Stokes Cyn Rd,,Stokes Canyon Road,Jessica/Jill,4/7/2003,entered by NK 09/03/03,,UX,UX,UX,UX,,,,,,NA,NA,,Yes,No,No,0,0,0,0,NA,NA,No,NA,No,No,No,No,XX,XX,XX,XX,No,No,No,No,No,,Outside,0,34.11232768,-118.6870485,0,,LOS ANGELES,Unincorp LA
326,0,Lake & Franklin Cyn fork,Franklin Canyon,Lake Dr ^ Franklin Cyn Dr,MB/EE,6/21/2000,mb10/31/00,MRCA,OP,OP,OP,OP,HO,HO,,,,Tertiary,Tertiary,,Yes,No,Yes,4,0,0,0,pullout,dirt,No,NA,No,Yes,No,No,No,XX,XX,XX,No,No,No,No,XX,,out,0,34.11598743,-118.413771,0,Y,LOS ANGELES,Los Angeles
327,81,Greenleaf Cyn Rd,,Greenleaf Canyon Road,Jessica/Jill,4/4/2003,mb12/07/03 entered by NK 09/03/0,OTH-PRIVATE,DL,DL,DL,DL,,,,,,NA,NA,,No,No,No,0,0,0,0,NA,NA,No,NA,No,No,No,No,XX,XX,XX,XX,No,No,No,No,No,,Outside,0,34.1136498,-118.608497,0,,LOS ANGELES,Unincorp LA
328,67,Mulholland Hwy ^ Bridge,Paramount Ranch,Mulholland Hwy ^ Bridge,MB,,mb01/01/04,NPS,UP,UP,UP,UP,HE,HE,HE,,,Unauthorized,Unauthorized,Yes,Yes,No,No,0,0,0,0,NA,NA,No,NA,No,No,No,No,XX,XX,XX,XX,No,No,No,No,No,In-hse review.  Serves Malibou Lake community only.  close or require SUP?,Outside,0,34.11178103,-118.7543878,0,,LOS ANGELES,Unincorp LA
329,54,Circle X Rnch/Yerba Buena Rd,Circle X Ranch,Yerba Buena ^ Gravesite,MB,,mb12/31/03,NPS,UP,EC,EC,EC,,,,,,Unauthorized,NA,,No,No,No,0,0,0,0,pullout,dirt,No,NA,No,No,No,No,XX,XX,XX,XX,No,No,No,No,No,,in,0,34.10931486,-118.9323137,0,,VENTURA,Unincorp Ventura
330,82,Beacontree Ln/Hierro Wy inters,,Beacontree Ln/Hierro Wy inters,Jessica/Jill,4/4/2003,entered by NK 09/03/03,,DL,DL,DL,DL,,,,,,NA,NA,,No,No,No,0,0,0,0,NA,NA,No,NA,No,No,No,No,XX,XX,XX,XX,No,No,No,No,No,development roads,Outside,0,34.11330572,-118.6629398,0,,LOS ANGELES,Unincorp LA
331,78,Zuniga Rd,,Zuniga Road,Jessica/Jill,4/7/2003,entered by NK 09/03/03,,UP,UP,UP,UP,,,,,,Unauthorized,Unauthorized,,Yes,No,No,0,0,0,0,NA,NA,No,NA,No,No,No,No,XX,XX,XX,XX,No,No,No,No,No,mb edits,Outside,0,34.11374238,-118.6369804,0,,LOS ANGELES,Unincorp LA
332,81,Will Geer Rd/Mesa Dr,,Will Geer Road (Mesa Drive),,,mb01/02/04,OTH-PRIVATE,DL,DL,DL,DL,,,,,,NA,NA,,No,No,No,0,0,0,0,NA,NA,No,NA,No,No,No,No,XX,XX,XX,XX,No,No,No,No,No,,Outside,0,34.11444247,-118.5990676,0,,LOS ANGELES,Unincorp LA
333,81,Henry Ridge Mtwy,,Henry Ridge Motorway,Jessica/Jill,4/21/2003,mb12/07/03 entered by NK 09/03/0,OTH-PRIVATE,DL,DL,DL,DL,,,,,,NA,NA,,No,No,No,0,0,0,0,NA,NA,No,NA,No,No,No,No,XX,XX,XX,XX,No,No,No,No,No,,Outside,0,34.114332,-118.6126894,0,,LOS ANGELES,Unincorp LA
334,82,Mulholland Hwy & Lyndon Dr,,Mulholland Hwy & Lyndon Dr,Jessica/Jill,4/4/2003,mb01/02/04 entered by NK 09/03/0,,DL,DL,DL,DL,,,,,,NA,NA,,Yes,No,No,0,0,0,0,NA,NA,No,NA,No,No,No,No,XX,XX,XX,XX,No,No,No,No,No,gated access  mb edits,Outside,0,34.1137794,-118.6609214,0,,LOS ANGELES,Unincorp LA
335,82,Dry Canyon Cold Creek Rd,,Dry Canyon Cold Creek Road,Jessica/Jill,4/4/2003,entered by NK 09/03/03,,DL,DL,DL,DL,,,,,,NA,NA,,No,No,No,0,0,0,0,NA,NA,No,NA,No,No,No,No,XX,XX,XX,XX,No,No,No,No,No,development road,Outside,0,34.11393801,-118.6623614,0,,LOS ANGELES,Unincorp LA
336,54,Circle X Ranch Ranger Station,Circle X Ranch,Yerba Buena ^ Circle X Ranch Ranger Station,Jessica/Jill,3/17/2003,mb12/31/03 entered by NK 09/10/0,NPS,OP,OP,OP,OP,HO,HO,HO,,,Secondary,Secondary,,Yes,Yes,Yes,888,0,0,0,parking lot,paved,Yes,flush,Yes,No,No,Yes,Yes,Yes,Yes,No,No,Yes,No,Yes,No,"Group campground, Grotto trailhead, recycling, no trail access to north as aerial shows.",Outside,2,34.10994094,-118.9372191,0,Y,VENTURA,Unincorp Ventura
337,10,Peter Strauss East,Peter Strauss Ranch,Eastern edge of PS Ranch at Mulholland,MB,,mb12/30/03,,UP,UP,UP,UP,UN,HE,UN,,,Unauthorized,Unauthorized,Yes,Yes,No,Yes,888,888,888,888,on-street,dirt,No,NA,No,No,No,No,XX,XX,XX,XX,No,No,No,No,No,"12/30/03 Neighborhood entrance, but general public could park on Mulholland & enter.  Involves unofficial trails on Vintage property to get to Peter Strauss Loop Trail.",Coastal,0,34.11247159,-118.7728369,0,,LOS ANGELES,Unincorp LA
338,67,Reagan Ranch,Malibu Creek State Park,SE Corner Mulholland ^ Cornell,MB,,mb01/01/04,CDPR,OP,OP,OP,OP,HE,HE,HE,,,Tertiary,Tertiary,,Yes,Yes,Yes,888,0,1,0,parking lot,gravel,Yes,chemical,No,No,No,No,No,XX,XX,No,No,No,No,No,No,Updated 07/27/08. In-house review.  Facilities inventory not completed.  Planned equestrian camp.  10/7/09 MB Mike Malone confirmed eq pkg takes place.,Outside,0,34.11280952,-118.750748,0,N,LOS ANGELES,Unincorp LA
339,82,Beacontree Lane,,Beacontree Lane,Jessica/Jill,4/4/2003,entered by NK 09/03/03,,DL,DL,DL,DL,,,,,,NA,NA,,No,No,No,0,0,0,0,NA,NA,No,NA,No,No,No,No,XX,XX,XX,XX,No,No,No,No,No,development road,Outside,0,34.11412914,-118.6630634,0,,LOS ANGELES,Unincorp LA
340,79,Chamera Lane,,Chamera Lane,Jessica/Jill,4/7/2003,mb12/07/03 entered by NK 09/03/0,,UX,UX,UX,UX,,,,,,NA,NA,,Yes,No,No,0,0,0,0,NA,NA,No,NA,No,No,No,No,XX,XX,XX,XX,No,No,No,No,No,May become a UP if Summit-to-Summit properties are acquired.,Outside,0,34.11484596,-118.6215783,0,,LOS ANGELES,Unincorp LA
341,67,Paramount Ranch/Mulholland Hwy,Paramount Ranch,Paramount Ranch/Mulholland Hwy,MB,,mb01/01/04,NPS,OP,OP,OP,OP,HE,HE,HE,,,Tertiary,Tertiary,,Yes,Maybe,No,0,0,0,0,NA,NA,No,NA,No,No,No,No,XX,XX,XX,XX,No,No,No,No,No,In-house review.  Mainly used as legitimate connecting access point between MCSP & Paramount.,Outside,0,34.11314552,-118.7514996,0,Y,LOS ANGELES,Unincorp LA
342,81,Henry Ridge Mtwy,,Henry Ridge Motorway,Jessica/Jill,4/21/2003,mb12/07/03 entered by NK 09/03/0,OTH-PRIVATE,DL,DL,DL,DL,,,,,,NA,NA,,No,No,No,0,0,0,0,NA,NA,No,NA,No,No,No,No,XX,XX,XX,XX,No,No,No,No,No,,Outside,0,34.11506328,-118.6131386,0,,LOS ANGELES,Unincorp LA
343,81,Will Geer Rd/Mesa Dr,,Will Greer Road (Mesa Drive),,,mb01/02/04,OTH-PRIVATE,DL,DL,DL,DL,,,,,,NA,NA,,No,No,No,0,0,0,0,NA,NA,No,NA,No,No,No,No,XX,XX,XX,XX,No,No,No,No,No,,Outside,0,34.11533871,-118.5987982,0,,LOS ANGELES,Unincorp LA
344,81,Greenleaf Cyn Rd,,Greenleaf Canyon Road,Jessica/Jill,4/4/2003,mb12/07/03 entered by NK 09/03/0,OTH-PRIVATE,DL,DL,DL,DL,,,,,,NA,NA,,No,No,No,0,0,0,0,NA,NA,No,NA,No,No,No,No,XX,XX,XX,XX,No,No,No,No,No,,Outside,0,34.11537645,-118.6085117,0,,LOS ANGELES,Unincorp LA
345,78,Zuniga Rd,,Zuniga Road,Jessica/Jill,4/7/2003,mb01/02/04 entered by NK 09/03/0,,UX,UX,UX,UX,,,,,,NA,NA,,Yes,No,No,0,0,0,0,NA,NA,No,NA,No,No,No,No,XX,XX,XX,XX,No,No,No,No,No,,Outside,0,34.1151812,-118.6413316,0,,LOS ANGELES,Unincorp LA
346,92,Runyon Cyn Desmond Estates Rd,Runyon Canyon Park,Lisco Place,AP/MB/EE,6/21/2000,mb11/01/00,CTY-LA,DL,DL,DL,DL,,,,,,NA,NA,,No,No,No,0,0,0,0,NA,NA,No,NA,No,No,No,No,XX,XX,XX,XX,No,No,No,No,No,"""no trespassing"" posted.  Could conceivably connect into Runyon Cyn Park.",Outside,0,34.1188147,-118.3539237,0,,LOS ANGELES,Los Angeles
347,92,Runyon Cyn Trailhead North,Runyon Canyon Park,Runyon Canyon Road ^ Mulholland Dr,AP/MB/EE,6/21/2000,mb11/01/00,LA CITY,OP,OP,OP,OP,HO,HO,HO,,,Secondary,Secondary,,Yes,Yes,Yes,40,0,0,0,parking lot,dirt,No,NA,No,No,No,No,No,XX,XX,XX,No,No,No,No,No,"Odd signage:  an official TH w/no trespassing posted, and ""your taxpayer dollars at work.""  Also accesses off-leash dog areas. Heavily used TH.  10/9/09 MB BingMaps pkg spc count by cars present indics 40 spaces.",Outside,2,34.11900412,-118.3528967,0,Y,LOS ANGELES,Los Angeles
348,92,Runyon Cyn Hillpark Dr,?,Mulholland ^ Hillpark,Andrew,3/14/2000,mb06/09/00,OTH-PRIVATE,DL,DL,DL,DL,,,,,,NA,NA,,No,No,No,0,0,0,0,NA,NA,No,NA,No,No,No,No,XX,XX,XX,XX,No,No,No,No,No,just the end of street that pseudo-connects to Mulholland.  Street connects of unofficial trail near Hollywood Bowl.,Outside,0,34.11915754,-118.3438535,0,,LOS ANGELES,Los Angeles
349,81,Luse Tank Rd,,Luse Tank Road,Jessica/Jill,4/4/2003,mb12/07/03 entered by NK 09/03/0,OTH-PRIVATE,DL,DL,DL,DL,,,,,,NA,NA,,No,No,No,0,0,0,0,NA,NA,No,NA,No,No,No,No,XX,XX,XX,XX,No,No,No,No,No,,Outside,0,34.11607591,-118.605019,0,,LOS ANGELES,Unincorp LA
350,78,Topanga/Old Topanga Cyn Rd,,Old Topanga Canyon Road,Jessica/Jill,4/7/2003,entered by NK 09/03/03,,DL,DL,DL,DL,,,,,,NA,NA,,No,No,No,0,0,0,0,NA,NA,No,NA,No,No,No,No,XX,XX,XX,XX,No,No,No,No,No,,Outside,0,34.11579994,-118.6334752,0,,LOS ANGELES,Unincorp LA
351,55,BBT - Sandstone Peak Trailhead,Circle X Ranch,Yerba Buena ^ Sandstone Peak TH,Jessica/Jill,3/17/2003,mb12/31/03 entered by NK,NPS,OP,OP,OP,OP,MU,HO,,,,Tertiary,Tertiary,,Yes,Yes,Yes,30,0,0,0,parking lot,gravel,Proposed,composting,No,Yes,No,No,No,Yes,Yes,No,No,Yes,No,No,No,maintenance needed to access of parking lot.  TMP Team rec's:  harden parking surface,in,2,34.11167921,-118.9266962,0,Y,VENTURA,Unincorp Ventura
352,100,Peter Strauss Ranch,Peter Strauss Ranch,Mulholland ^ Troutdale,Jim Anderson,3.27.01,mb01/01/04,NPS,OP,OP,OP,OP,HE,HE,HE,,,Secondary,Secondary,,Yes,Yes,Yes,25,0,1,1,parking lot,dirt,Yes,flush,No,Yes,No,Yes,Yes,Yes,Yes,Proposed,No,Yes,No,No,No,"Trailhead infrastructure associated with ranch location, removed from TH. Childrens playground.  Proposed shuttle stop.  TH handles parking for events at ranch.",Outside,1,34.11393322,-118.7783663,0,Y,LOS ANGELES,Unincorp LA
353,81,Greenleaf Cyn Rd,,Greenleaf Canyon Road,Jessica/Jill,4/4/2003,mb12/07/03 entered by NK 09/03/0,OTH-PRIVATE,DL,DL,DL,DL,,,,,,NA,NA,,No,No,No,0,0,0,0,NA,NA,No,NA,No,No,No,No,XX,XX,XX,XX,No,No,No,No,No,,Outside,0,34.11630121,-118.6070985,0,,LOS ANGELES,Unincorp LA
354,92,Runyon Cyn Mulholland East Edge,?,Mulholland Drive,Andrew,3/14/2000,mb11/01/00,OTH-PRIVATE,DL,DL,DL,DL,,,,,,NA,NA,,No,No,No,0,0,0,0,NA,NA,No,NA,No,No,No,No,XX,XX,XX,XX,No,No,No,No,No,,Outside,0,34.11970336,-118.3436246,0,,LOS ANGELES,Los Angeles
355,80,Topanga/Paradise Ln,NPS & TSP,Paradise Lane,MB - in office,5/27/2001,mb01/02/04 mb05/27/01,private,UP,EM,EM,EM,,HE,,,,Unauthorized,Tertiary,,Yes,No,Yes,1,0,0,0,pullout,dirt,No,NA,No,No,No,No,XX,XX,XX,XX,No,No,No,No,No,"No field check needed.  May be ""No Trespassing"" signs present.  Currently neighborhood entrance, but may become official if Santa Maria Cyn missing link is realized.",Outside,0,34.11768372,-118.5750335,0,,LOS ANGELES,Unincorp LA
356,92,Runyon Cyn Pacific View Dr,?,Pacific View Drive,Andrew,3/14/2000,mb06/09/00,OTH-PRIVATE,DL,DL,DL,DL,,,,,,NA,NA,,No,No,No,0,0,0,0,NA,NA,No,NA,No,No,No,No,XX,XX,XX,XX,No,No,No,No,No,"22 obviously connects to 21, but can't find 22 trailhead -- behind some houses.",Outside,0,34.12043668,-118.3458316,0,,LOS ANGELES,Los Angeles
357,80,Aft Trail Road,Ed Edelman,terminus of Aft Trail Road,MB - in office,5/28/2001,mb01/02/04 mb05/28/01,private,UP,UP,UP,UP,,,,,,Unauthorized,Unauthorized,Yes,Y,Maybe,No,0,0,0,0,NA,NA,No,NA,No,No,No,No,XX,XX,XX,XX,No,No,No,No,No,"No field ck done.  Neighborhood entrance to state parkland.  ignore, close, SUP?",Outside,0,34.11762275,-118.5877112,0,,LOS ANGELES,Unincorp LA
358,0,Franklin Cyn Dr ^ Sycamore Meadow,Franklin Canyon,,MB/EE,6/21/2000,mb10/31/00,MRCA,OP,OP,OP,OP,HO,HO,,,,Tertiary,Tertiary,,Yes,No,Yes,4,0,0,0,pullout,paved,No,NA,No,No,No,No,No,XX,XX,XX,No,No,No,No,XX,,out,0,34.12006596,-118.4088519,0,Y,LOS ANGELES,Los Angeles
359,67,Paramount Ranch Main Entrance,Paramount Ranch,Paramount Ranch Main Entrance,MB,,mb01/01/04 mb12/17/02,NPS,OP,OP,OP,OP,MU,HE,,,,Primary,Primary,,Yes,Yes,Yes,100,999,1,999,parking lot,dirt,Yes,flush,Yes,Yes,Yes,Yes,Yes,Yes,Yes,XX,No,Yes,No,No,No,In-hse review.  Proposed shuttle stop.  Disorganized layout for a primary TH.,Outside,1,34.1157198,-118.7553023,0,Y,LOS ANGELES,Unincorp LA
360,80,Clear Trail Road,Ed Edelman Park,terminus of Clear Trail Road,MB - in office,5/28/2001,mb01/02/04 mb05/28/01,private,UP,UP,UP,UP,,,,,,Unauthorized,Unauthorized,Yes,Yes,Maybe,Maybe,0,0,0,0,,,No,NA,No,No,No,No,XX,XX,XX,XX,No,No,No,No,No,"No field ck done.  Neighborhood entrance to state parkland.  ignore, close, SUP?",Outside,0,34.11808257,-118.5890638,0,,LOS ANGELES,Unincorp LA
361,57,"Kanan Rd pullout, outside of N",,Kanan Road,Jessica/Jill,4/7/2003,entered by NK  09/10/03,,DL,DL,DL,DL,,,,,,NA,NA,,No,No,No,0,0,0,0,NA,NA,No,NA,No,No,No,No,XX,XX,XX,XX,No,No,No,No,No,,Outside,0,34.11521455,-118.8032728,0,,LOS ANGELES,Unincorp LA
362,78,Topanga/Burson Rd/Portage Circle Dr,,Burson Road & Portage Circle Dr,Jessica/Jill,4/7/2003,mb12/07/03 entered by NK 09/03/0,OTH-PRIVATE,DL,DL,DL,DL,,,,,,NA,NA,,,No,No,0,0,0,0,NA,NA,No,NA,No,No,No,No,XX,XX,XX,XX,No,No,No,No,No,,Outside,0,34.11774872,-118.6245609,0,,LOS ANGELES,Unincorp LA
363,80,Topanga/Rubicon Rd,,Rubicon Road,Jessica,4/4/2003,mb12/07/03 entered by NK 09/03/0,OTH-PRIVATE,DL,DL,DL,DL,,,,,,NA,NA,,No,No,No,0,0,0,0,NA,NA,No,NA,No,No,No,No,XX,XX,XX,XX,No,No,No,No,No,,Outside,0,34.11820398,-118.5935974,0,,LOS ANGELES,Unincorp LA
364,0,WODOC Nature Trail / Rowen Trail,Franklin Canyon,Heavenly Pond,MB/EE,6/21/2000,mb10/31/00,MRCA,OP,OP,OP,OP,HO,,,,,Tertiary,Tertiary,,Yes,Yes,Yes,2,0,0,0,pullout,paved,Yes,flush,No,Yes,No,Yes,No,Yes,XX,XX,No,No,No,No,XX,Parking for universal access trail,out,0,34.12063179,-118.4107764,0,Y,LOS ANGELES,Los Angeles
365,78,Hodgson Circle Rd,,Hodgson Circle Road,Jessica/Jill,4/7/2003,entered by NK 09/03/03,,XX,XX,,,,,,,,XX,XX,,Yes,No,No,0,0,0,0,NA,NA,No,NA,No,No,No,No,XX,XX,XX,XX,No,No,No,No,No,,Outside,0,34.11807525,-118.6320688,0,,LOS ANGELES,Unincorp LA
366,56,Westlake Blvd,,"Westlake Boulevard, north of Mulholland Hwy",Jessica/Jill,4/7/2003,entered by NK  09/10/03,,DL,DL,DL,DL,,,,,,NA,NA,,No,No,No,0,0,0,0,NA,NA,No,NA,No,No,No,No,XX,XX,XX,XX,No,No,No,No,No,development road,Outside,0,34.11499166,-118.8532515,0,,LOS ANGELES,Unincorp LA
367,78,Portage Cir,,Portage Circle Dirve,Jessica/Jill,4/7/2003,mb12/07/03 entered by NK 09/03/0,OTH-PRIVATE,DL,DL,DL,DL,,,,,,NA,NA,,No,No,No,0,0,0,0,NA,NA,No,NA,No,No,No,No,XX,XX,XX,XX,No,No,No,No,No,,Outside,0,34.11825181,-118.6240216,0,,LOS ANGELES,Unincorp LA
368,78,Portage Cir,,Portage Circle Drive,Jessica/Jill,4/7/2003,mb12/07/03 entered by NK 09/03/0,OTH-PRIVATE,UX,UX,UX,UX,,,,,,NA,NA,,Yes,No,No,0,0,0,0,NA,NA,No,NA,No,No,No,No,XX,XX,XX,XX,No,No,No,No,No,May become a UP if Summit-to-Summit properties are acquired.,Outside,0,34.11823004,-118.6256668,0,,LOS ANGELES,Unincorp LA
369,0,Redwood Grove,Franklin Canyon,Franklin Canyon Lake,MB/EE,6/21/2000,mb10/31/00,MRCA,OP,OP,OP,OP,HO,,,,,Tertiary,Tertiary,,Yes,No,Yes,40,0,0,0,parking lot,dirt,No,NA,No,No,No,No,No,XX,XX,XX,No,No,No,No,XX,Just a big parking area.,out,0,34.12094469,-118.4105245,0,Y,LOS ANGELES,Los Angeles
370,54,BBT - Mishe Mokwa Trailhead S,Circle X Ranch,BBT ^ Yerba Buena Rd,MB,,mb12/31/03 mb11/04/02,NPS,OP,OP,OP,OP,MU,MU,MU,,,Secondary,Secondary,,Yes,Yes,Yes,15,0,99,0,parking lot,dirt,Proposed,composting,No,Proposed,No,No,No,Proposed,Proposed,No,No,No,No,No,No,TMP Rec's:  Enlarge parking area.  Place restroom at S end of area.  Install 2-panel bulletin board.  Harden parking surface to protect arch resources.,,2,34.11418396,-118.9183345,0,Y,VENTURA,Unincorp Ventura
371,83,Stokes Cyn Rd at Headstorm Cyn Rd,,Stokes Canyon at Headstorm Canyon,Jessica/Jill,4/7/2003,mb01/02/04 entered by NK 09/03/0,,UX,UP,UP,UP,,HE,,,,NA,Unauthorized,,Maybe,No,No,0,0,0,0,NA,NA,No,NA,No,No,No,No,XX,XX,XX,XX,No,No,No,No,No,"Would be likely unofficial connection to parkland to north & Cold Creek Trail system.  ignore, close, SUP if the time comes?",Outside,0,34.11796786,-118.6781774,0,,LOS ANGELES,Unincorp LA
372,55,BBT - Mishe Mokwa Trailhead N,Circle X Ranch,"Yerba Buena Rd ^ BBT-Mishe Mokwa Trail, N side of road",MB,,mb12/31/03,NPS,UP,EC,EC,EC,HO,HO,,,,Tertiary,NA,,Yes,Yes,Yes,5,0,0,0,pullout,dirt,No,NA,No,No,No,No,No,No,No,No,No,No,No,No,No,TMP Team:  Close this parking area and create better trailhead across Yerba Buena.,Outside,0,34.11450161,-118.9181947,0,,VENTURA,Unincorp Ventura
373,80,Topanga/Topanga Cyn Blvd,,Topanga Canyon Boulevard,Jessica,4/4/2003,mb12/07/03 entered by NK 09/03/0,OTH-PRIVATE,DL,DL,DL,DL,,,,,,NA,NA,,Yes,No,Yes,888,888,888,888,pullout,dirt,No,NA,No,No,No,No,XX,XX,XX,XX,No,No,No,No,No,mb edits,Outside,0,34.11918289,-118.5918277,0,,LOS ANGELES,Unincorp LA
374,79,Halsey Rd,,Halsey Road,Jessica/Jill,4/7/2003,mb01/02/04 entered by NK 09/03/0,,DL,DL,DL,DL,,,,,,NA,NA,,Yes,No,No,0,0,0,0,NA,NA,No,NA,No,No,No,No,XX,XX,XX,XX,No,No,No,No,No,,Outside,0,34.11869262,-118.6292072,0,,LOS ANGELES,Unincorp LA
375,68,Redkin Devt Entrance,,Terminus of Triunfo Dr.,MB,,mb12/30/03,,UP,UP,UP,UP,UN,HO,UN,,,Unauthorized,Unauthorized,Yes,No,No,Yes,888,888,888,888,on-street,paved,No,NA,No,No,No,No,XX,XX,XX,XX,No,No,No,No,No,"12/30/03 - In-hse review.  Redkin devt is not gated, but this would be used primarily by immediate neighborhood.  Close?",Outside,0,34.11684999,-118.773789,0,,LOS ANGELES,Unincorp LA
376,93,Barbara Fine Summit Overlook,Mulholland Scenic Parkway,11801 Mulholland Drive,MB/EE,6/21/2000,mb10/31/00,MRCA,OP,OP,OP,OP,NA,,,,,Overlook Only,Overlook Only,,No,No,Yes,4,0,0,1,pullout,paved,No,NA,No,No,No,No,No,No,No,No,Official,No,No,No,No,,out,0,34.12178977,-118.398395,0,,LOS ANGELES,Los Angeles
377,81,Henry Ridge Motorway,,Henry Ridge Motorway,Jessica/Jill,,mb12/07/03 entered by NK 09/03/0,OTH-PRIVATE,DL,DL,DL,DL,,,,,,NA,NA,,No,No,No,0,0,0,0,NA,NA,No,NA,No,No,No,No,XX,XX,XX,XX,No,No,No,No,No,,Outside,0,34.11931362,-118.6134162,0,,LOS ANGELES,Unincorp LA
378,93,Nancy Hoover Pohl Overlook,Fryman Canyon/Mulholland Scenic Parkway,8401 Mulholland Drive,Kerry/Andrew,3/14/2000,mb06/10/00,MRCA,OP,OP,OP,OP,HO,HO,,,,Tertiary,Tertiary,,Yes,Yes,Yes,19,0,0,1,parking lot,paved,No,NA,No,No,Yes,Yes,No,Yes,No,Yes,Official,No,No,No,No,10/14/09 MB - Visited site & confirmed facilities.  No picnic tables.  Benches.  Some exercise structures.,Outside,2,34.12214348,-118.3848616,0,Y,LOS ANGELES,Los Angeles
379,93,"Fryman Canyon -- Mulholland, east pullout",Fryman Canyon Park,Mulholland ^ Laurel Pass,Andrew,3/14/2000,mb06/10/00,NPS,UP,UP,UP,UP,,,,,,Unauthorized,Unauthorized,,No,No,No,0,0,0,0,NA,NA,No,NA,No,No,No,No,XX,XX,XX,XX,No,No,No,No,No,"Looks like OP path w.exercise equipment, but no signs.  Basically same trailhead as #4, just another on-street access point",Outside,0,34.12230003,-118.3832527,0,,LOS ANGELES,Los Angeles
380,78,Old Topanga Cyn Rd,,Old Topanga Canyon Road,Jessica/Jill,4/7/2003,mb01/02/04 entered by NK 09/03/0,,DL,DL,DL,DL,,,,,,NA,NA,,No,No,No,0,0,0,0,NA,NA,No,NA,No,No,No,No,XX,XX,XX,XX,No,No,No,No,No,mb edits,Outside,0,34.11959103,-118.6338703,0,,LOS ANGELES,Unincorp LA
381,89,Mandeville^Garden Land Rd.,Westridge-Canyonback Wilderness Park,Mandeville^Garden Land Rd.,MB/EE,8/4/2000,mb10/31/00,MRCA,OP,OP,OP,OP,MU,,,,,Tertiary,Tertiary,,Yes,No,Yes,1,0,0,0,on-street,paved,No,NA,No,No,No,No,No,No,No,No,No,No,No,No,No,Private neighborhood area.  mb12/10/08 - Use designation confirmed by MRCA Jewel Johnson,Outside,0,34.12127013,-118.5066892,0,Y,LOS ANGELES,Los Angeles
382,83,Stokes Canyon / Headstorm Canyon Road,,Stokes Canyon / Headstorm Canyon Road,Jessica/Jill,4/7/2003,mb01/01/04 entered by NK 09/03/0,,UX,UP,UP,UP,,HE,,,,NA,Unauthorized,,Maybe,No,No,0,0,0,0,NA,NA,No,NA,No,No,No,No,XX,XX,XX,XX,No,No,No,No,No,mb edits.  Assigned UP proposal because hope some agency acquires parkland in area.,Outside,0,34.11912708,-118.6750046,0,,LOS ANGELES,Calabasas
383,0,Blinderman Trailhead,Franklin Canyon,WODOC,MB/EE,6/21/2000,mb10/31/00,MRCA,OP,OP,OP,OP,HO,HO,,,,Secondary,Secondary,,Yes,Yes,Yes,10,0,0,1,parking lot,gravel,Yes,flush,Yes,Yes,No,Yes,Yes,Yes,XX,Proposed,No,Yes,No,No,XX,Uses same facilities as WODOC parking lot.,out,0,34.12252021,-118.4083013,0,Y,LOS ANGELES,Los Angeles
384,80,Topanga/Topanga Cyn Blvd,,Topanga Canyon Boulevard,Jessica,4/4/2003,mb12/07/03 entered by NK 09/03/0,OTH-PRIVATE,UX,UX,UX,UX,,,,,,NA,NA,,Yes,No,Yes,888,888,888,888,pullout,dirt,No,NA,No,No,No,No,XX,XX,XX,XX,No,No,No,No,No,,in,0,34.12069803,-118.591386,0,,LOS ANGELES,Unincorp LA
385,93,Autry Overlook,Fryman Canyon Park - Adj,8601 Mulholland Drive,Kerry,,mb11/01/00,MRCA,OP,OP,OP,OP,NA,,,,,Overlook Only,Overlook Only,,No,No,Yes,888,0,0,0,pullout,dirt,No,NA,No,No,No,No,No,No,No,No,Official,No,No,No,No,#6 is larger than #5.  Neither point is very nice.  #6 has curb to bump your car over to get to it.,Outside,0,34.12334692,-118.3891692,0,,LOS ANGELES,Los Angeles
386,81,Henry Ridge Motorway,,Henry Ridge Motorway,Jessica/Jill,,mb12/07/03 entered by NK 09/03/0,OTH-PRIVATE,DL,DL,DL,DL,,,,,,NA,NA,,No,No,No,0,0,0,0,NA,NA,No,NA,No,No,No,No,XX,XX,XX,XX,No,No,No,No,No,,Outside,0,34.12062684,-118.6131549,0,,LOS ANGELES,Unincorp LA
387,93,Dead Man Overlook,Fryman Canyon Park,8591 Mulholland Drive,Kerry/Andrew,,mb6/20/00,MRCA,OP,OP,OP,OP,NA,,,,,Overlook Only,Overlook Only,,No,No,Yes,888,0,0,0,pullout,dirt,No,NA,No,No,No,No,No,No,No,No,Official,No,No,No,No,"Trail exists that connects to Dearing Trail, but is steep, eroding & unsanctioned.",Outside,0,34.12365065,-118.3874287,0,,LOS ANGELES,Los Angeles
388,0,WODOC parking lot,Franklin Canyon,Upper Franklin Canyon ^ Franklin Cyn Drive,MB/EE,6/21/2000,mb10/31/00,MRCA,OP,OP,OP,OP,HO,HO,,,,Primary,Primary,,Yes,No,Yes,75,0,0,2,parking lot,gravel,Yes,flush,Yes,Yes,No,Yes,Yes,Yes,XX,Proposed,No,Yes,No,No,No,main parking for Sooky Goldman Nature Center,out,2,34.12357044,-118.4091044,0,Y,LOS ANGELES,Los Angeles
389,0,Berman Trail pullout,Franklin Canyon,Franklin Canyon ^ Dam,MB/EE,6/21/2000,mb10/31/00,MRCA,OP,OP,OP,OP,HO,HO,,,,Tertiary,Tertiary,,Yes,No,Yes,3,0,0,0,pullout,dirt,No,NA,No,No,No,No,No,XX,XX,XX,No,No,No,No,XX,,out,0,34.12381024,-118.409531,0,Y,LOS ANGELES,Los Angeles
390,93,Fryman Canyon -- Mulholland Terrace,Fryman Canyon Park,Laurel Canyon Boulevard,Kerry/Andrew,3/14/2000,mb06/10/00,,UP,UP,UP,UP,,,,,,Unauthorized,Unauthorized,,Yes,No,No,0,0,0,0,NA,NA,No,NA,No,No,No,No,XX,XX,XX,XX,No,No,No,No,No,"Unofficial park entrance for residents on N side of Mulholland Hwy in this vicinity.  Ignore, close, SUP?",Outside,0,34.12424321,-118.3768465,0,,LOS ANGELES,Los Angeles
391,81,Topanga / Alta Dr / Corsham Rd,,Corsham Road,Jessica/Jill,4/4/2003,mb12/07/03 entered by NK 09/03/0,OTH-PRIVATE,DL,DL,DL,DL,,,,,,NA,NA,,No,No,No,0,0,0,0,NA,NA,No,NA,No,No,No,No,XX,XX,XX,XX,No,No,No,No,No,,Outside,0,34.1218923,-118.6084563,0,,LOS ANGELES,Unincorp LA
392,77,Summit to Summit Mtwy,,Summit to Summit Motorway,Jessica/Jill,3/19/2003,mb12/07/03 entered by NK 09/03/0,OTH-PRIVATE,DL,DL,DL,DL,,,,,,NA,NA,,No,No,No,0,0,0,0,NA,NA,No,NA,No,No,No,No,XX,XX,XX,XX,No,No,No,No,No,,Outside,0,34.12236858,-118.6164797,0,,LOS ANGELES,Unincorp LA
393,93,Pinnacle Pl,Fryman adjacent,gated community off Mulholland Dr ^ Summit Circle,MB/EE,6/21/2000,mb10/31/00,PRIVATE,UP,UP,UP,UP,,,,,,Unauthorized,Unauthorized,Yes,Yes,No,No,0,0,0,0,NA,NA,No,NA,No,No,No,No,No,XX,XX,XX,No,No,No,No,No,"parkland entrance from a gated community.  ignore, close, SUP?",Outside,0,34.12523197,-118.3975726,0,,LOS ANGELES,Los Angeles
394,93,Fryman Canyon -- Briarcliff Lane West,Fryman Canyon Park,Briarcliff,Kerry/Andrew,3/14/2000,mb06/20/00,NPS,UP,UP,UP,UP,,,,,,Unauthorized,Unauthorized,Yes,Yes,No,Yes,4,0,0,0,on-street,paved,No,NA,No,No,No,No,XX,XX,XX,XX,No,No,No,No,No,"Access will be nil when private gate is closed.  Neighborhood entrance.  ignore, close, SUP?",Outside,0,34.12545162,-118.3858601,0,,LOS ANGELES,Los Angeles
395,77,Summit to Summit Mtwy,,Summit to Summit Motorway,Jessica/Jill,3/19/2003,mb12/07/03 entered by NK 09/03/0,OTH-PRIVATE,DL,DL,DL,DL,,,,,,NA,NA,,No,No,No,0,0,0,0,NA,NA,No,NA,No,No,No,No,XX,XX,XX,XX,No,No,No,No,No,,Outside,0,34.12265978,-118.6203849,0,,LOS ANGELES,Unincorp LA
396,93,Fryman Canyon -- Valleycrest Rd.,Fryman Canyon Park,Valley Crest Road,Andrew,3/17/2000,mb11/01/00,Private,DL,DL,DL,DL,,,,,,NA,NA,,Yes,No,No,0,0,0,0,NA,NA,No,NA,No,No,No,No,XX,XX,XX,XX,No,No,No,No,No,"10 is same situation as 8, 9.  There might be access through a street to the north.  mb edits.",Outside,0,34.12585996,-118.3884282,0,,LOS ANGELES,Los Angeles
397,81,Topanga/Alta Dr,,Alta Dr & Altaridge Drive,Jessica/Jill,4/4/2003,mb12/07/03 entered by NK 09/03/0,OTH-PRIVATE,UX,UX,UX,UX,,,,,,NA,NA,,Maybe,No,No,0,0,0,0,NA,NA,No,NA,No,No,No,No,XX,XX,XX,XX,No,No,No,No,No,,Outside,0,34.12327217,-118.6060296,0,,LOS ANGELES,Unincorp LA
398,82,Calabasas Peak Mtwy,,Calabasas Peak Motorway,Jessica/Jill,3/19/2003,entered by NK 09/03/03,,DL,DL,DL,DL,,,,,,NA,NA,,No,No,No,0,0,0,0,NA,NA,No,NA,No,No,No,No,XX,XX,XX,XX,No,No,No,No,No,,Outside,0,34.12277685,-118.6478438,0,,LOS ANGELES,Unincorp LA
399,77,Summit to Summit Mtwy,,Summit to Summit Motorway,Jessica/Jill,3/19/2003,mb12/07/03 entered by NK 09/03/0,OTH-PRIVATE,DL,DL,DL,DL,,,,,,NA,NA,,No,No,No,0,0,0,0,NA,NA,No,NA,No,No,No,No,XX,XX,XX,XX,No,No,No,No,No,,Outside,0,34.12326296,-118.615155,0,,LOS ANGELES,Unincorp LA
400,77,Summit-to-Summit Mtwy/Janes Tr,,Summit to Summit Motorway,Jessica/Jill,3/19/2003,mb12/07/03 entered by NK 09/03/0,OTH-PRIVATE,DL,DL,DL,DL,,,,,,NA,NA,,No,No,No,0,0,0,0,NA,NA,No,NA,No,No,No,No,XX,XX,XX,XX,No,No,No,No,No,,Outside,0,34.1231949,-118.622542,0,,LOS ANGELES,Unincorp LA
401,77,Summit to Summit Mtwy,,Summit to Summit Motorway,Jessica/Jill,3/19/2003,mb12/07/03 entered by NK 09/03/0,OTH-PRIVATE,DL,DL,DL,DL,,,,,,NA,NA,,No,No,No,0,0,0,0,NA,NA,No,NA,No,No,No,No,XX,XX,XX,XX,No,No,No,No,No,,Outside,0,34.12325792,-118.6211835,0,,LOS ANGELES,Unincorp LA
402,80,Santa Maria Road,Summit Valley Edmund D. Edelman Park,Santa Maria Road,MB - in office,5/28/2001,mb01/02/04 mb05/28/01,private,OP,OP,OP,OP,MU,,,,,Tertiary,Tertiary,,Yes,Maybe,Yes,1,0,0,0,pullout,dirt,No,NA,No,No,No,No,No,XX,XX,XX,No,No,No,No,No,"MB-info filled out in-house.  No easy, legitimate parking, but serves as xing over Santa Maria Cyn Rd.",Outside,0,34.12384172,-118.5880727,0,Y,LOS ANGELES,Unincorp LA
403,93,Fryman Canyon -- Briarcliff Lane East,Fryman Canyon Park,Briarcliff,Kerry/Andrew,3/14/2000,mb06/20/00,NPS,UP,UP,UP,UP,,,,,,Unauthorized,Unauthorized,Yes,Yes,No,Yes,888,888,888,888,on-street,paved,No,NA,No,No,No,No,XX,XX,XX,XX,No,No,No,No,No,"Access will be nil when private gate is closed.  Neighborhood entrance.  ignore, close, SUP?",Outside,0,34.12666134,-118.38234,0,,LOS ANGELES,Los Angeles
404,77,Summit-to-Summit Mtwy,,Summit to Summit ^ Marquette Connector Trail,Jessica/Jill,3/19/2003,mb12/07/03 entered by NK 09/03/0,OTH-PRIVATE,DL,DL,DL,DL,,,,,,NA,NA,,No,No,No,0,0,0,0,NA,NA,No,NA,No,No,No,No,XX,XX,XX,XX,No,No,No,No,No,,Outside,0,34.124259,-118.624244,0,,LOS ANGELES,Unincorp LA
405,77,Adamsville Av / Summit to Summit Mtwy,,Adamsville Av / Summit to Summit Mtwy,Ralf,,mb12/07/03 entered by NK,OTH-PRIVATE,DL,DL,DL,DL,,,,,,NA,NA,,No,No,No,0,0,0,0,NA,NA,No,NA,No,No,No,No,XX,XX,XX,XX,No,No,No,No,No,,Outside,0,34.12482727,-118.6127698,0,,LOS ANGELES,Unincorp LA
406,71,Dirt Mulholland Dr ^ Garapito Trail,Topanga State Park,Dirt Mulholland Dr ^ Garapito Trail,MB/EE,6/27/2000,mb10/31/00,CDPR,DL,DL,DL,DL,,,,,,NA,NA,,Yes,Yes,Yes,888,888,888,888,on-street,dirt,No,NA,No,No,No,No,No,XX,XX,XX,No,No,No,No,XX,regulatory signage,out,0,34.12588101,-118.5482066,0,,LOS ANGELES,Los Angeles
407,76,Old Topanga ^ Calabasas Motorway,,Old Topanga ^ Calabasas Motorway,Jessica/Jill,3/19/2003,mb01/02/04 entered by NK 09/03/0,,DL,DL,DL,DL,NA,NA,NA,,,NA,NA,,No,No,Yes,0,0,0,0,on-street,dirt,No,NA,No,No,No,No,XX,XX,XX,XX,No,No,No,No,No,Trail designation signs don't look official.  Appears to be private equestrian trail.  Old utility & fire road access.  mb edits:  This is a major unofficial entrance to trail network via Cal Mtwy & Summit-to-Summit.  Equestrians enter from nearby equest,Outside,0,34.12493801,-118.6349132,0,,LOS ANGELES,Unincorp LA
408,78,Calabasas Mtwy ^ Old Topanga Cyn Rd,,Calabasas Mtwy ^ Old Topanga Cyn Rd,MB,,mb12/07/03 entered by NK 09/03/0,,UX,EM,EM,EM,MU,MU,MU,,,NA,Tertiary,,Yes,No,Yes,4,0,0,0,pullout,dirt,No,NA,No,No,No,No,XX,XX,XX,XX,No,No,No,No,No,Significant non-park entrance.  Many users.  Friendly access.  Nearby equestrian facility (authorized or not?) provides eq opportunities.,,0,34.12502553,-118.6348938,0,,LOS ANGELES,Unincorp LA
409,77,Summit-to-Summit Mtwy/Marquett,,Summit to Summit Motorway,Jessica/Jill,3/19/2003,mb12/07/03 entered by NK 09/03/0,OTH-PRIVATE,DL,DL,DL,DL,,,,,,NA,NA,,No,No,No,0,0,0,0,NA,NA,No,NA,No,No,No,No,XX,XX,XX,XX,No,No,No,No,No,,Outside,0,34.12524713,-118.6248711,0,,LOS ANGELES,Unincorp LA
410,68,Cornell Rd Access,Paramount Ranch,Cornell Rd ^ 3300 Block,MB,3/4/2003,mb12/30/03 entered by NK 09/03/0,,UP,UP,UP,UP,UN,EQ,NA,,,Unauthorized,Unauthorized,Yes,Yes,No,No,0,0,0,0,NA,NA,No,NA,No,No,No,No,No,No,No,XX,No,No,No,No,No,"Private access.  If maintain as UP instead of EC, should an SUP be required?",,0,34.1236225,-118.7498924,0,,LOS ANGELES,Unincorp LA
411,74,Ed Edelman Park Neighborhood Entrance,Summit Valley Ed Edelman Park,Entrado Rd Neighborhood,,,mb01/02/04,MRCA,UP,UP,UP,UP,,,,,,Unauthorized,Unauthorized,Yes,No,No,No,0,0,0,0,NA,NA,No,NA,No,No,No,No,XX,XX,XX,XX,No,No,No,No,No,"Neighborhood entrance to state parkland.  ignore, close, SUP?",Outside,0,34.12569637,-118.6012584,0,,LOS ANGELES,Unincorp LA
412,74,Ed Edelman Park Neighborhood Entrance,Canyon Oaks,Koontz Way Neighborhood,,,mb01/02/04,MRCA,UP,UP,UP,UP,,,,,,Unauthorized,Unauthorized,,No,No,No,0,0,0,0,NA,NA,No,NA,No,No,No,No,XX,XX,XX,XX,No,No,No,No,No,"Neighborhood entrance to state parkland.  ignore, close, SUP?",Outside,0,34.12568088,-118.6029642,0,,LOS ANGELES,Unincorp LA
413,71,Dirt Mulholland Dr ^ Temescal Cyn Fire Rd,Topanga State Park,Dirt Mulholland Dr ^ Temescal Cyn Fire Rd,MB/EE,6/27/2000,mb10/31/00,CDPR,DL,DL,DL,DL,,,,,,NA,NA,,Yes,Yes,Yes,888,888,888,888,on-street,dirt,No,NA,No,No,No,No,XX,XX,XX,XX,No,No,No,No,No,"SP regulatory signage, but not located at a park entrance.",Outside,0,34.12636819,-118.5564182,0,,LOS ANGELES,Los Angeles
414,120,Iredell Lane Trailhead,B.B.Dearing Trail Easemt/Fryman Cyn Adj,Iredell Ln ^ Lower Fryman Fire Rd,EE/JW,6/29/2000,mb10/31/00,MRCA,OP,OP,OP,OP,HO,HO,,,,Tertiary,Tertiary,,Yes,No,No,0,0,0,0,NA,NA,No,NA,No,No,No,No,No,Yes,No,No,No,No,No,No,No,"10/14/09 MB Visited site over weekend.  Trash can is a private bin marked ""Trail"".  Sign is up trail a ways and only indicates direction to ""Rainforest"".  ""No Parking 7am to 8pm"" signs all up and down street.",out,0,34.12848672,-118.3987482,0,Y,LOS ANGELES,Los Angeles
415,0,Universal City Overlook,Mulholland Scenic Parkway,7701 Mulholland Drive,MB/EE,6/21/2000,mb10/31/00,SMMC/LA city,OP,OP,OP,OP,NA,NA,,,,Overlook Only,Overlook Only,,No,No,Yes,2,0,0,1,pullout,paved,No,NA,No,No,No,No,No,XX,XX,XX,Official,No,No,No,XX,,out,0,34.12909108,-118.3660611,0,,LOS ANGELES,Los Angeles
416,71,Topanga State Park/Fire Rd 28,Topanga State Park,Dirt Mulholland Dr ^ Fire Road 28,MB/EE,6/27/2000,mb10/31/00,CDPR,DL,DL,DL,DL,,,,,,NA,NA,,Yes,Yes,Yes,5,0,0,0,pullout,dirt,No,NA,No,No,No,No,No,XX,XX,XX,No,No,No,No,No,Caballero Cyn Trail to Reseda Blvd,Outside,0,34.12720306,-118.5432113,0,,LOS ANGELES,Los Angeles
417,68,Las Virgenes Municipal Water D,,Las Virgenes Road,MB,,mb12/17/02,,DL,DL,DL,DL,,,,,,NA,NA,,No,No,No,0,0,0,0,NA,NA,No,NA,No,No,No,No,XX,XX,XX,XX,No,No,No,No,No,,Outside,0,34.12509019,-118.7060924,0,,LOS ANGELES,Calabasas
418,120,Iredell Ln at Fire Road,Private Adj to Coldwater Cyn Park,Iredell Ln ^ Fire Road,EE/JW,6/29/2000,mb10/31/00,MRCA,OP,OP,OP,OP,HB,HB,HB,,,Tertiary,Tertiary,,Yes,Yes,No,0,0,0,0,NA,NA,No,NA,No,No,No,No,No,Yes,No,No,No,No,No,No,No,"facilities up trail at Tree People.  SMMC reg signage, LAMC reg signage.  mb12/10/08 - use designation confirmed by MRCA Jewel Johnson  10/14/09 MB - Visited site, confirmed facilities.  ""No Parking 7am to 8pm"" signs all up and down street.",out,0,34.1290697,-118.3992636,0,Y,LOS ANGELES,Los Angeles
419,70,Dirt Mulholland Eastern Entrance,Westridge Canyonback Dirt Mulholland,Dirt Mulholland ^ Canyonback Rd,MB,6/27/2000,mb01/02/04,MRCA,UP,EM,EM,EM,,MU,MU,,,Unauthorized,Secondary,,No,No,Yes,0,0,0,0,on-street,dirt,No,NA,No,No,No,No,XX,XX,XX,XX,No,No,No,No,No,In-hse review from memory.  Major dog walking area.  Can park here when gate to west on dirt Mulholland is closed.,Outside,0,34.1279618,-118.5028064,0,,LOS ANGELES,Los Angeles
420,71,Dirt Mulholland,Topanga State Park,Dirt Mulholland Dr,MB/EE,6/27/2000,mb10/31/00,CDPR,DL,DL,DL,DL,,,,,,NA,NA,,Yes,No,Yes,888,888,888,888,on-street,dirt,No,NA,No,No,No,No,XX,XX,XX,XX,No,No,No,No,No,,Outside,0,34.12753859,-118.5419845,0,,LOS ANGELES,Los Angeles
421,82,Secret Trail Trailhead,unnamed,Mulholland ^ Secret Trail,Jessica/Jill,4/7/2003,mb01/01/04 entered by NK 09/03/0,private,OP,OP,OP,OP,XX,,,,,Tertiary,Tertiary,,Yes,Yes,Yes,5,0,99,0,pullout,dirt,No,NA,No,No,No,No,XX,XX,XX,XX,No,No,No,No,No,"In-hse review from memory.  Need to ck on facilities, if any.",Outside,1,34.12644651,-118.6573442,0,Y,LOS ANGELES,Calabasas
422,120,Coldwater Canyon,Coldwater Cyn/ Wilacre,Coldwater Canyon,EE,6/29/2000,mb10/31/00,LA City,DL,DL,DL,DL,,,,,,NA,NA,,Yes,Yes,Yes,5,0,0,0,pullout,dirt,No,NA,No,No,No,No,No,XX,XX,XX,No,Yes,No,No,XX,can access TreePeople facilities from this entrance; no parking 9pm - 6am; Coldwater Cyn Park signs,out,0,34.12971401,-118.4072911,0,,LOS ANGELES,Los Angeles
423,120,Barker Fire Rd,Coldwater Canyon Park,Barker Fire Rd ^ Coldwater Cyn,EE,6/29/2000,mb10/31/00,LA City,OP,OP,OP,OP,HB,HB,,,,Tertiary,Tertiary,,Yes,Yes,No,0,0,0,0,NA,NA,No,NA,No,No,No,No,No,XX,XX,XX,No,No,No,No,XX,same lot as in pt. 627;  LAMC reg. Sign.; Can access TreePeople facilities from this entrance; Coldwater Cyn Park signs; mb12/1/08 - Lacy Brown at TreePeople confirmed info.,out,0,34.12977477,-118.4074944,0,Y,LOS ANGELES,Los Angeles
424,77,Summit to Summit Motorway,,Summit to Summit Motorway,Jessica/Jill,3/19/2003,entered by NK 09/03/03,,DL,DL,DL,DL,,,,,,NA,NA,,No,No,No,0,0,0,0,NA,NA,No,NA,No,No,No,No,XX,XX,XX,XX,No,No,No,No,No,,Outside,0,34.12705088,-118.6287655,0,,LOS ANGELES,Calabasas
425,120,TreePeople parking lot,Coldwater Canyon Park,Coldwater Cyn Rd ^ TreePeople,EE/JW,6/29/2000,mb01/02/04 mb10/31/00,LA City,OP,OP,OP,OP,HB,HB,,,,Primary,Primary,,Yes,Yes,Yes,50,0,0,3,parking lot,dirt,Yes,flush,No,Yes,Yes,Yes,No,Yes,Yes,XX,No,Yes,No,No,XX,many trails; LAMC & SMMC regulatory signs; S.Mark Taper Amphitheatre; beverage machines; recycling;  mb01/02/04 may be paved (expect semi-permeable?) pkg now?  mb12/1/08 - Lacy Brown at TreePeople confirmed use designation,out,0,34.12981955,-118.4054214,0,Y,LOS ANGELES,Los Angeles
426,81,Edelman Park Trailhead,Summit Valley Edmund D. Edelman Park,Topanga Canyon Blvd ^ Ed Edelman Park,MB,4/4/2003,mb12/11/03 entered by NK 09/03/0,MRCA,OP,OP,OP,OP,MU,,,,,Tertiary,Tertiary,,Yes,Yes,Yes,10,0,0,0,parking lot,dirt,Yes,chemical,No,No,No,No,No,Yes,Proposed,XX,No,No,No,No,No,In-house review.  No point on GIS.  Moved a DL point to this location.,Outside,2,34.12749048,-118.598622,0,Y,LOS ANGELES,Unincorp LA
427,70,Dirt Mulholland Dr ^ Sullivan Fire Rd,Sullivan Cyn,Mulholland ^ Sullivan,MB/EE,6/27/2000,mb10/31/00,LA Co Sanitation,DL,DL,DL,DL,,,,,,NA,NA,,Yes,No,Yes,3,0,0,0,pullout,dirt,No,NA,No,No,No,No,No,XX,XX,XX,No,No,No,No,No,Internal location.,Outside,0,34.1285688,-118.526506,0,,LOS ANGELES,Los Angeles
428,70,Nike Missile Overlook,Westridge-Canyonback Wilderness Park,Dirt Mulholland Dr ^ W Mandeville Fire Rd,MB/EE,6/27/2000,mb10/31/00,MRCA,OP,OP,OP,OP,MU,MU,MU,,,Secondary,Secondary,,Yes,Yes,Yes,3,0,0,2,parking lot,gravel,Yes,flush,No,No,No,Yes,Yes,Yes,Yes,XX,Official,Yes,No,No,No,trash & recycle bins;  beverage machines;  overlook w/ telescope,Outside,2,34.12904772,-118.5133829,0,Y,LOS ANGELES,Los Angeles
429,69,"Wagon Rd, outside of NRA",,Wagon Road neighborhood,MB,,mb01/01/04,,UP,UP,UP,UP,UN,HE,,,,Unauthorized,Unauthorized,,Yes,No,No,0,0,0,0,NA,NA,No,NA,No,No,No,No,XX,XX,XX,XX,No,No,No,No,No,"In-hse review, but this is definitely a neighborhood entrance.  close or require SUP?",Outside,0,34.12597807,-118.7536555,0,,LOS ANGELES,Unincorp LA
430,68,De Anza Park,De Anza Park,Las Virgenes ^ Lost Hills,MB,,mb12/17/02,Calabasas,OP,OP,OP,OP,MU,MU,MU,,,Secondary,Secondary,,Yes,Yes,Yes,40,0,0,2,parking lot,paved,Yes,flush,No,No,No,Yes,Yes,Yes,XX,XX,No,Yes,No,No,No,Combined JZ/JK info from 219.,Outside,1,34.12672716,-118.7076136,0,Y,LOS ANGELES,Calabasas
431,0,Paramount North - Old Oak Rd,,Paramount North - Old Oak Rd,MB,,mb01/01/04,NPS,UP,UP,UP,UP,UN,HE,UN,,,Unauthorized,Unauthorized,Yes,Yes,No,No,0,0,0,0,NA,NA,No,NA,No,No,No,No,XX,XX,XX,XX,No,No,No,No,No,Access used by gated community.  Should require SUP or close access?,out,0,34.12621663,-118.7521565,0,,LOS ANGELES,Unincorp LA
432,69,Paramount North,,Paramount North,MB,,mb12/31/03 mb12/17/02,NPS,UP,UP,UP,UP,UN,HE,UN,,,Unauthorized,Unauthorized,,Yes,No,Yes,1,0,0,0,pullout,dirt,No,NA,No,No,No,No,XX,XX,XX,XX,No,No,No,No,No,"In-hse review.  Mostly neighbors entering, but general public could park & enter.",Outside,0,34.12631099,-118.751327,0,,LOS ANGELES,Unincorp LA
433,70,Dirt Mulholland ^ Farmer Ridge Fire Rd,Topanga State Park,Dirt Mulholland ^ Farmer Ridge Fire Rd,MB/EE,6/27/2000,mb10/31/00,CDPR,DL,DL,DL,DL,,,,,,NA,NA,,Yes,No,Yes,10,0,0,0,pullout,dirt,No,NA,No,No,No,No,No,XX,XX,XX,No,No,No,No,XX,Internal location.,out,0,34.12945392,-118.5306693,0,,LOS ANGELES,Los Angeles
434,76,Tan Pan Trail,,Dorothy Rd / Tan Pan Terrace,Jessica/Jill,3/19/2003,mb01/02/04 entered by NK 09/03/0,,UX,UX,UX,UX,,,,,,NA,NA,,No,No,No,0,0,0,0,NA,NA,No,NA,No,No,No,No,XX,XX,XX,XX,No,No,No,No,No,Private access,Outside,0,34.12857435,-118.6355864,0,,LOS ANGELES,Calabasas
435,69,Kanan Rd adjacent ^ Paramount NW corner,,Kanan Rd adjacent ^ Paramount NW corner,MB,,mb12/30/03,,UP,UP,UP,UP,UN,EQ,UN,,,Unauthorized,Unauthorized,Yes,Yes,No,No,0,0,0,0,NA,NA,No,NA,No,No,No,No,XX,XX,XX,XX,No,No,No,No,No,"12/30/03 - In-house review.  Park entrance point is where illegally built trail intersects NPS boundary in NW wing of Paramount Ranch.  Used primarily by equestrians, likely coming from Triunfo Cyn ranches.",Outside,0,34.12677192,-118.7681777,0,,LOS ANGELES,Unincorp LA
436,75,Adamsville Ave South,,Adamsville Avenue Terminus,MB - in office,5/28/2001,mb01/02/04 mb05/28/01,private,UX,UX,UX,UX,,MU,,,,NA,NA,,Yes,No,Yes,1,0,0,0,pullout,dirt,No,NA,No,No,No,No,XX,XX,XX,XX,No,No,No,No,No,"Moved pt along road farther to south.  Probably will always be UX, although parking may become off-limits if developed.",Outside,0,34.12914204,-118.6149371,0,,LOS ANGELES,Calabasas
437,74,Summit Valley Ed Edelman Park,Summit Valley Ed Edelman Park,Topanga Canyon Boulevard,,,mb01/02/04,MRCA,DL,DL,DL,DL,,,,,,NA,NA,,No,No,No,0,0,0,0,NA,NA,No,NA,No,No,No,No,XX,XX,XX,XX,No,No,No,No,No,,Outside,0,34.12936527,-118.5995006,0,,LOS ANGELES,Unincorp LA
438,68,Malibu Creek State Pk/Liberty Cyn,Malibu Creek State Park,Liberty Canyon Rd ^ Liberty Cyn Fire Rd,MB,,mb12/17/02,CDPR,OP,OP,OP,OP,MU,,,,,Tertiary,Tertiary,Yes,Yes,Yes,Yes,888,0,777,0,on-street,paved,No,NA,No,No,No,No,No,No,No,No,No,No,No,No,No,"In-house review.  DPR allows unofficial access? MB 07/10/07 - Agoura Hills staff checked, and it is okay to categorize TH as OP, although entrance is tertiary neighborhood entrance.  Changed status from UP to OP.",Outside,1,34.12770573,-118.7239441,0,N,LOS ANGELES,Agoura Hills
439,68,Juan Bautista de Anza Park,Malibu Creek SP,"Lost Hills Road, Juan Bautista de Anza Park",Jessica/Jill,3/4/2003,mb01/01/04 entered by NK 09/03/0,City of Calabasas,DL,DL,DL,DL,,,,,,NA,NA,,Yes,No,Yes,40,0,0,2,parking lot,paved,Yes,XX,No,No,No,Yes,Yes,XX,XX,XX,No,Yes,No,No,No,"Chumash info sign.  ""Unsupervised trail"" but formal trailhead.  mb --??-- re-ck in field.  must be same facilities as 217",Outside,0,34.12797552,-118.708216,0,,LOS ANGELES,Calabasas
440,76,Calabasas Highlands Entrance,,Terminus Fern Trail (a road),Jessica/Jill,3/19/2003,mb01/01/04 entered by NK 09/03/0,,UP,UP,UP,UP,,,,,,Unauthorized,Unauthorized,,No,No,No,0,0,0,0,NA,NA,No,NA,No,No,No,No,XX,XX,XX,XX,No,No,No,No,No,Calabasas Highlands neighborhood entrance to Calabasas Motorway.  City of Cal would like to make an official trailhead on Mulholland.,Outside,0,34.12904943,-118.6481044,0,,LOS ANGELES,Unincorp LA
441,119,Deep Canyon Overlook,Mulholland Scenic Parkway,13801 Mulholland Drive,,,,MRCA,OP,OP,OP,OP,NA,,,,,Overlook Only,Overlook Only,,No,No,Yes,888,0,0,0,pullout,paved,No,NA,No,Yes,No,No,No,No,No,No,Official,No,No,No,No,10/14/09 MB - Info from Bing maps.,out,0,34.13174569,-118.4334241,0,,LOS ANGELES,Los Angeles
442,95,Stone Canyon Overlook,Mulholland Scenic Parkway,13931 Mulholland Drive,,,,MRCA,OP,OP,OP,OP,DA,,,,,Overlook Only,Overlook Only,,Yes,No,Yes,8,0,0,1,parking lot,paved,No,NA,No,No,Yes,No,No,Maybe,Maybe,No,Official,No,No,No,No,10/14/09 MB - Added Overlook and assessed facil's using Bing Maps.  Short ADA trail.,Outside,0,34.13164145,-118.4491542,0,,LOS ANGELES,Los Angeles
443,71,Top of Reseda,Marvin Braude Mulholland Gateway Park,Dirt Mulholland Dr ^ Reseda Blvd,MB/EE,6/27/2000,mb10/31/00,MRCA,OP,OP,OP,OP,MU,MU,MU,,,Secondary,Secondary,,Yes,Yes,Yes,20,0,0,0,on-street,paved,Yes,portable,No,Yes,No,Yes,No,Yes,Proposed,Proposed,No,Yes,No,No,No,,Outside,2,34.13056297,-118.5529499,0,Y,LOS ANGELES,Los Angeles
444,81,The Groves Overlook,Mulholland Scenic Parkway,16501 Mulholland Drive,,,,MRCA,OP,OP,OP,OP,NA,,,,,Overlook Only,Overlook Only,,No,No,No,888,0,0,888,pullout,dirt,No,NA,No,No,No,No,No,Maybe,No,No,Official,No,No,No,No,10/14/09 MB Added point from LAMountains.com and used Bing Maps for facilities.  Needs field check.,Outside,0,34.13148022,-118.4911633,0,,LOS ANGELES,Los Angeles
445,70,Topanga SP -- Mulholland Dr/Fire Rd 28,Mulholland Gateway,Mulholland Highway,MB/EE,6/27/2000,mb10/31/00,CDPR,DL,DL,DL,DL,,,,,,NA,NA,,No,No,No,0,0,0,0,NA,NA,No,NA,No,No,No,No,XX,XX,XX,XX,No,No,No,No,No,,Outside,0,34.13100757,-118.5328261,0,,LOS ANGELES,Los Angeles
446,68,Lost Hills Rd & Calabasas Hill,,Lost Hills Road,MB,,mb12/17/02,,DL,DL,DL,DL,,,,,,NA,NA,,No,No,No,0,0,0,0,NA,NA,No,NA,No,No,No,No,XX,XX,XX,XX,No,No,No,No,No,In-house review,Outside,0,34.12869998,-118.708481,0,,LOS ANGELES,Calabasas
447,70,Johnson Overlook,Mulholland Scenic Parkway,14801 Mulholland Drive,,,,Other - City of LA,OP,OP,OP,OP,NA,,,,,Overlook Only,Overlook Only,,No,No,Yes,888,0,0,0,pullout,dirt,No,NA,No,No,No,No,No,No,No,No,Official,No,No,No,No,10/14/09 MB Added point and facilities using Bing Maps.,Outside,0,34.1321887,-118.457303,0,,LOS ANGELES,Los Angeles
448,56,Lake Sherwood/Carlisle Rd,,Carlisle Road,Jessica/Jill,4/7/2003,entered by NK  09/10/03,,DL,DL,DL,DL,,,,,,NA,NA,,No,No,No,0,0,0,0,NA,NA,No,NA,No,No,No,No,XX,XX,XX,XX,No,No,No,No,No,,Outside,0,34.12668826,-118.8692266,0,,VENTURA,Unincorp Ventura
449,68,Calabasas Hills Rd & Lost Springs,,Calabasas Hills Road,MB,,mb12/17/02,City of Calabasas,UP,EC,EC,EC,,,,,,Unauthorized,NA,,Yes,No,No,0,0,0,0,NA,NA,No,NA,No,No,No,No,XX,XX,XX,XX,No,No,No,No,No,In-house review.  DPR should work w/City to close park entrance.,Outside,0,34.12908255,-118.7091773,0,,LOS ANGELES,Calabasas
450,120,Wilacre Park Main Entrance,Wilacre Park,Wilacre Park ^ Laurel Cyn Bl,EE/JW,6/29/2000,mb01/02/04 mb10/31/00,MRCA,OP,OP,OP,OP,HB,HB,,,,Secondary,Secondary,,Yes,Yes,Yes,70,0,0,1,parking lot,paved,Yes,portable,No,No,No,Yes,No,Yes,Yes,Yes,No,No,No,No,No,"Ranger residence - Kevin Perrine  10/14/09 MB  Visited site 10/9/09.  Facilities are updated.  No muttmitt dispenser, just bags made available in wooden box.  water is a drinking fountain.",out,2,34.1332342,-118.3918209,0,Y,LOS ANGELES,Los Angeles
451,68,Abrams Trailhead,Abrams Property,Agoura Rd,MB,,mb,MRCA,OP,OP,OP,OP,MU,,,,,NA,NA,,No,No,No,0,0,0,0,NA,NA,No,NA,No,No,No,No,XX,XX,XX,XX,No,No,No,No,No,mb notes Luis to field check and correctly populate this record. 12/22/2011,Outside,0,34.13702052,-118.7288714,0,,LOS ANGELES,Calabasas
452,119,Barbara Asa Dorain Trail,Dixie Canyon,Dixie Cyn Pl ^ Barbara Asa Dorain Trail,EE,6/29/2000,mb10/31/00,MRCA,OP,OP,OP,OP,HO,,,,,Tertiary,Tertiary,,Yes,Yes,Yes,6,0,0,0,on-street,paved,No,NA,No,No,No,No,No,Yes,XX,XX,No,No,No,No,XX,stairs at end of st. lead to trail; SMMC reg and trail name signs; trail follows creek; trash bin,out,0,34.13464302,-118.4232642,0,Y,LOS ANGELES,Los Angeles
453,74,Viewridge Trailhead,Summit Valley Edmund D Edelman Park,Viewridge Rd Terminus,Jessica/Jill,3/19/2003,mb12/07/03 entered by NK 09/03/0,MRCA,OP,OP,OP,OP,HE,HE,HE,,,Tertiary,Tertiary,,Yes,Yes,Yes,10,0,0,0,on-street,paved,No,NA,No,Yes,No,No,XX,XX,XX,XX,No,No,No,No,No,Parks partnership property,Outside,2,34.13285214,-118.5912458,0,Y,LOS ANGELES,Unincorp LA
454,119,South end of Newcomb Dr,Dixie Cyn,Newcomb Dr ^ Dixie Cyn Pl,EE,6/29/2000,mb01/02/04 mb10/31/00,private,UP,UP,UP,UP,,,,,,Unauthorized,Unauthorized,,No,No,Yes,2,0,0,0,on-street,paved,No,NA,No,No,No,No,No,XX,XX,XX,No,No,No,No,XX,street sign was lying on ground near beginning of unpaved section; Newcomb Dr from the North dead ends,out,0,34.13499512,-118.4233667,0,,LOS ANGELES,Los Angeles
455,75,"Adamsville Ave North, private park",,Adamsville Avenue,Jessica/Jill,3/19/2003,mb12/07/03 entered by NK 09/03/0,OTH-PRIVATE,UX,UX,UX,UX,,,,,,NA,NA,,No,No,No,0,0,0,0,NA,NA,No,NA,No,No,No,No,XX,Yes,XX,XX,No,Yes,No,No,No,"mb edits - appears to be social trail leading toward Summit-to-Summit.  May eventually be UP that may require closure or SUP, if Wagon Wheel Ranch area is acquired.",Outside,0,34.13331241,-118.6194724,0,,LOS ANGELES,Calabasas
456,72,Dirt Mulholland near helipad,Mulholland Gateway Park,Dirt Mulholland Dr - east/north side,MB/EE,6/27/2000,mb10/31/00,SMMC,DL,DL,DL,DL,,,,,,NA,NA,,Yes,Yes,Yes,888,888,888,888,on-street,dirt,No,NA,No,No,No,No,No,XX,XX,XX,No,No,No,No,No,SMMC regulatory signage.  Still inward away from any parking or walk-in point.,Outside,0,34.1342612,-118.565253,0,,LOS ANGELES,Los Angeles
457,72,Vanalden Ave S terminus,Marvin Braude Mulholland Gateway Park,Vanalden Ave,EE,6/29/2000,mb10/31/00,MRCA,OP,OP,OP,OP,MU,MU,MU,,,Tertiary,Tertiary,Yes,Y,Y,Yes,20,0,0,0,on-street,paved,No,NA,No,No,No,No,No,XX,XX,XX,No,No,No,No,No,"SMMC regulatory signage, no parking 9pm to 6 am, park closed sunset to sunrise.  10/7/09 MB MRCA Ranger Jewel Johnson says this TH has problems with partying.",Outside,0,34.13457642,-118.563061,0,Y,LOS ANGELES,Los Angeles
458,120,end of Shady Oak Rd,Wilacre Park,Shady Oak Rd ^ fire turnout,EE/JW,6/29/2000,mb10/31/00,SMMC,OP,OP,OP,OP,HO,,,,,Tertiary,Tertiary,,Yes,Yes,Yes,888,888,0,888,on-street,paved,No,NA,No,No,No,No,No,XX,XX,XX,No,No,No,No,XX,"SMMC reg. Sign, no parking posted/ don't block fire turnout, park in surrounding neighborhood where legal.",out,0,34.1365482,-118.3999939,0,Y,LOS ANGELES,Los Angeles
459,119,North end of dirt Dixie Cyn Ave,NA,Dixie Cyn Ave,EE,6/29/2000,mb10/31/00,private,UX,UX,UX,UX,,,,,,NA,NA,,Maybe,No,No,0,0,0,0,NA,NA,No,NA,No,No,No,No,No,XX,XX,XX,No,No,No,No,XX,dirt Dixie Cyn Ave is gated and was closed; probably used much by neighbors,out,0,34.13633758,-118.4254774,0,,LOS ANGELES,Los Angeles
460,57,Pentachaeta Trail Trailhead,MRCA property,S end of Lindero Canyon Rd.,MB,,mb01/01/04 mb12/11/03,MRCA,OP,OP,OP,OP,MU,MU,MU,,,Tertiary,Secondary,,Yes,Yes,Yes,5,999,99,999,on-street,paved,Proposed,flush,No,Yes,Yes,No,No,Yes,Proposed,XX,No,No,No,No,No,"In-house review.  Moved a DL point to add this TH to database.  TMP Team:  Develop as a more primary trailhead if missing link connections over to Paramount/Zuma, etc., are accomplished.",out,1,34.13116006,-118.8214361,0,Y,LOS ANGELES,Westlake Village
461,119,end of Alomar Dr,Longridge Cyn,,EE,6/29/2000,mb10/31/00,MRCA,UP,UP,UP,UP,,,,,,Unauthorized,Unauthorized,,Maybe,No,Yes,888,888,888,888,on-street,paved,No,NA,No,No,No,No,No,XX,XX,XX,No,No,No,No,XX,"SMMC reg sign, MRCA ID sign further down-not at end of street;  trail looks slightly overgrown, probably used just by neighbors; no pkg anytime at end where signage is.",out,0,34.13678635,-118.4208578,0,,LOS ANGELES,Los Angeles
462,75,Calabasas/Cairnloch Street,,Cairnloch Street,MB - in office,5/28/2001,mb05/28/01,private,DL,DL,DL,DL,,,,,,NA,NA,,No,No,No,0,0,0,0,NA,NA,No,NA,No,No,No,No,XX,XX,XX,XX,No,No,No,No,No,within devt.,Outside,0,34.13439737,-118.6149752,0,,LOS ANGELES,Calabasas
463,72,Dirt Mulholland ^ paved helipad,Mulholland Gateway,west/south side of dirt Mulholland at helipad,MB/EE,6/27/2000,mb10/31/00,SMMC,DL,DL,DL,DL,,,,,,NA,NA,,Y,Y,Yes,888,888,888,888,on-street,dirt,No,NA,No,No,No,No,No,XX,XX,XX,No,No,No,No,XX,SMMC regulatory sign (Doesn't make sense for isolated location away from any parking area.),out,0,34.13538997,-118.5655641,0,,LOS ANGELES,Los Angeles
464,74,Topanga Cyn Bl/Henry Ridge Mtw,Summit Valley Edmund D. Edelman Park,Topanga Canyon Boulevard,MB,,mb01/02/04,MRCA,OP,OP,OP,OP,HE,HE,HE,,,Tertiary,Tertiary,,No,No,No,0,0,0,0,NA,NA,No,NA,No,No,No,No,XX,XX,XX,XX,No,No,No,No,No,In-hse review.  Serves mainly as crossing point over Topanga Cyn Bl.  Probably should require striping of road & crossing warning signs.,Outside,0,34.13514206,-118.5990103,0,Y,LOS ANGELES,Unincorp LA
465,75,"Ganelon Dr, community access point",,Ganelon Drive,Jessica/Jill,3/19/2003,mb12/07/03 entered by NK 09/03/0,OTH-PRIVATE,DL,DL,DL,DL,,,,,,NA,NA,,No,No,No,0,0,0,0,NA,NA,No,NA,No,No,No,No,XX,XX,XX,XX,No,No,No,No,No,mb edits.,Outside,0,34.13530055,-118.6196585,0,,LOS ANGELES,Calabasas
466,75,Summit to Summit Trail,,Le Mans ^ Summit to Summit Motorway,MB - in house,5/28/2001,mb05/28/01,private,UX,UX,UX,UX,,,,,,NA,NA,,Yes,No,Yes,2,0,0,0,on-street,paved,No,NA,No,No,No,No,XX,XX,XX,XX,No,No,No,No,No,"Not field-ckd, but familiar with site.  Provides public access into regional trail network, but probably won't be fitted with facilities or signage unless HOA installs them.",Outside,0,34.13556312,-118.6080342,0,,LOS ANGELES,Calabasas
467,68,Bark Park Trailhead,Las Virgenes View Park,Las Virgenes Municipal Water District,MB,,mb01/01/04,Calabasas,OP,OP,OP,OP,MU,,MU,,,Tertiary,Tertiary,,Yes,Yes,Yes,30,0,0,1,parking lot,paved,No,NA,No,No,No,Yes,No,Yes,No,Yes,No,No,No,No,No,MB 10/7/09 - Facilities confirmed by Jeff Rubin at Calabasas.  Only water is drinking fountain within actual Bark Park.,out,1,34.13431223,-118.7025189,0,Y,LOS ANGELES,Calabasas
468,74,Calabasas/Lighthill Dr,,Lighthill Drive terminus,Jessica/Jill,3/19/2003,mb12/07/03 entered by NK 09/03/0,OTH-PRIVATE,DL,DL,DL,DL,,,,,,NA,NA,,Maybe,No,No,0,0,0,0,NA,NA,No,NA,No,No,No,No,XX,XX,XX,XX,No,No,No,No,No,Behind gate of private community.  Couldn't drive to point.,Outside,0,34.13606264,-118.5927637,0,,LOS ANGELES,Unincorp LA
469,76,Headwaters Corner,MRT Headwaters Corner,Valmar Rd ^ Mulholland,MB,7/16/2007,mb07/16/07,MRT,OP,OP,OP,OP,HO,,,,,Tertiary,Secondary,,No,No,Yes,888,0,0,0,parking lot,gravel,No,NA,No,No,No,No,XX,XX,XX,XX,No,No,No,No,No,"New City of Calabasas Park as of 12/03.  Only accesses new trail w/in new park, but connections are planned to Summit-to-Summit.  Park facilities, when constructed, will increase TH rank to secondary.",Outside,1,34.13621954,-118.6312349,0,N,LOS ANGELES,Calabasas
470,75,Wild Walnut Park,Wild Walnut Park,Mulholland ^ Old Topanga Cyn Rd,MB,7/16/2007,mb07/16/07,Calabasas,OP,OP,OP,OP,HO,,,,,Tertiary,Tertiary,,Maybe,No,Yes,888,0,0,0,pullout,dirt,No,NA,No,No,No,No,XX,XX,XX,XX,No,No,No,No,No,48 & 208 & 209 are on land currently for sale for development,out,0,34.13644662,-118.6303537,0,Y,LOS ANGELES,Calabasas
471,75,Calipatria Dr,,Calipatria Drive,MB - in office,5/28/2001,mb05/28/01,private,DL,DL,DL,DL,,,,,,NA,NA,,No,No,No,0,0,0,0,NA,NA,No,NA,No,No,No,No,XX,XX,XX,XX,No,No,No,No,No,,Outside,0,34.13674005,-118.6147731,0,,LOS ANGELES,Calabasas
472,72,Dirt Mulholland ^ Greenbriar Dr,Marvin Braude Mulholland Gateway Park,Mulholland Dr ^ Greenbriar Dr,MB/EE,6/27/2000,mb10/31/00,LA City,OP,OP,OP,OP,MU,MU,MU,,,Tertiary,Tertiary,,No,Yes,Yes,888,0,0,0,on-street,paved,No,NA,No,No,No,No,XX,XX,XX,XX,No,No,No,No,No,only sign: dogs on leash icon;  no parking 6 pm - 6 am,Outside,0,34.13750698,-118.5656263,0,Y,LOS ANGELES,Los Angeles
473,72,Dirt Mulholland,Mulholland Gateway Park,Mulholland Dr,MB/EE,6/27/2000,mb10/31/00,SMMC,DL,DL,DL,DL,,,,,,NA,NA,,No,No,No,0,0,0,0,NA,NA,No,NA,No,No,No,No,XX,XX,XX,XX,No,No,No,No,No,,Outside,0,34.13753763,-118.5674861,0,,LOS ANGELES,Los Angeles
474,72,Dirt Mulholland,Mulholland Gateway Park,Mulholland Dr,MB/EE,6/27/2000,mb10/31/00,SMMC,DL,DL,DL,DL,,,,,,NA,NA,,Yes,No,Yes,888,888,888,888,on-street,dirt,No,NA,No,No,No,No,No,XX,XX,XX,No,No,No,No,No,,Outside,0,34.13798341,-118.568062,0,,LOS ANGELES,Los Angeles
475,75,Calabasas/Mulholland Hwy,,Mulholland Highway across from Calabasas H.S.,Jessica,3/19/2003,mb12/07/03 entered by NK 09/03/0,,UX,UX,UX,UX,,,,,,NA,NA,,Maybe,No,No,0,0,0,0,NA,NA,No,NA,No,No,No,No,XX,XX,XX,XX,No,No,No,No,No,48 & 208 & 209 are on land currently for sale for development.  mb:  probably will remain UX if Wild Walnut Park is used to access regional trail network.,Outside,0,34.1374573,-118.6272126,0,,LOS ANGELES,Calabasas
476,75,Calabasas/Mulholland Hwy,,Mulholland Highway across from Calabasas H.S.,Jessica,3/19/2003,mb12/07/03 entered by NK 09/03/0,,UX,UX,UX,UX,,,,,,NA,NA,,Maybe,No,No,0,0,0,0,NA,NA,No,NA,No,No,No,No,XX,XX,XX,XX,No,No,No,No,No,48 & 208 & 209 are on land currently for sale for development,Outside,0,34.13748613,-118.6252055,0,,LOS ANGELES,Calabasas
477,75,Jameson Dr,,Jameson Dr west of Eddingham Avenue,Jessica/Jill,3/19/2003,mb12/07/03 entered by NK 09/03/0,OTH-PRIVATE,DL,DL,DL,DL,,,,,,NA,NA,,Maybe,No,No,0,0,0,0,NA,NA,No,NA,No,No,No,No,XX,XX,XX,XX,No,No,No,No,No,"Private access, fenced in completely  mb edits.",Outside,0,34.13793822,-118.6219594,0,,LOS ANGELES,Calabasas
478,72,Mulholland Gateway Park/Dirt Mulholland,Mulholland Gateway Park,Mulholland Highway,MB/EE,6/27/2000,mb10/31/00,MRCA,DL,DL,DL,DL,,,,,,NA,NA,,No,No,No,0,0,0,0,NA,NA,No,NA,No,No,No,No,XX,XX,XX,XX,No,No,No,No,No,"overgrown, may have been old entrance",Outside,0,34.13873149,-118.5737297,0,,LOS ANGELES,Los Angeles
479,72,Dirt Mulholland,Mulholland Gateway Park,Mulholland Dr,MB/EE,6/27/2000,mb10/31/00,SMMC,DL,DL,DL,DL,,,,,,NA,NA,,Yes,No,No,0,0,0,0,NA,NA,No,NA,No,No,No,No,XX,XX,XX,XX,No,No,No,No,No,Really Overgrown!,Outside,0,34.13891784,-118.5720295,0,,LOS ANGELES,Los Angeles
480,75,"Dardenne St & Dunmore Dr, private access",,Dardenne St & Dunmore Dr,Jessica/Jill,3/19/2003,mb12/07/03 entered by NK 09/03/0,OTH-PRIVATE,UX,UX,UX,UX,,,,,,NA,NA,,Maybe,No,No,0,0,0,0,NA,NA,No,NA,No,No,No,No,XX,XX,XX,XX,No,No,No,No,No,,Outside,0,34.1386846,-118.6143665,0,,LOS ANGELES,Calabasas
481,74,Topanga Cyn Rd/Summit-to-Summi,,Topanga Canyon ^ Summit to Summit,,,mb01/02/04,,UP,UP,UP,UP,,,,,,Unauthorized,Unauthorized,,No,No,No,0,0,0,0,NA,NA,No,NA,No,No,No,No,XX,XX,XX,XX,No,No,No,No,No,"Need to field ck to see if people are parking on this side of street, or if they use overlook pkg ax street.",Outside,0,34.1391903,-118.6017101,0,,LOS ANGELES,Unincorp LA
482,74,Top o' Topanga Overlook,Top o' Topanga Overlook,Topanga Canyon Summit,MB,,mb01/02/04,MRCA,OP,OP,OP,OP,NA,NA,,,,Tertiary,Tertiary,,Maybe,No,Yes,6,0,0,1,parking lot,paved,No,NA,No,No,No,No,XX,XX,XX,XX,Official,No,No,No,No,"In-hse review.  Need to ck facilities inventory - # of pkg spots, access to trails ax street.  Think there are restrooms.",Outside,4,34.13961819,-118.6009984,0,N,LOS ANGELES,Unincorp LA
483,75,Dunmore Dr.,,Dunmore Dr.,Jessica,3/19/2003,mb12/07/03 entered by NK 09/03/0,OTH-PRIVATE,UX,UX,UX,UX,,,,,,NA,NA,,Maybe,No,No,0,0,0,0,NA,NA,No,NA,No,No,No,No,XX,XX,XX,XX,No,No,No,No,No,,Outside,0,34.13958421,-118.6132509,0,,LOS ANGELES,Calabasas
484,84,Parkway Calabasas,unnamed,Parkway Calabasas,Ralf Melanie 2007,5/20/2003,entered by NK 09/03/03,private,OP,OP,OP,OP,MU,,,,,Tertiary,Tertiary,,Yes,,No,0,0,0,0,NA,NA,No,NA,No,No,No,No,XX,XX,XX,XX,No,No,No,No,No,,Outside,3,34.13931488,-118.6702722,0,Y,LOS ANGELES,Calabasas
485,72,Dirt Mulholland Dr,Mulholland Gateway,Dirt Mulholland Dr,MB/EE,6/21/2000,mb10/31/00,MRCA,DL,DL,DL,DL,,,,,,NA,NA,,Yes,No,Yes,5,0,0,0,pullout,dirt,No,NA,No,No,No,No,No,XX,XX,XX,Potential,No,No,No,No,,Outside,0,34.14068902,-118.5763089,0,,LOS ANGELES,Los Angeles
486,75,"Delia Ct, private access",,Delta Court,Jessica/Jill,3/19/2003,entered by NK 09/03/03,OTH-PRIVATE,DL,DL,DL,DL,,,,,,NA,NA,,No,No,No,0,0,0,0,NA,NA,No,NA,No,No,No,No,XX,XX,XX,XX,No,No,No,No,No,,Outside,0,34.14055896,-118.6147716,0,,LOS ANGELES,Calabasas
487,75,Topanga Cyn Blvd,,Topanga Canyon Boulevard,MB - in office,5/28/2001,mb05/28/01,private,UX,UX,UX,UX,,,,,,NA,NA,,No,No,No,0,0,0,0,NA,NA,No,NA,No,No,No,No,XX,XX,XX,XX,No,No,No,No,No,"Never have seen anyone park along Topanga Cyn Bl. Here, although a trail is visible on DOQ.  Probably used only for emergency access.  Have seen mtn bikers come out at this point, though.",Outside,0,34.14127433,-118.6077108,0,,LOS ANGELES,Unincorp LA
488,70,Caballero Cyn Trailhead,Marvin Braude Mulholland Gateway Park,Reseda Blvd ^ Fire Road 28,MB/EE,6/27/2000,mb10/31/00,MRCA,OP,OP,OP,OP,MU,MU,MU,,,Secondary,Secondary,,Yes,Yes,Yes,888,0,0,0,on-street,paved,No,NA,No,No,No,No,No,No,No,No,No,No,No,No,No,Major mtn bike entrance.  10/07/09 MB - Changed Rank from III to II based on heavy use.  Similar to Wendy TH.,Outside,2,34.1425912,-118.540873,0,Y,LOS ANGELES,Los Angeles
489,73,Dirt Mulholland Dr ^ Topanga Henry Ridge Trail,Mulholand Gateway,Dirt Mulholland Dr,MB/EE,6/21/2000,mb01/02/04 mb10/31/00,SMMC,DL,DL,DL,DL,,,,,,NA,NA,,Yes,No,Yes,2,0,0,0,pullout,dirt,No,NA,No,No,No,No,XX,XX,XX,XX,No,No,No,No,No,mb:  Topanga Henry Ridge Tr is on LACMTP,Out,0,34.14261401,-118.5850836,0,,LOS ANGELES,Los Angeles
490,73,Western Gate to Dirt Mulholland,Mulholland Gateway Park,21000 Mulholland Highway,MB,6/21/2000,mb12/11/03,MRCA,PP,PP,PP,PP,,,,,,NA,Primary,,Yes,No,Proposed,0,999,99,999,parking lot,paved,Yes,composting,No,Proposed,Proposed,No,No,Proposed,Proposed,XX,No,Yes,No,No,No,"MRCA's proposed trailhead on 21000 Mulholland acquisition.  Trailhead might not be that popular with hikers, because they would have to walk so far to cover a decent loop opportunity in TSP.",Outside,0,34.14279402,-118.5926939,0,,LOS ANGELES,Los Angeles
491,73,Dirt Mulholland Dr ^ Cachalote St,Mulholland Gateway,Mulholland ^ Saltillo St,MB/EE,6/21/2000,mb01/02/04 mb10/31/00,OTH-PRIVATE,DL,DL,DL,DL,,,,,,NA,NA,,Yes,No,Yes,888,888,888,888,on-street,dirt,No,NA,No,No,No,No,XX,XX,XX,XX,No,No,No,No,No,,Out,0,34.14372728,-118.593821,0,,LOS ANGELES,Los Angeles
492,75,Topanga Mobile Home Park,,Topanga Mobile Home Park,MB,5/28/2001,mb01/02/04 mb05/28/01,private,DL,DL,DL,DL,,,,,,NA,NA,,Maybe,No,No,0,0,0,0,NA,NA,No,NA,No,No,No,No,XX,XX,XX,XX,No,No,No,No,No,"Not field-ckd, but aerials don't show decent connection to anything.",Outside,0,34.14387174,-118.6110818,0,,LOS ANGELES,Calabasas
493,72,Natoma Ave Terminus,Mulholland Gateway,Natoma Ave Terminus,MB/EE,6/21/2000,mb01/02/04 mb10/31/00,MRCA,UP,UP,UP,UP,,,,,,Unauthorized,Unauthorized,,Yes,No,Maybe,0,0,0,0,,,No,NA,No,No,No,No,XX,XX,XX,XX,No,No,No,No,No,mb01/02/04 - In-hse review after decided original field survey was not correct.  Need to field ck again.,Outside,0,34.14714593,-118.5800905,0,,LOS ANGELES,Los Angeles
494,110,White Horse Canyon Trail / Los Robles Trail,COSCA Open Space,East Potrero Road,Jessica/Jill,3/3/2003,entered by NK  09/10/03,COSCA,OP,OP,OP,OP,MU,MU,,,,Tertiary,Tertiary,,Yes,Yes,No,0,0,0,0,NA,NA,No,NA,No,Yes,No,No,XX,XX,XX,XX,No,No,No,No,No,Sign designates no parking.  Locked gate.  Appears to be mostly equestrian access.  Trail passes through creek bed.,out,3,34.14343062,-118.8588318,0,Y,VENTURA,Thousand Oaks
495,82,Juan Bautista de Anza Trailhead West,Las Virgenes View Park,LasVirgenes Rd at 101 behind Mobil Station,,,,MRCA/MRT,OP,OP,OP,OP,MU,,,,,Tertiary,Tertiary,,Yes,Yes,Yes,0,0,0,0,parking lot,dirt,No,NA,No,No,No,No,XX,XX,XX,XX,No,No,No,No,No,development road,Outside,1,34.14640835,-118.696856,0,Y,LOS ANGELES,Calabasas
496,72,Winnetka Ave terminus S,Mulholland Gateway,Winnetka Ave terminus S,MB/EE,6/27/2000,mb10/31/00,SMMC,UP,UP,UP,UP,,,,,,Unauthorized,Unauthorized,,No,No,No,0,0,0,0,NA,NA,No,NA,No,No,No,No,No,XX,XX,XX,No,No,No,No,XX,Needs to be field ck'd again.,out,0,34.14978539,-118.5716702,0,,LOS ANGELES,Los Angeles
497,0,Staber Road Admin Access,,Staber Rd ^ Hidden Valley Rd,Melanie,8/26/2007,updated by MB 08/26/07,,AD,AD,AD,AD,NA,NA,NA,,,NA,NA,,No,No,No,0,0,0,0,NA,NA,No,NA,No,No,No,No,No,No,No,No,No,No,No,No,No,NPS Admin Access Only,Outside,0,34.14494712,-118.930114,0,,VENTURA,Unincorp Ventura
498,73,Puente Rd ^ Consuelo Rd,Serrania Avenue,Puente Rd ^ Consuelo Rd,MB/EE,6/21/2000,mb10/31/00,Private,UP,UP,UP,UP,,,,,,Unauthorized,Unauthorized,,Yes,No,Yes,1,0,0,0,on-street,XX,No,NA,No,No,No,No,No,XX,XX,XX,No,No,No,No,No,definite neighborhood entrance,Outside,0,34.15079897,-118.5882735,0,,LOS ANGELES,Los Angeles
499,68,Juan Bautista de Anza Trailhead East,Las Virgenes View Park,West end of Calabasas Road,MB,,mb07/07/07,MRCA/MRT,OP,OP,OP,OP,MU,,MU,,,Tertiary,Tertiary,,Yes,Yes,Yes,0,0,0,0,on-street,paved,No,NA,No,No,Yes,No,XX,XX,XX,XX,No,No,No,No,No,Check w/MRT about facilities,Outside,1,34.14984611,-118.6765325,0,Y,LOS ANGELES,Calabasas
500,73,Serrania Park/Westchester Dr.,Serrania Avenue Park,Serrania Park/Westchester Dr.,MB - in office,5/27/2001,mb05/27/01,private,UP,UP,UP,UP,,,,,,Unauthorized,Unauthorized,,Yes,Mayb,No,0,0,0,0,NA,NA,No,NA,No,No,No,No,XX,XX,XX,XX,No,No,No,No,No,Looks like neighborhood entrance.  NOTE:  Not field-checked.,Outside,0,34.15125129,-118.5853704,0,,LOS ANGELES,Los Angeles
501,114,Morrison Ranch,Cheeseboro/Palo Comado Canyons,Chesebro Road,MB,,mb01/01/04,NPS,OP,OP,OP,OP,UN,HE,HE,,,Tertiary,Tertiary,Yes,No,Yes,No,0,0,0,0,NA,NA,No,NA,No,No,No,No,XX,XX,XX,XX,No,No,No,No,No,"If becomes official, no facilities besides signage would be constructed.",Outside,3,34.14964737,-118.7353138,0,Y,LOS ANGELES,Unincorp LA
502,73,Bandera St,Serrania Avenue,end of Bandera St,MB/EE,6/21/2000,mb10/31/00,Private,UP,UP,UP,UP,,,,,,Unauthorized,Unauthorized,,Yes,No,No,0,0,0,0,NA,NA,No,NA,No,No,No,No,No,XX,XX,XX,No,No,No,No,No,definite neighborhood social entrance,Outside,0,34.1529075,-118.5882192,0,,LOS ANGELES,Los Angeles
503,73,Danza St,Serrania Avenue Park,end of Danza St,MB/EE,6/21/2000,mb10/31/00,Private,UP,UP,UP,UP,,,,,,Unauthorized,Unauthorized,,Yes,No,Yes,1,0,0,0,on-street,paved,No,NA,No,No,No,No,No,XX,XX,XX,No,No,No,No,No,probably used by locals only,Outside,0,34.15436346,-118.5882464,0,,LOS ANGELES,Los Angeles
504,73,Wells Dr ^ Serrania Ave Park,Serrania Avenue Park,Wells Dr ^ Serrania Ave Park,MB/EE,6/21/2000,mb10/31/00,LA City,OP,OP,OP,OP,HO,,,,,Secondary,Secondary,,Yes,No,Yes,60,0,0,2,parking lot,paved,Yes,flush,No,No,No,Yes,Yes,Yes,XX,Maybe,No,Yes,No,No,XX,"parking lot for city park; drink machines, playground; rattlesnake sign, LAMC dog reg. Sign.  MB:  people use part of this park as an unofficial off-leash dog park.",out,2,34.15712922,-118.5871801,0,Y,LOS ANGELES,Los Angeles
505,114,Cheeseboro Canyon Trailhead,Cheeseboro/Palo Comado Canyons,Chesebro Road,Jessica/Jill,3/4/2003,mb01/01/04 entered by NK 09/03/0,NPS,OP,OP,OP,OP,MU,MU,MU,,,Primary,Primary,,Yes,Yes,Yes,30,888,888,0,parking lot,gravel,Yes,composting,No,Yes,No,Proposed,No,Yes,Yes,Proposed,No,Yes,No,No,No,"Interp booth (trailer).  Parking lot needs grading.  Wheel stops need to be replaced.  Equestrian parking, but not delineated.",out,1,34.15608437,-118.7312304,0,Y,LOS ANGELES,Unincorp LA
506,106,RSV Main Entrance,RSV/Satwiwa and Point Mugu State Park,RSV Main Entrance,Jim Anderson,3/8/2001,mb12/31/03 11/17/99,NPS,OP,OP,OP,OP,MU,MU,MU,,,Primary,Primary,,Yes,Yes,Yes,80,0,0,2,parking lot,paved,Yes,flush,Yes,Yes,Yes,Yes,Yes,Yes,Yes,Proposed,XX,Yes,No,No,No,,Outside,2,34.15274529,-118.965926,0,Y,VENTURA,Unincorp Ventura
507,102,Los Robles Trail,Los Robles Trail,Brookview Avenue,Jessica/Jill,3/3/2003,mb12/31/03 entered by NK  09/10/,COSCA,UP,UP,UP,UP,UN,,UN,,,Tertiary,Tertiary,,Yes,No,No,0,0,0,0,NA,NA,No,NA,No,No,No,No,XX,XX,XX,XX,No,No,No,No,No,Conejo regulatory rules signage present at entrance. mb edits.,Outside,2,34.15461225,-118.8498415,0,,VENTURA,Thousand Oaks
508,115,Morrison Trailhead,Cheeseboro/Palo Comado Canyons,Las Virgenes ^ Morrison Utility Rd,Ralf/Melanie,,mb01/01/04 entered by NK 09/03/0,NPS,OP,OP,OP,OP,UN,NA,MU,,,Tertiary,Secondary,,Yes,Yes,Proposed,0,0,99,0,parking lot,paved,Proposed,composting,No,Proposed,No,No,No,Proposed,Proposed,No,No,No,No,No,No,"Proposed trailhead development.  Put restrooms either here or at Las Virgenes TH to north.  06/08/05 - TMP Team recommends this be ranked secondary owing to proposed presence of facilities, and moderate use.",Outside,3,34.15787904,-118.7011963,0,Y,LOS ANGELES,Unincorp LA
509,105,Wendy Trailhead,RSV/Satwiwa,Potrero ^ S.Wendy,Jim Anderson,3/15/2001,mb12/31/03 11/17/99,NPS,OP,OP,OP,OP,MU,MU,MU,,,Secondary,Secondary,,Yes,Yes,Yes,30,0,0,0,pullout,dirt,No,NA,No,Yes,No,No,No,Yes,Yes,Yes,XX,No,No,No,No,,out,2,34.15435834,-118.9501765,0,Y,VENTURA,Unincorp Ventura
510,102,Los Robles Trail East Terminus,COSCA Open Space,Triunfo Community Park,Jessica/Jill,3/3/2003,mb12/31/03 entered by NK  09/10/,COSCA,OP,OP,OP,OP,MU,MU,MU,,,Secondary,Secondary,,Yes,Yes,Yes,42,0,0,0,parking lot,paved,Yes,flush,No,No,No,Yes,XX,Yes,XX,Yes,No,Yes,No,No,No,"Signage to designate ownership & entrance,  volleyball & other rec. surrounding parking, Triunfo Comm Park. mb edits",Outside,1,34.15617188,-118.8461179,0,Y,VENTURA,Thousand Oaks
511,105,Los Robles Trail West Terminus,COSCA Open Space,Los Robles Trail ^ Potrero Road,,,mb12/31/03 entered by NK  09/10/,COSCA,OP,OP,OP,OP,MU,MU,MU,,,Secondary,Secondary,,Yes,Yes,Yes,30,999,1,0,parking lot,dirt,No,NA,No,Yes,No,No,No,Yes,XX,XX,No,No,No,No,No,Gate was locked during the day. Possible parking for buses & horses,out,2,34.15551497,-118.941919,0,Y,VENTURA,Thousand Oaks
512,106,RSV Equestrian Parking Lot,RSV/Satwiwa,Lynn ^ Via Goleta,Jim Anderson,3/15/2001,mb12/31/03,NPS,OP,OP,OP,OP,HE,EQ,,,,Tertiary,Tertiary,,Yes,No,Yes,888,888,11,0,parking lot,paved,No,NA,No,No,No,No,No,Yes,XX,XX,No,No,No,No,No,Specified equestrian TH.  Has manure bin & shovel.,out,1,34.15519565,-118.9737258,0,Y,VENTURA,Unincorp Ventura
513,104,Potrero Rd,,Potrero Road,Jessica/Jill,3/3/2003,entered by NK  09/10/03,,DL,DL,DL,DL,,,,,,NA,NA,,No,No,No,0,0,0,0,NA,NA,No,NA,No,No,No,No,XX,XX,XX,XX,No,No,No,No,No,private,Outside,0,34.15643169,-118.9340987,0,,VENTURA,Unincorp Ventura
514,104,Ventu Park Fire Road & Potrero Road,,,Jessica/Jill,3/3/2003,mb12/31/03,,UX,UX,UX,UX,,,,,,NA,NA,,Yes,No,Yes,2,0,0,0,,dirt,No,NA,No,No,No,No,XX,XX,XX,XX,No,No,No,No,No,,out,0,34.15674678,-118.9180344,0,,VENTURA,Unincorp Ventura
515,107,Rancho Potrero Main Entrance,Rancho Potrero,Potrero Road,Ralf,,mb01/02/04 entered by NK 09/10/0,COSCA,OP,OP,OP,OP,UN,HE,,,,Tertiary,Tertiary,,Yes,Yes,Yes,2,0,0,0,pullout,dirt,No,NA,No,No,No,No,XX,XX,XX,XX,No,No,No,No,No,Only signage is COSCA/CRPD park reg's sign.  08/26/07 - Per Shelly at COSCA-don't map as a TH with parking.,Outside,3,34.15609947,-118.9861288,0,Y,VENTURA,Unincorp Ventura
516,106,RANCHO SIERRA VISTA/SATWIWA,RSV/Satwiwa,Potrero & Old Service Road (Danielson Rd),Jim Anderson,3/15/2001,mb12/31/03 entered by NK  09/10/,NPS,AD,AD,AD,AD,,,,,,NA,NA,,Yes,Yes,No,0,0,0,0,NA,NA,No,NA,No,No,No,No,No,XX,XX,XX,No,No,No,No,No,"Signage regs but no trail info.  Strict no parking around entrance.  Paved road.  Gate one, authorized vehicles only.",Outside,0,34.15654867,-118.9630327,0,,VENTURA,Unincorp Ventura
517,0,Westlake High School,COSCA Open Space,Westlake High School ^ Via Merida,MB,8/27/2007,8/27/2007,Westlake High School,OP,OP,OP,OP,MU,HO,,,,Tertiary,Tertiary,,Yes,No,Yes,99,0,0,0,parking lot,paved,No,NA,No,No,No,No,No,No,No,No,No,No,No,No,No,No parking during school hours.,Coastal,2,34.15900464,-118.8119886,0,Y,VENTURA,Thousand Oaks
518,106,RSV/Satwiwa,RSV/Satwiwa,Potrero ^ Pinehill,Jim Anderson,3/15/2001,mb12/31/03 entered by NK  09/10/,NPS,UP,UP,UP,UP,,,,,,Unauthorized,Unauthorized,,Yes,No,No,0,0,0,0,NA,NA,No,NA,No,No,No,No,No,XX,XX,XX,No,No,No,No,No,"Former entrance to 468 trailhead.  Gravel road gated off.  Access by foot only.  Strict no parking in area.  Signage present, just inside gate, that is non applicable.",Outside,0,34.15686011,-118.9657459,0,,VENTURA,Unincorp Ventura
519,105,NP/Antelope Pl,,Antelope Place,,,mb12/31/03,,DL,DL,DL,DL,,,,,,NA,NA,,No,No,No,0,0,0,0,NA,NA,No,NA,No,No,No,No,XX,XX,XX,XX,No,No,No,No,No,,Outside,0,34.15798821,-118.9418838,0,,VENTURA,Thousand Oaks
520,106,RSV/Satwiwa -- NP/W Potrero Rd,RSV/Satwiwa,Potrero ^ Briar,Lena and Dafna,,11/17/1999,NPS,DL,DL,DL,DL,,,,,,NA,NA,,No,No,No,0,0,0,0,NA,NA,No,NA,No,No,No,No,XX,XX,XX,XX,No,No,No,No,No,,Outside,0,34.15833729,-118.9585095,0,,VENTURA,Unincorp Ventura
521,114,Blythedale Rd,Cheeseboro/Palo Comado Canyons,Blythedale Rd Terminus,MB,,mb12/30/03 entered by NK 09/03/0,NPS,UP,EC,EC,EC,,EQ,,,,Unauthorized,NA,Yes,Yes,No,No,0,0,0,0,NA,NA,No,NA,No,No,No,No,XX,XX,XX,XX,No,No,No,No,No,Neighborhood/residential entrance.,Outside,0,34.16179563,-118.7316595,0,,LOS ANGELES,Agoura Hills
522,102,Los Robles Trail Access,COSCA Open Space,Foothill Road,Jill Keller,3/3/2003,mb12/31/03 entered by Nk  09/10/,COSCA,OP,OP,OP,OP,MU,MU,MU,,,Tertiary,Tertiary,,Yes,No,Yes,0,0,0,0,on-street,paved,No,NA,No,No,No,No,XX,XX,XX,XX,No,No,No,No,No,Needs gate & signage to distinguish trail.  mb edits.,Outside,2,34.16221571,-118.8406018,0,Y,VENTURA,Thousand Oaks
523,0,Lakeview Cyn Rd,COSCA Open Space,Lakeview Cyn Rd,MB,,mb08/27/07,Westlake High School,OP,OP,OP,OP,MU,HO,,,,Tertiary,Tertiary,,Yes,No,Yes,10,0,0,0,parking lot,paved,No,NA,No,No,No,No,No,No,No,No,No,No,No,No,No,Parking lot is part of Westlake High School.,Coastal,2,34.16434628,-118.8166539,0,Y,VENTURA,Thousand Oaks
524,104,Los Robles Trail -- Deer Ridge OS/Felton St,Los Robles Trail,Felton Street,Jessica/Jill,3/3/2003,mb12/31/03 entered by NK 09/10/0,,UP,UP,UP,UP,,,,,,Unauthorized,,,Yes,No,Yes,5,0,0,0,on-street,paved,No,NA,No,No,No,No,XX,XX,XX,XX,No,No,No,No,No,mb did edits,Outside,0,34.16488686,-118.9359835,0,,VENTURA,Thousand Oaks
525,113,Las Virgenes Canyon Trailhead,Upper Las Virgenes Cyn OS Preserve,Las Virgenes Rd Terminus N,MB,,mb01/01/04,MRCA,OP,OP,OP,OP,MU,MU,MU,,,Secondary,Secondary,,Yes,No,Yes,888,888,0,999,on-street,paved,Proposed,composting,No,Proposed,No,No,XX,Proposed,Proposed,Proposed,No,No,No,No,No,"Proposed TH would be located on west side of road somewhat south of park entrance.  Could plan for handicap & horse parking.  06/08/05 - TMP Team recommended this be ranked secondary based on level of use, but facilities would probably be installed at Mo",out,1,34.16856212,-118.7033219,0,Y,VENTURA,Calabasas
526,113,Palo Comado Cyn/Chesebro Cyn Rd,Cheeseboro/Palo Comado Canyons,Chesebro Road Northern Terminus,MB,,mb01/01/04,NPS,UP,EM,EM,EM,UN,MU,MU,,,Unauthorized,Tertiary,,Yes,No,No,0,0,0,0,NA,NA,No,NA,No,No,No,No,XX,XX,XX,XX,No,No,No,No,No,"mb:  Yellow Gate entrance.  Would make official, w/o any parking or facilities besides trail rules & directions, if Old Ag HOA would agree.",Outside,0,34.16810751,-118.7398043,0,,VENTURA,Unincorp Ventura
527,101,Los Robles Trail,Los Robles Trail,Rimrock Road,Jessica/Jill,3/3/2003,mb12/31/03 entered by NK  09/10/,,UP,UP,UP,UP,,,,,,Unauthorized,,,Yes,No,No,0,0,0,0,NA,NA,No,NA,No,No,No,No,XX,XX,XX,XX,No,No,No,No,No,Gated entrance to water tank that leads into trail.  mb - this is definite UP.  Trail up to Los Robles Trail is extremely steep & not official.,Outside,0,34.16653527,-118.8639864,0,,VENTURA,Unincorp Ventura
528,0,Westlake Blvd ^ Santiago St,COSCA Open Space,Westlake Blvd ^ Santiago St,MB,,mb08/27/07,COSCA,OP,OP,OP,OP,MU,,,,,Tertiary,Tertiary,,Yes,No,No,0,0,0,0,NA,NA,No,NA,No,No,No,No,No,No,No,No,No,No,No,No,No,"Poor TH.  Can park on Santiago St or in neighborhood, but must cross Westlake Blvd.",Coastal,2,34.16824334,-118.8214874,0,Y,VENTURA,Thousand Oaks
529,0,Peregrine Circle,Rancho Simi OS - Oak Park,Peregrine Circle - Oak Park,MB,,,Rancho Simi RPD,OP,OP,OP,OP,MU,,,,,Tertiary,Tertiary,,Yes,Maybe,Yes,0,0,0,0,on-street,paved,No,NA,No,No,No,No,No,No,No,No,No,No,No,No,No,mb 09/12/07 - need to dble ck facils in field.,Coastal,2,34.16976685,-118.7494035,0,Y,VENTURA,Oak Park
530,101,"Los Robles Trail -- T.O./Hillsboro St., Janss Fire Rd",COSCA Open Space,Hillsborough Street,Jessica/Jill,3/3/2003,entered by NK 09/10/03,CRPD,OP,OP,OP,OP,MU,,,,,Tertiary,Tertiary,,Yes,Yes,Yes,0,0,0,0,on-street,paved,No,NA,No,No,No,No,XX,XX,XX,XX,No,No,No,No,No,"Blue & white park rules sign,  fire gate.",Outside,2,34.16817817,-118.8719376,0,Y,VENTURA,Thousand Oaks
531,0,Add name later,check - Dos Vientos Open Space,Reino Road,Melanie,1/1/2001,mb08/26/07 need to ck in field,COSCA,OP,OP,OP,OP,MU,,MU,,,Tertiary,Tertiary,,Yes,ck,Yes,99,99,99,99,XX,XX,No,NA,No,XX,XX,XX,XX,XX,XX,XX,No,No,No,No,No,MB 08/26/07 - Per Shelly Austin at COSCA.  Facility inventory needs to be checked in field.,Outside,2,34.1672529,-118.9433279,0,Y,VENTURA,Thousand Oaks
532,103,T.O./Ventu Pk Fire Rd,,Ventu Park Fire Road,Jessica/Jill,3/3/2003,mb12/31/03 entered by NK  09/10/,,UX,UX,UX,UX,,,,,,NA,NA,,No,No,No,0,0,0,0,NA,NA,No,NA,No,No,No,No,XX,XX,XX,XX,No,No,No,No,No,No trespassing signs posted on road (check on permitting)  mb did edits.,Outside,0,34.16812438,-118.9072936,0,,VENTURA,Unincorp Ventura
533,113,Palo Comado Cyn/Chesebro Cyn R,Cheeseboro/Palo Comado Canyons,Palo Comado Canyon Road,,,mb01/01/04,,DL,DL,DL,DL,,,,,,NA,NA,,No,No,No,0,0,0,0,NA,NA,No,NA,No,No,No,No,XX,XX,XX,XX,No,No,No,No,No,,Outside,0,34.1712704,-118.7424994,0,,VENTURA,Unincorp Ventura
534,113,Rancho Simi OS/Smoketree Trailhead,Cheeseboro/Palo Comado Canyons,Smoketree Avenue,Jessica/Jill,3/5/2003,mb01/01/04 entered by NK 09/03/0,Rancho Simi RPD,OP,OP,OP,OP,MU,MU,MU,,,Tertiary,Tertiary,,Yes,Yes,Yes,888,0,0,0,on-street,paved,No,NA,No,No,No,No,No,No,No,Proposed,No,No,No,No,No,Water pump station 5 for Triunfo Sanitation District.  mb - ck for trail signage.,Outside,2,34.17327516,-118.7498992,0,Y,VENTURA,Oak Park
535,101,Los Robles Trail - South Moorpark Rd,COSCA Open Space,South Terminus of Moorpark Rd,MB,7/16/2007,mb07/16/07,COSCA,OP,OP,OP,OP,MU,MU,MU,,,Secondary,Secondary,,Yes,Yes,Yes,10,0,0,0,pullout,dirt,No,NA,No,Yes,No,No,XX,Yes,XX,Yes,No,No,No,No,No,,Outside,2,34.17198562,-118.8810508,0,Y,VENTURA,Thousand Oaks
536,0,Westlake OS South,COSCA Open Space,Hillcrest Dr West of Westlake Blvd,Melanie,8/27/2007,mb08/27/07,COSCA,OP,OP,OP,OP,MU,HO,,,,Tertiary,Tertiary,,Yes,No,No,0,0,0,0,NA,NA,No,NA,No,No,No,No,No,No,No,No,No,No,No,No,No,Poor TH but is an entrance point to greater COSCA trail network.,Coastal,2,34.17308028,-118.826616,0,Y,VENTURA,Thousand Oaks
537,0,Los Padres Drive Entrance,COSCA Open Space,Los Padres Drive near Moorpark,MB,7/16/2007,mb07/17/07,COSCA,OP,OP,OP,OP,MU,MU,MU,,,Tertiary,Tertiary,,Yes,Yes,Yes,0,0,0,0,on-street,paved,No,NA,No,Yes,No,No,XX,XX,XX,XX,No,No,No,No,No,,Coastal,2,34.17236733,-118.8769814,0,Y,VENTURA,Thousand Oaks
538,0,Rosewood Trailhead,COSCA Open Space,Regal Oak Drive Cul-de-Sac,Melanie,8/26/2007,MB 08/26/07,COSCA,OP,OP,OP,OP,MU,MU,MU,,,Tertiary,Tertiary,,Yes,Yes,Yes,0,0,0,0,on-street,paved,No,NA,No,No,No,No,No,No,No,No,No,No,No,No,No,,Outside,2,34.17260767,-118.9142695,0,Y,VENTURA,Thousand Oaks
539,103,Hemlock Gate Trailhead,CRPD,Hemlock Rd Eastern End,Melanie,8/26/2007,mb08/26/07,CRPD,OP,,,,MU,,,,,Tertiary,Tertiary,,Yes,Yes,No,0,0,0,0,NA,NA,No,NA,No,No,No,No,No,No,No,No,No,No,No,No,No,Access to Lynn Oaks Park.  Fire gate.  mb updated after field visit 08/26/07,Outside,2,34.17307228,-118.9034414,0,Y,VENTURA,Unincorp Ventura
540,103,Los Robles Trail -- T.O./Spruce Hill Ct,Lynn Oaks Park,Spruce Hill Court,Jessica/Jill,3/3/2003,mb12/31/03 entered by NK  09/10/,,UP,UP,UP,UP,,,,,,Unauthorized,Unauthorized,,Yes,Yes,No,0,0,0,0,NA,NA,No,NA,No,No,No,No,XX,XX,XX,XX,No,No,No,No,No,"Hours of operation signage, firegate.  mb edits.",Outside,0,34.17318187,-118.9004771,0,,VENTURA,Thousand Oaks
541,113,Sunrise Meadows/Smoketree Av,Cheeseboro/Palo Comado Canyons,Smoketree Avenue,Jessica/Jill,3/5/2003,entered by Nk 09/10/03,Rancho Simi RPD,OP,OP,OP,OP,MU,,,,,Tertiary,Tertiary,,Yes,Yes,Yes,2,0,0,0,on-street,paved,No,NA,No,No,No,No,XX,XX,XX,XX,No,No,No,No,No,mb - outside SMMNRA,Outside,0,34.17538084,-118.7554151,0,Y,VENTURA,Oak Park
542,0,Lynn Oaks Park - verify,Lynn Oaks Park,Capitan St ^ Poplar Crest Ave,Melanie,8/26/2007,MB 08/26/07,,UP,UP,UP,UP,,,,,,NA,NA,,Yes,No,Yes,0,0,0,0,on-street,paved,No,NA,No,No,No,No,No,Yes,XX,XX,No,No,No,No,No,MB visited site 08/26/07 - Need to look at facilities again.,Outside,0,34.17363075,-118.9015605,0,,VENTURA,Thousand Oaks
543,113,Rancho Simi OS/Sunnycrest Dr,Rancho Simi OS,Sunnycrest ^ Trefoil,,,,,XX,XX,,,,,,,,XX,XX,,No,No,No,0,0,0,0,NA,NA,No,NA,No,No,No,No,XX,XX,XX,XX,No,No,No,No,No,,Outside,0,34.17718,-118.7552415,0,,VENTURA,Oak Park
544,101,Los Robles Trail -- T.O./Greenmeadow Av,COSCA Open Space,Los Robles Trail -- Greenmeadow Av,MB,,mb12/31/03,CRPD,OP,,,,UN,,,,,Tertiary,Tertiary,,Yes,Yes,Yes,0,0,0,0,on-street,paved,No,,No,No,No,No,No,No,No,No,No,No,No,No,No,,Outside,0,34.17528452,-118.8834147,0,Y,VENTURA,Thousand Oaks
545,101,Oak Creek Canyon Trailhead,COSCA Open Space,Greenmeadow Avenue,Jessica & Jill,3/3/2003,mb12/31/03,COSCA,OP,OP,OP,OP,MU,MU,,,,Secondary,Secondary,,Yes,Yes,Yes,40,0,0,4,parking lot,paved,Yes,chemical,No,Yes,No,Yes,No,Yes,Yes,Yes,No,Yes,No,No,No,Updated by MB 08/26/07,Outside,2,34.17526573,-118.885678,0,Y,VENTURA,Thousand Oaks
546,113,Sunrise Meadows/Sunnycrest Dr,Simi Hills,Sunnycrest Drive,Jessica/Jill,3/4/2003,enterd by NK 09/10/03,Rancho Simi,XX,XX,,,,,,,,XX,XX,,Yes,Yes,No,0,0,0,0,NA,NA,No,NA,No,No,No,No,XX,XX,XX,XX,No,No,No,No,No,mb skimpy info.  re-ck in field.,Outside,0,34.17740216,-118.7560021,0,,VENTURA,Oak Park
547,118,Indian Springs Park Trailhead,Indian Springs Park,Cremona ^ Hawthorne,Ralf,5/20/2003,entered by NK  09/10/03,Rancho Simi RPD,OP,OP,OP,OP,MU,,,,,Tertiary,Tertiary,,Yes,Yes,Yes,40,0,0,4,parking lot,paved,Yes,flush,No,No,No,Yes,Yes,Yes,No,No,No,Yes,No,No,No,"Wistful Vista open space.  Basefall field, playground, picnic tables, shelter, grill, basketball, fitness trail, tennis, volleyball.",Outside,0,34.1774327,-118.7813266,0,Y,VENTURA,Oak Park
548,118,Rancho Simi OS,Rancho Simi OS - Oak Park,Kanan ^ Churchwood/Hawthorne,Jessica/Jill,3/4/2003,entered by NK  09/10/03,Rancho Simi RPD,OP,OP,OP,OP,MU,,,,,Tertiary,Tertiary,,Yes,Yes,No,2,0,0,0,pullout,,No,NA,No,No,No,No,XX,XX,XX,XX,No,No,No,No,No,Signage from only one side of road (poorly marked),Outside,0,34.17911457,-118.7752824,0,Y,VENTURA,Oak Park
549,118,"Wistful Vista, Rancho Simi OS",Rancho Simi OS - Oak Park,Kanan Road,Jessica/Jill,3/4/2003,entered by NK  09/10/03,Rancho Simi RPD,OP,OP,OP,OP,MU,,,,,Tertiary,Tertiary,,Yes,Yes,No,0,0,0,0,NA,NA,No,NA,No,No,No,No,XX,XX,XX,XX,No,No,No,No,No,,Outside,0,34.18030835,-118.7725435,0,Y,VENTURA,Oak Park
550,118,Rancho Simi OS,Rancho Simi OS - Oak Park,Kanan Rd ^ Oak Park Library,Jessica/Jill,3/4/2003,entered by NK  09/10/03,Rancho Simi RPD,OP,OP,OP,OP,MU,,,,,Tertiary,Tertiary,,Yes,Yes,No,0,0,0,0,NA,NA,No,NA,No,No,No,No,XX,XX,XX,XX,No,No,No,No,No,,Outside,0,34.1805749,-118.7621707,0,Y,VENTURA,Oak Park
551,118,Rancho Simi OS,Rancho Simi OS - Oak Park,Churchwood Drive,Jessica/Jill,3/5/2003,entered by NK  09/10/03,Rancho Simi RPD,OP,OP,OP,OP,MU,,,,,Tertiary,Tertiary,,Yes,No,Yes,5,0,0,0,on-street,,No,NA,No,No,No,No,XX,XX,XX,XX,No,No,No,No,No,Fire road access,Outside,0,34.1806139,-118.7765135,0,Y,VENTURA,Oak Park
552,113,Rancho Simi OS,Cheseboro/Palo Comado,Doubletree ^ Oak Springs,Jessica/Jill,3/4/2003,mb01/02/04 entered by NK  09/10/,Rancho Simi,DL,DL,DL,DL,,,,,,NA,NA,,Yes,No,Yes,10,0,0,0,on-street,paved,No,NA,No,No,No,No,XX,XX,XX,XX,No,No,No,No,No,Fire road access.  mb edits.,Outside,0,34.1811313,-118.7513296,0,,VENTURA,Oak Park
553,118,Oak Canyon Community Park,Rancho Simi OS - Oak Park,Kanan ^ Hollytree,Jessica/Jill,3/4/2003,mb01/01/04 entered by NK  09/10/,Rancho Simi RPD,OP,OP,OP,OP,MU,,MU,,,Secondary,Secondary,,Yes,Yes,Yes,21,0,0,1,parking lot,paved,Yes,flush,No,Yes,No,Yes,Yes,XX,XX,XX,No,Yes,No,No,No,"Entrance to Oak Canyon Community Park.  Duck pond, nice landscape & path, barbeque.  ADA(blind) trail & Braille signage & guide w/posts.",out,2,34.18135391,-118.7711686,0,Y,VENTURA,Oak Park
554,113,Rancho Simi OS/Doubletree Trailhead,Cheeseboro/Palo Comado Canyons,Doubletree Road,Jessica/Jill,3/5/2003,mb01/01/04 entered by NK 09/03/0,Rancho Simi RPD,OP,OP,OP,OP,MU,MU,MU,,,Tertiary,Tertiary,,Yes,Yes,Yes,888,0,0,0,on-street,paved,No,NA,No,No,No,No,No,No,No,Proposed,No,No,No,No,No,mb - bad info.  I updated.  Need field ck for signage  10/07/09 MB updated name and attribute information.  All should be correct now.,Outside,2,34.18257943,-118.751901,0,Y,VENTURA,Oak Park
555,118,"Rocky Ridge, Rancho Simi OS",Rancho Simi OS - Oak Park,Hollytree Drive,Jessica/Jill,3/4/2003,entered by NK  09/10/03,Rancho Simi RPD,OP,OP,OP,OP,MU,,,,,Tertiary,Tertiary,,Yes,Yes,Yes,5,0,0,0,on-street,paved,No,NA,No,No,No,No,XX,XX,XX,XX,No,No,No,No,No,,Outside,0,34.18237922,-118.7682233,0,Y,VENTURA,Oak Park
556,118,Rancho Simi OS,Rancho Simi OS,Kanan Road,Jessica/Jill,3/4/2003,entered by NK  09/10/03,Rancho Simi,XX,XX,,,,,,,,XX,XX,,Yes,Yes,No,0,0,0,0,NA,NA,No,NA,No,No,No,No,XX,XX,XX,XX,No,No,No,No,No,"Fire road access.  Sign going southbound on Kanan, but no access from that side.  No signage on side with access.  mb:  re-ck in field.",Outside,0,34.18230989,-118.7820599,0,,VENTURA,Oak Park
557,0,Victory Trailhead,Upper Las Virgenes Cyn OS Preserve,Victory Blvd Western Terminus,MB,,entered by NK 09/10/03,MRCA,OP,OP,OP,OP,MU,MU,MU,,,Secondary,Primary,,Yes,Yes,Yes,50,0,1,0,NA,dirt,Yes,portable,No,Yes,No,No,XX,Yes,XX,Proposed,No,No,No,No,No,06/08/05 - TMP Team mtg reminded mb of need to add this trailhead to inventory.  mb.,Outside,1,34.18525685,-118.668557,0,Y,VENTURA,Unincorp Ventura
558,10,Conejo School Rd N Terminus,COSCA Open Space,Conejo School Rd N Terminus,Melanie,8/25/2007,mb08/27/07,COSCA,OP,OP,OP,OP,MU,,,,,Tertiary,Tertiary,,Yes,Yes,Yes,0,0,0,0,on-street,paved,No,NA,No,No,No,No,No,No,No,No,No,No,No,No,No,Only sign was COSCA rules/yield sign,Coastal,2,34.18467132,-118.8383279,0,Y,VENTURA,Thousand Oaks
559,10,La Granada Rd S Terminus,COSCA Open Space,La Granada Rd S Terminus,Melanie,8/25/2007,mb08/27/07,COSCA,OP,OP,OP,OP,MU,,,,,Tertiary,Tertiary,,Yes,Yes,Yes,0,0,0,0,on-street,paved,No,NA,No,No,No,No,No,No,No,No,No,No,No,No,No,Only sign was COSCA rules/yield sign,Coastal,2,34.18587385,-118.8374729,0,Y,VENTURA,Thousand Oaks
560,57,St. Maximilian Kolbe Catholic Church,Rancho Simi OS - Oak Park,Kanan Rd ^ Lindero Cyn Rd,Melanie,8/30/2007,mb08/30/07,Rancho Simi RPD,OP,OP,OP,OP,MU,,,,,Tertiary,Tertiary,,Yes,Yes,Yes,12,0,99,3,parking lot,gravel,No,NA,No,No,No,No,No,No,No,No,No,No,No,No,No,mb 08/30/07 - signage indicating TH parking as small part of large overflow lot for church.  Only sign is Sandstone Hils Trail as part of one of the TH parking signs.  Enter off Lindero.,Outside,2,34.18745382,-118.7855489,0,Y,VENTURA,Thousand Oaks
561,112,Rancho Simi OS,Rancho Simi OS,Golden Eagle Drive,Jessica/Jill,3/4/2003,entered by NK  09/10/03,Rancho Simi,XX,XX,,,,,,,,XX,XX,,Yes,Yes,Yes,10,0,0,0,on-street,,No,NA,No,No,No,No,XX,XX,XX,XX,No,No,No,No,No,Fire road access  mb:  re-ck in field,Outside,0,34.18779652,-118.7833228,0,,VENTURA,Oak Park
562,109,NPS SAMO HQ -- HEADQUARTERS AND VISITOR CENTE,NPS SAMO HQ,401 W. Hillcrest Drive,,,,,XX,XX,,,,,,,,XX,XX,,No,No,No,0,0,0,0,NA,NA,No,NA,No,No,No,No,XX,XX,XX,XX,No,No,No,No,No,,Outside,0,34.18678658,-118.8830939,0,,VENTURA,Thousand Oaks
563,112,Rancho Simi OS,Rancho Simi OS,Lindero Canyon Road,Jessica/Jill,3/4/2003,entered by NK  09/10/03,Rancho Simi,XX,XX,,,,,,,,XX,XX,,Yes,Yes,No,0,0,0,0,NA,NA,No,NA,No,No,No,No,XX,XX,XX,XX,No,No,No,No,No,Fire road access.  mb:  need to re-check in field.,Outside,0,34.18979576,-118.7848946,0,,VENTURA,Oak Park
564,0,Deerhill Road Trailhead,Rancho Simi OS - Oak Park,Deerhill Road Oak Park Phase 3,Melanie,,,Rancho Simi RPD,OP,OP,OP,OP,MU,,,,,Tertiary,Tertiary,,Yes,XX,Yes,15,0,0,0,parking lot,paved,No,NA,No,No,No,XX,XX,XX,XX,XX,No,No,No,No,No,Need to check facilities in field  mb08/28/07,Outside,2,34.1908956,-118.7598884,0,Y,VENTURA,Oak Park
565,112,"Sandstone Hills Trail, Rancho Simi OS",Rancho Simi OS,Pathfinder Avenue,Jessica/Jill,3/4/2003,entered by NK  09/10/03,Conejo Rec,XX,XX,,,,,,,,XX,XX,,Yes,No,Yes,5,0,0,0,on-street,paved,No,NA,No,No,No,No,XX,XX,XX,XX,No,No,No,No,No,Equestrian use designate  mb:  need to re-check in field.,Outside,0,34.19317101,-118.7845164,0,,VENTURA,Thousand Oaks
566,112,China Flat Trailhead,Cheeseboro/Palo Comado Canyons,Lindero Canyon Rd ^ King James Ct,Jessica/Jill,3/4/2003,mb01/01/04 entered by NK 09/10/0,Rancho Simi RPD,OP,OP,OP,OP,MU,MU,MU,,,Tertiary,Tertiary,Yes,Yes,Yes,Yes,888,0,0,0,on-street,paved,No,NA,No,No,No,No,No,XX,XX,XX,No,No,No,No,No,mb:  Neighbors are difficult about parking.  Big trailhead sign.  Joint Simi Hills reg sign?,Outside,2,34.19364708,-118.7752356,0,Y,VENTURA,Oak Park
567,112,China Flat Trailhead -- King James Ct,Rancho Simi OS,King James Court,Jessica/Jill,3/4/2003,mb01/01/04 entered by NK 09/03/0,Rancho Simi,UP,UP,UP,UP,UN,MU,UN,,,Unauthorized,Unauthorized,Yes,Yes,Yes,Yes,5,0,0,0,on-street,paved,No,NA,No,No,No,No,XX,XX,XX,XX,No,No,No,No,No,mb - RSRPD wants public to not use this park entrance.  Moved to TH right on Lindero.,Outside,0,34.19539696,-118.7768495,0,,VENTURA,Oak Park
568,0,Grissom St N Terminus,COSCA Open Space,Grissom St N Terminus,Melanie,8/25/2007,mb08/27/07,COSCA,OP,OP,OP,OP,MU,,,,,Tertiary,Tertiary,,Yes,Yes,Yes,0,0,0,0,on-street,paved,No,NA,No,No,No,No,No,No,No,No,No,No,No,No,No,Only sign is COSCA rules/yield sign,Coastal,2,34.19815598,-118.8333236,0,Y,VENTURA,Thousand Oaks
569,10,Albertson Motorway ^ Lang Ranch Pkwy,COSCA Open Space - Simi Hills,Albertson Motorway ^ Lang Ranch Pkwy,MB,6/16/2000,mb01/01/04,COSCA,OP,OP,OP,OP,MU,MU,MU,,,Tertiary,Tertiary,,No,Yes,Yes,888,0,0,0,on-street,paved,No,NA,No,No,No,No,No,Proposed,No,Proposed,No,No,No,No,No,"MU triangle at TH.  Simi Hills Joint Reg sign located approximately 300 feet down trail.  Muttmitts would be helpful here, along w/a garbage can.",out,2,34.21274716,-118.8101278,0,Y,VENTURA,Thousand Oaks
570,0,Westlake Blvd ^ Autumn Ridge Dr,COSCA Open Space,Westlake Blvd ^ Autumn Ridge Dr,Melanie,8/27/2007,mb08/27/07,COSCA,OP,OP,OP,OP,MU,,,,,Tertiary,Tertiary,,Yes,Yes,Yes,0,0,0,0,on-street,paved,No,NA,No,No,No,No,XX,XX,XX,XX,No,No,No,No,No,Melanie:  In-house recollection of TH.  Need to confirm facilities in field.,Coastal,2,34.21642405,-118.8157423,0,Y,VENTURA,Thousand Oaks
571,0,Wildwood Park Main Trailhead,Wildwood Park,West end of Avenida de los Arboles,MB/EE,6/16/2000,mb10/31/00,CRPD,OP,OP,OP,OP,MU,MU,,,,Secondary,Secondary,,Yes,Yes,Yes,50,0,99,0,parking lot,gravel,No,NA,No,Yes,No,No,No,Yes,XX,Yes,No,No,No,No,No,MB 09/16/07 - finish any edits later.,Coastal,2,34.22004522,-118.9022528,0,Y,VENTURA,Thousand Oaks
572,0,Sage Ranch Trailhead,Sage Ranch,Woolsey Canyon Rd ^ Sage Ranch,MB,,,MRCA,OP,OP,OP,OP,MU,,MU,,,Secondary,Secondary,,Yes,Yes,Yes,12,0,0,0,parking lot,gravel,No,chemical,Yes,Yes,No,No,Yes,Yes,XX,XX,No,No,Yes,No,No,MB 11/2007 - May need to verify facilities in field.,Outside,2,34.24141609,-118.6717603,0,Y,VENTURA,Unincorp Ventura
573,0,Challenger Park Trailhead,Challenger Park,Long Canyon Rd ^ Challenger Park,Melanie,,,Rancho Simi RPD,OP,OP,OP,OP,MU,,,,,Secondary,Secondary,,Yes,XX,Yes,15,0,1,1,parking lot,paved,XX,XX,No,XX,XX,XX,XX,XX,XX,XX,No,No,No,No,No,MB 11/2007 - Need to verify facilities in field,Outside,2,34.24074453,-118.7789998,0,Y,VENTURA,Simi Valley
0,0,BBT - Piuma Trailhead,Malibu Creek State Park,,,,,,,,,,,,,,,,,,,,,0,0,0,0,,,,,,,,,,,,,,,,,,,,0,0,0,0,,,
